{"version": 0.6, "generator": "Overpass API 0.7.62.1 084b4234", "osm3s": {"timestamp_osm_base": "2024-06-14T12:07:11Z", "copyright": "The data included in this document is from www.openstreetmap.org. The data is made available under ODbL."}, "elements": [{"type": "node", "id": 25748572, "lat": 53.4655205, "lon": 9.80013, "tags": {"amenity": "police", "name": "Polizeistation Neu Wulmstorf"}}, {"type": "node", "id": 104124209, "lat": 53.6716611, "lon": 10.2337687, "tags": {"addr:city": "Ahrensburg", "addr:country": "DE", "addr:housenumber": "5", "addr:postcode": "22926", "addr:street": "An der Reitbahn", "amenity": "police", "fax": "+494102809119", "name": "Polizei-Zentralstation Ahrensburg", "phone": "+49 4102 8090"}}, {"type": "node", "id": 308016853, "lat": 53.6645419, "lon": 9.9047946, "tags": {"addr:city": "Bönningstedt", "addr:country": "DE", "addr:housenumber": "103", "addr:postcode": "25474", "addr:street": "Kieler Straße", "amenity": "police", "name": "Polizeistation Bönningstedt", "phone": "+49 40 35627520", "website": "https://www.schleswig-holstein.de/DE/landesregierung/ministerien-behoerden/POLIZEI/eRevier/Dienststellensuche/tabellarische_Suche/tabellarischeSuche_node.html?keyword=B%C3%B6nningstedt#start", "wheelchair": "yes"}}, {"type": "node", "id": 319682019, "lat": 53.5549174, "lon": 10.0162878, "tags": {"addr:city": "Hamburg", "addr:country": "DE", "addr:housenumber": "82", "addr:postcode": "20099", "addr:street": "Steindamm", "amenity": "police", "contact:email": "pk11@polizei.hamburg.de", "contact:fax": "+49 40 428651119", "contact:phone": "+49 40 428651110", "contact:website": "https://polizei.hamburg", "name": "Polizeikommissariat 11", "operator": "Polizei Hamburg", "operator:wikidata": "Q882239", "operator:wikipedia": "de:Polizei Hamburg", "ref": "PK11", "short_name": "PK11", "wheelchair": "yes"}}, {"type": "node", "id": 321455425, "lat": 53.7082168, "lon": 9.9907966, "tags": {"addr:housenumber": "78", "addr:street": "Rathausallee", "amenity": "police", "contact:phone": "+49405353620", "name": "Norderstedt-Mitte", "wheelchair": "limited"}}, {"type": "node", "id": 365985732, "lat": 53.5689582, "lon": 10.1632007, "tags": {"addr:city": "Barsbüttel", "addr:housenumber": "38e", "addr:postcode": "22885", "addr:street": "Hauptstraße", "amenity": "police", "email": "barsbuettel.pst@polizei.landsh.de", "fax": "+49 40 67078058", "name": "Polizeistation Barsbüttel", "opening_hours": "Mo-Sa 07:00-19:00", "phone": "+49 40 67078056", "website": "https://www.schleswig-holstein.de/DE/Landesregierung/POLIZEI/Polizei_node.html", "wheelchair": "yes"}}, {"type": "node", "id": 393208647, "lat": 53.6665592, "lon": 9.7944973, "tags": {"addr:city": "Pinneberg", "addr:housenumber": "40", "addr:postcode": "25421", "addr:street": "Elmshorner Straße", "amenity": "police", "name": "Polizeirevier Pinneberg"}}, {"type": "node", "id": 432425870, "lat": 53.6483467, "lon": 10.2805724, "tags": {"addr:city": "Großhansdorf", "addr:country": "DE", "addr:housenumber": "18", "addr:postcode": "22927", "addr:street": "Kortenkamp", "amenity": "police", "fax": "+49 4102 4565 119", "name": "Polizeistation Großhansdorf", "phone": "+49 4102 4565 0"}}, {"type": "node", "id": 469397571, "lat": 53.5499384, "lon": 9.9922557, "tags": {"addr:city": "Hamburg", "addr:country": "DE", "addr:housenumber": "1", "addr:postcode": "20095", "addr:street": "Rathausmarkt", "amenity": "police", "contact:phone": "+49 40 428651491", "contact:website": "https://polizei.hamburg", "name": "Polizeikommissariat 14, Rathauswache", "official_name": "Polizeikommissariat 14, Polizeiaußenstelle Rathaus", "operator": "Polizei Hamburg", "operator:wikidata": "Q882239", "operator:wikipedia": "de:Polizei Hamburg", "wheelchair": "yes"}}, {"type": "node", "id": 513876267, "lat": 53.5408234, "lon": 10.2145287, "tags": {"addr:city": "Glinde", "addr:country": "DE", "addr:housenumber": "1", "addr:postcode": "21509", "addr:street": "Oher Weg", "amenity": "police", "fax": "+49 40 710903 19", "name": "Polizei-Zentralstation Glinde", "phone": "+49 40 710903 0", "source": "visits", "wheelchair": "yes"}}, {"type": "node", "id": 514827554, "lat": 53.6500157, "lon": 10.1619344, "tags": {"amenity": "police", "name": "Polizeikommissariat 35, Außenstelle Volksdorf", "official_name": "Polizeikommissariat 35, Polizeiaußenstelle Volksdorf", "operator": "Polizei Hamburg", "operator:wikidata": "Q882239", "operator:wikipedia": "de:Polizei Hamburg", "toilets:wheelchair": "yes", "wheelchair": "yes"}}, {"type": "node", "id": 539818618, "lat": 53.4224959, "lon": 10.0157805, "tags": {"amenity": "police", "name": "Polizei Meckelfeld", "wheelchair": "yes"}}, {"type": "node", "id": 614298548, "lat": 53.545705, "lon": 9.9691505, "tags": {"addr:city": "Hamburg", "addr:country": "DE", "addr:housenumber": "3a", "addr:postcode": "20359", "addr:street": "Bei den St. Pauli Landungsbrücken", "amenity": "police", "contact:website": "https://polizei.hamburg", "name": "Wasserschutzpolizei", "official_name": "Wasserschutzpolizeikommissariat 2, Polizeibedarfsaußsenstelle Landungsbrücken", "operator": "Polizei Hamburg", "operator:wikidata": "Q882239", "operator:wikipedia": "de:Polizei Hamburg", "police": "naval_base"}}, {"type": "node", "id": 660330538, "lat": 53.685107, "lon": 9.9875666, "tags": {"addr:city": "Norderstedt", "addr:country": "DE", "addr:housenumber": "24", "addr:postcode": "22850", "addr:street": "Europaallee", "amenity": "police", "fax": "+49 40 52806209", "name": "Polizeirevier Norderstedt", "phone": "+49 40 528060", "wheelchair": "yes"}}, {"type": "node", "id": 670499856, "lat": 53.6928732, "lon": 9.7914076, "tags": {"addr:city": "Kummerfeld", "addr:country": "DE", "addr:housenumber": "1", "addr:postcode": "25495", "addr:street": "Dorfstraße", "amenity": "police", "name": "Polizeiwache Kummerfeld"}}, {"type": "node", "id": 986842420, "lat": 53.4896975, "lon": 10.1593035, "tags": {"amenity": "police", "contact:website": "https://polizei.hamburg", "layer": "1", "name": "Polizeiaußenstelle Allermöhe", "note": "the police station is in part of the \"parking garage\"", "official_name": "Polizeikommissariat 43, Polizeiaußenstelle Allermöhe", "operator": "Polizei Hamburg", "operator:wikidata": "Q882239", "operator:wikipedia": "de:Polizei Hamburg", "wheelchair": "yes"}}, {"type": "node", "id": 1425590542, "lat": 53.6852157, "lon": 9.987563, "tags": {"addr:city": "Norderstedt", "addr:country": "DE", "addr:housenumber": "24", "addr:postcode": "22850", "addr:street": "Europaallee", "amenity": "police", "fax": "+49 40 52806 109", "name": "Kriminalpolizeiaußenstelle Norderstedt", "phone": "+49 40 52806 0", "wheelchair": "yes"}}, {"type": "node", "id": 1570902438, "lat": 53.5521848, "lon": 9.9354897, "tags": {"addr:city": "Hamburg", "addr:housenumber": "16", "addr:postcode": "22765", "addr:street": "Paul-Nevermann-Platz", "amenity": "police", "level": "1", "name": "Bundespolizeirevier Hamburg-Altona", "operator": "Bundespolizei", "operator:short": "BPOL", "operator:wikidata": "Q56026", "operator:wikipedia": "de:Bundespolizei (Deutschland)", "short_name": "BPOLR HH-ALT", "wheelchair": "yes"}}, {"type": "node", "id": 1629352928, "lat": 53.6313653, "lon": 10.0063009, "tags": {"amenity": "police", "wheelchair": "yes"}}, {"type": "node", "id": 2013000985, "lat": 53.5423934, "lon": 10.1662931, "tags": {"amenity": "police"}}, {"type": "node", "id": 2014374443, "lat": 53.4563173, "lon": 9.9914965, "tags": {"addr:city": "Hamburg", "addr:housenumber": "85", "addr:postcode": "21079", "addr:street": "Hannoversche Straße", "amenity": "police", "email": "bpolr.hamburg.harburg@polizei.bund.de", "fax": "+49 40 7658202", "level": "-1", "name": "Bundespolizeirevier Hamburg-Harburg", "name:en": "Federal Police Station Hamburg-Harburg", "operator": "Bundespolizei", "operator:short": "BPOL", "operator:wikidata": "Q56026", "operator:wikipedia": "de:Bundespolizei (Deutschland)", "phone": "+49 40 300856670", "short_name": "BPOLR HH-HAR", "website": "http://polizei.bund.de", "wheelchair": "no"}}, {"type": "node", "id": 3338269125, "lat": 53.7335239, "lon": 10.0893644, "tags": {"addr:housenumber": "12", "addr:street": "Wassermühlenweg", "amenity": "police", "name": "Polizeistation Tangstedt"}}, {"type": "node", "id": 4144366166, "lat": 53.4534474, "lon": 9.9874417, "tags": {"addr:city": "Hamburg", "addr:country": "DE", "addr:housenumber": "100", "addr:postcode": "21073", "addr:street": "Wilstorfer Straße", "amenity": "police", "name": "Polizeikommissariat 45", "source": "survey", "website": "https://www.hamburg.de/polizei/"}}, {"type": "node", "id": 5161648553, "lat": 53.5359811, "lon": 9.8775662, "tags": {"amenity": "police", "contact:fax": "+49 40 427999115", "contact:phone": "+49 40 428654710", "description:de": "Außenstellle des Polizeikommissariat 47", "name": "Polizeiaußenstelle Finkenwerder", "official_name": "Polizeikommissariat 47, Polizeiaußenstelle Finkenwerder", "operator": "Polizei Hamburg", "operator:wikidata": "Q882239", "operator:wikipedia": "de:Polizei Hamburg"}}, {"type": "node", "id": 5454323972, "lat": 53.5538191, "lon": 10.0074037, "tags": {"addr:city": "Hamburg", "addr:housenumber": "10", "addr:postcode": "20099", "addr:street": "Hachmannplatz", "amenity": "police", "contact:email": "bpolr.hamburg.hbf@polizei.bund.de", "contact:fax": "+49 40 330770", "contact:phone": "+49 40 3096810", "contact:website": "http://polizei.bund.de", "description": "Zugang seitlich am Bahnhofsgebäude", "name": "Bundespolizeirevier Hamburg-Hauptbahnhof", "opening_hours": "24/7", "operator": "Bundespolizei", "operator:short": "BPOL", "operator:wikidata": "Q56026", "operator:wikipedia": "de:Bundespolizei (Deutschland)", "short_name": "BPOLR HH", "wheelchair": "limited"}}, {"type": "node", "id": 5538658575, "lat": 53.6287337, "lon": 10.0064612, "tags": {"addr:city": "Hamburg", "addr:country": "DE", "addr:housenumber": "1-3", "addr:postcode": "22335", "addr:street": "Flughafenstraße", "amenity": "police", "contact:phone": "+49 40 4286-53460", "contact:website": "https://www.polizei.hamburg", "name": "PK 34, Polizeiaußenstelle Flughafen", "official_name": "Polizeikommissariat 34, Polizeiaußenstelle Flughafen", "operator": "Polizei Hamburg", "operator:wikidata": "Q882239", "operator:wikipedia": "de:Polizei Hamburg"}}, {"type": "node", "id": 5722320715, "lat": 53.4560444, "lon": 10.0043405, "tags": {"addr:city": "Hamburg", "addr:country": "DE", "addr:housenumber": "14", "addr:street": "Großmoorring", "amenity": "police", "contact:website": "https://polizei.hamburg", "name": "Polizei Hamburg, Verkehrsstaffel Süd", "operator": "Polizei Hamburg", "operator:wikidata": "Q882239", "operator:wikipedia": "de:Polizei Hamburg", "police": "offices"}}, {"type": "node", "id": 6356762571, "lat": 53.5549924, "lon": 9.9695684, "tags": {"alt_name": "Dom- und Stadionwache", "amenity": "police", "description": "Temporär während den Heimspielen FC St. Pauli, dem Hamburger Dom oder sonstigen Großveranstaltungen besetzt.", "name": "PK 16, Polizeiaußenstelle Heiligengeistfeld", "official_name": "Polizeikommissariat 16, Polizeiaußenstelle Heiligengeistfeld", "operator": "Polizei Hamburg", "operator:wikidata": "Q882239", "operator:wikipedia": "de:Polizei Hamburg"}}, {"type": "node", "id": 8412220363, "lat": 53.557048, "lon": 9.8958786, "tags": {"access": "private", "amenity": "police", "contact:website": "https://polizei.hamburg", "entrance": "staircase", "name": "Polizei Hamburg, Verkehrsstaffel West (VD 213)", "operator": "Polizei Hamburg", "operator:wikidata": "Q882239", "operator:wikipedia": "de:Polizei Hamburg", "police": "offices"}}, {"type": "node", "id": 9981354117, "lat": 53.5430778, "lon": 9.9830762, "tags": {"amenity": "police", "branch": "Referat 62", "contact:website": "https://www.polizei.hamburg/grenzpolizei-554488", "government": "customs", "name": "Wasserschutzpolizei Hamburg", "official_name": "Wasserschutzpolizei Hamburg, Fachdienst Grenzpolizeiliche Aufgaben/Hafensicherheit", "operator": "Polizei Hamburg", "operator:wikidata": "Q882239", "operator:wikipedia": "de:Polizei Hamburg", "police": "offices"}}, {"type": "node", "id": 10152878102, "lat": 53.6935676, "lon": 10.0274277, "tags": {"amenity": "police", "name": "Revier Norderstedt Ost"}}, {"type": "node", "id": 11127304652, "lat": 53.5809842, "lon": 9.7573426, "tags": {"addr:city": "Hamburg", "addr:country": "DE", "addr:housenumber": "40", "addr:postcode": "22559", "addr:street": "Rissener Dorfstraße", "amenity": "police", "contact:website": "https://polizei.hamburg", "name": "Polizeikommissariat 26, Außenstelle Rissen", "official_name": "Polizeikommissariat 26, Polizeiaußenstelle Rissen", "operator": "Polizei Hamburg", "operator:wikidata": "Q882239", "operator:wikipedia": "de:Polizei Hamburg"}}, {"type": "node", "id": 11127404112, "lat": 53.5718295, "lon": 10.0311496, "tags": {"addr:city": "Hamburg", "addr:country": "DE", "addr:housenumber": "42", "addr:postcode": "22081", "addr:street": "Oberaltenallee", "amenity": "police", "contact:email": "pk31@polizei.hamburg.de", "contact:fax": "+49 40 427314159", "contact:phone": "+49 40 428653110", "contact:website": "https://polizei.hamburg", "name": "Polizeikommissariat 31", "official_name": "Polizeikommissariat 31", "operator": "Polizei Hamburg", "operator:wikidata": "Q882239", "operator:wikipedia": "de:Polizei Hamburg", "short_name": "PK31", "wheelchair": "yes"}}, {"type": "node", "id": 11128481734, "lat": 53.4300312, "lon": 10.2745813, "tags": {"amenity": "police", "contact:phone": "+49 40 4286-54357", "contact:website": "https://polizei.hamburg", "name": "Polizeiposten Altengamme", "official_name": "Polizeikommissariat 43, Polizeiposten Altengamme", "operator": "Polizei Hamburg", "operator:wikidata": "Q882239", "operator:wikipedia": "de:Polizei Hamburg"}}, {"type": "node", "id": 11128481737, "lat": 53.4480627, "lon": 10.2245222, "tags": {"amenity": "police", "contact:phone": "+49 40 4286-54356", "contact:website": "https://polizei.hamburg", "name": "Polizeiposten Curslack-Neuengamme", "official_name": "Polizeikommissariat 43, Polizeiposten Curslack-Neuengamme", "operator": "Polizei Hamburg", "operator:wikidata": "Q882239", "operator:wikipedia": "de:Polizei Hamburg"}}, {"type": "node", "id": 11128481738, "lat": 53.4408448, "lon": 10.1149322, "tags": {"amenity": "police", "contact:phone": "+49 40 4286-54354", "contact:website": "https://polizei.hamburg", "name": "Polizeiposten Kirchwerder-Warwisch", "official_name": "Polizeikommissariat 43, Polizeiposten Kirchwerder-Warwisch", "operator": "Polizei Hamburg", "operator:wikidata": "Q882239", "operator:wikipedia": "de:Polizei Hamburg"}}, {"type": "node", "id": 11128481748, "lat": 53.4603801, "lon": 10.070938, "tags": {"amenity": "police", "contact:phone": "+49 40 4286-54352", "contact:website": "https://polizei.hamburg", "name": "Polizeiposten Ochsenwerder/Moorfleet", "official_name": "Polizeikommissariat 43, Polizeiposten Ochsenwerder-Moorfleet", "operator": "Polizei Hamburg", "operator:wikidata": "Q882239", "operator:wikipedia": "de:Polizei Hamburg"}}, {"type": "node", "id": 11128481749, "lat": 53.4013976, "lon": 10.1751965, "tags": {"amenity": "police", "contact:phone": "+49 40 4286-54355", "contact:website": "https://polizei.hamburg", "loc_name": "Polizeiposten Kirchwerder/Zollenspieker", "name": "Polizeiposten Zollenspieker", "official_name": "Polizeikommissariat 43, Polizeiposten Zollenspieker", "operator": "Polizei Hamburg", "operator:wikidata": "Q882239", "operator:wikipedia": "de:Polizei Hamburg"}}]}