{"version": 0.6, "generator": "Overpass API 0.7.62.1 084b4234", "osm3s": {"timestamp_osm_base": "2024-06-14T12:07:11Z", "copyright": "The data included in this document is from www.openstreetmap.org. The data is made available under ODbL."}, "elements": [{"type": "node", "id": 432428690, "lat": 53.5551998, "lon": 10.0081877, "tags": {"amenity": "bicycle_rental", "bicycle_rental": "docking_station", "brand": "StadtRAD Hamburg", "brand:wikidata": "Q2326366", "capacity": "16", "check_date": "2023-05-30", "name": "Lange Reihe / Kirchenallee", "network": "StadtRAD Hamburg", "network:wikidata": "Q2326366", "operator": "Deutsche Bahn Connect", "operator:wikidata": "Q1152100", "ref": "23504", "website": "https://stadtrad.hamburg.de"}}, {"type": "node", "id": 432428691, "lat": 53.55986, "lon": 10.0148329, "tags": {"amenity": "bicycle_rental", "bicycle_rental": "docking_station", "brand": "StadtRAD Hamburg", "capacity": "16", "capacity:cargo_bike": "1", "capacity:description": "15 Standardfahrräder + 1 Lastenpedelec", "check_date": "2023-05-30", "name": "Lange Reihe / Lohmühlenpark", "network": "stadtradhamburg", "operator": "Deutsche Bahn Connect GmbH", "ref": "23500", "website": "https://stadtrad.hamburg.de"}}, {"type": "node", "id": 432841089, "lat": 53.567786, "lon": 10.0162224, "tags": {"amenity": "bicycle_rental", "bicycle_rental": "docking_station", "brand": "StadtRAD Hamburg", "capacity": "22", "check_date": "2024-06-01", "name": "Eduard-Rhein-Ufer / Schwanenwik", "network": "stadtradhamburg", "operator": "Deutsche Bahn Connect GmbH", "ref": "21002", "website": "https://stadtrad.hamburg.de"}}, {"type": "node", "id": 432965813, "lat": 53.5589371, "lon": 9.9638791, "tags": {"amenity": "bicycle_rental", "bicycle_rental": "docking_station", "brand": "StadtRAD Hamburg", "capacity": "10", "check_date": "2024-02-21", "name": "Neuer Pferdemarkt / Beim Grünen Jäger", "network": "stadtradhamburg", "operator": "Deutsche Bahn Connect GmbH", "ref": "28902", "website": "https://stadtrad.hamburg.de"}}, {"type": "node", "id": 432965814, "lat": 53.5520996, "lon": 9.9360587, "tags": {"amenity": "bicycle_rental", "bicycle_rental": "docking_station", "brand": "StadtRAD Hamburg", "brand:wikidata": "Q2326366", "capacity": "16", "check_date": "2024-04-16", "name": "Bahnhof Altona Ost / Max-Brauer-Allee", "network": "StadtRAD Hamburg", "network:wikidata": "Q2326366", "operator": "Deutsche Bahn Connect", "operator:wikidata": "Q1152100", "ref": "28802", "website": "https://stadtrad.hamburg.de"}}, {"type": "node", "id": 432965816, "lat": 53.5519063, "lon": 9.9337889, "tags": {"amenity": "bicycle_rental", "bicycle_rental": "docking_station", "brand": "StadtRAD Hamburg", "capacity": "22", "capacity:cargo_bike": "1", "capacity:description": "21 Stellplätze für Standardfahrräder + 1 Lastenpedelec", "check_date": "2024-04-30", "name": "Bahnhof Altona / Busbahnhof", "network": "stadtradhamburg", "operator": "Deutsche Bahn Connect GmbH", "ref": "28706", "website": "https://stadtrad.hamburg.de"}}, {"type": "node", "id": 433713639, "lat": 53.5462439, "lon": 9.9509483, "tags": {"amenity": "bicycle_rental", "bicycle_rental": "docking_station", "brand": "StadtRAD Hamburg", "capacity": "21", "check_date": "2024-04-16", "name": "Fischmarkt / Breite Straße", "network": "stadtradhamburg", "operator": "Deutsche Bahn Connect GmbH", "ref": "29006", "website": "https://stadtrad.hamburg.de"}}, {"type": "node", "id": 436042897, "lat": 53.5774206, "lon": 9.9818059, "tags": {"amenity": "bicycle_rental", "bicycle_rental": "docking_station", "brand": "StadtRAD Hamburg", "brand:wikidata": "Q2326366", "brand:wikipedia": "de:StadtRAD Hamburg", "capacity": "15", "check_date": "2024-05-16", "name": "Innocentiapark / Oberstraße", "network": "stadtradhamburg", "network:wikidata": "Q2326366", "network:wikipedia": "de:StadtRAD Hamburg", "operator": "Deutsche Bahn Connect GmbH", "operator:wikidata": "Q1152100", "operator:wikipedia": "de:Deutsche Bahn Connect", "ref": "29804", "website": "https://stadtrad.hamburg.de"}}, {"type": "node", "id": 436043488, "lat": 53.5775726, "lon": 9.9632428, "tags": {"amenity": "bicycle_rental", "bicycle_rental": "docking_station", "brand": "StadtRAD Hamburg", "capacity": "16", "check_date": "2024-04-25", "name": "Goebenstraße / Eppendorfer Weg", "network": "stadtradhamburg", "operator": "Deutsche Bahn Connect GmbH", "ref": "29604", "website": "https://stadtrad.hamburg.de"}}, {"type": "node", "id": 436421052, "lat": 53.5670342, "lon": 10.0317432, "tags": {"amenity": "bicycle_rental", "bicycle_rental": "docking_station", "brand": "StadtRAD Hamburg", "capacity": "24", "check_date": "2024-06-01", "name": "Lerchenfeld / Uferstraße", "network": "stadtradhamburg", "operator": "Deutsche Bahn Connect GmbH", "ref": "21005", "website": "https://stadtrad.hamburg.de"}}, {"type": "node", "id": 437328900, "lat": 53.5494956, "lon": 9.9550425, "tags": {"amenity": "bicycle_rental", "bicycle_rental": "docking_station", "brand": "StadtRAD Hamburg", "capacity": "14", "check_date": "2024-04-16", "name": "S Reeperbahn / Königstraße", "network": "stadtradhamburg", "operator": "Deutsche Bahn Connect GmbH", "ref": "29004", "website": "https://stadtrad.hamburg.de"}}, {"type": "node", "id": 437331658, "lat": 53.5510436, "lon": 9.9702937, "tags": {"amenity": "bicycle_rental", "bicycle_rental": "docking_station", "brand": "StadtRAD Hamburg", "capacity": "22", "check_date": "2024-02-22", "name": "U St. Pauli / Millerntorplatz", "network": "StadtRAD Hamburg", "operator": "Deutsche Bahn Connect GmbH", "ref": "23308", "website": "https://stadtrad.hamburg.de"}}, {"type": "node", "id": 437331659, "lat": 53.5585052, "lon": 9.9753919, "tags": {"amenity": "bicycle_rental", "bicycle_rental": "docking_station", "brand": "StadtRAD Hamburg", "brand:wikidata": "Q2326366", "brand:wikipedia": "de:StadtRAD Hamburg", "capacity": "25", "check_date": "2024-02-21", "name": "Messehallen / Marktstraße", "network": "stadtradhamburg", "network:wikidata": "Q2326366", "network:wikipedia": "de:StadtRAD Hamburg", "operator": "Deutsche Bahn Connect GmbH", "operator:wikidata": "Q1152100", "operator:wikipedia": "de:Deutsche Bahn Connect", "ref": "23201", "website": "https://stadtrad.hamburg.de"}}, {"type": "node", "id": 437331660, "lat": 53.5637341, "lon": 9.9877918, "tags": {"amenity": "bicycle_rental", "bicycle_rental": "docking_station", "brand": "StadtRAD Hamburg", "brand:wikidata": "Q2326366", "brand:wikipedia": "de:StadtRAD Hamburg", "capacity": "38", "check_date": "2024-05-16", "name": "Universität / Moorweidenstraße", "network": "stadtradhamburg", "network:wikidata": "Q2326366", "network:wikipedia": "de:StadtRAD Hamburg", "operator": "Deutsche Bahn Connect GmbH", "operator:wikidata": "Q1152100", "operator:wikipedia": "de:Deutsche Bahn Connect", "ref": "29906", "website": "https://stadtrad.hamburg.de"}}, {"type": "node", "id": 437331661, "lat": 53.5668597, "lon": 9.9860491, "tags": {"amenity": "bicycle_rental", "bicycle_rental": "docking_station", "brand": "StadtRAD Hamburg", "brand:wikidata": "Q2326366", "brand:wikipedia": "de:StadtRAD Hamburg", "capacity": "50", "capacity:cargo_bike": "1", "check_date": "2024-05-16", "name": "Universität / Schlüterstraße", "network": "stadtradhamburg", "network:wikidata": "Q2326366", "network:wikipedia": "de:StadtRAD Hamburg", "note": "Die Stellplatzangabe ist nicht mehr exakt möglich, weil viele Haltesäulen nicht mehr komplett bestückt sind ..", "operator": "Deutsche Bahn Connect GmbH", "operator:wikidata": "Q1152100", "operator:wikipedia": "de:Deutsche Bahn Connect", "ref": "29904", "website": "https://stadtrad.hamburg.de"}}, {"type": "node", "id": 437331662, "lat": 53.5521952, "lon": 9.9954741, "tags": {"amenity": "bicycle_rental", "bicycle_rental": "docking_station", "brand": "StadtRAD Hamburg", "brand:wikidata": "Q2326366", "brand:wikipedia": "de:StadtRAD Hamburg", "capacity": "22", "check_date": "2023-07-14", "name": "S+U Jungfernstieg / Ballindamm", "network": "stadtradhamburg", "network:wikidata": "Q2326366", "network:wikipedia": "de:StadtRAD Hamburg", "operator": "Deutsche Bahn Connect GmbH", "operator:wikidata": "Q1152100", "operator:wikipedia": "de:Deutsche Bahn Connect", "ref": "23400", "website": "https://stadtrad.hamburg.de"}}, {"type": "node", "id": 437558649, "lat": 53.553676, "lon": 10.004553, "tags": {"amenity": "bicycle_rental", "bicycle_rental": "docking_station", "brand": "StadtRAD Hamburg", "brand:wikidata": "Q2326366", "brand:wikipedia": "de:StadtRAD Hamburg", "capacity": "42", "check_date": "2023-05-30", "name": "Hauptbahnhof West / Glockengießer Wall", "network": "StadtRAD Hamburg", "network:wikidata": "Q2326366", "network:wikipedia": "de:StadtRAD Hamburg", "operator": "Deutsche Bahn Connect", "operator:wikidata": "Q1152100", "operator:wikipedia": "de:Deutsche Bahn Connect", "ref": "23502", "ref:callabike": "131872", "website": "https://stadtrad.hamburg.de"}}, {"type": "node", "id": 437558653, "lat": 53.5615244, "lon": 9.9903338, "tags": {"amenity": "bicycle_rental", "bicycle_rental": "docking_station", "brand": "StadtRAD Hamburg", "brand:wikidata": "Q2326366", "brand:wikipedia": "de:StadtRAD Hamburg", "capacity": "16", "check_date": "2024-05-16", "name": "Bahnhof Dammtor / Theodor-Heuss-Platz", "network": "StadtRAD Hamburg", "network:wikidata": "Q2326366", "network:wikipedia": "de:StadtRAD Hamburg", "operator": "Deutsche Bahn Connect", "operator:wikidata": "Q1152100", "operator:wikipedia": "de:Deutsche Bahn Connect", "ref": "29907", "website": "https://stadtrad.hamburg.de"}}, {"type": "node", "id": 438112011, "lat": 53.5599977, "lon": 9.9898989, "tags": {"amenity": "bicycle_rental", "bicycle_rental": "docking_station", "brand": "StadtRAD Hamburg", "brand:wikidata": "Q2326366", "brand:wikipedia": "de:StadtRAD Hamburg", "capacity": "44", "check_date": "2024-05-16", "name": "Bahnhof Dammtor / Dag-Hammarskjöld-Platz", "network": "StadtRAD Hamburg", "network:wikidata": "Q2326366", "network:wikipedia": "de:StadtRAD Hamburg", "operator": "Deutsche Bahn Connect", "operator:wikidata": "Q1152100", "operator:wikipedia": "de:Deutsche Bahn Connect", "ref": "23200", "website": "https://stadtrad.hamburg.de"}}, {"type": "node", "id": 438112012, "lat": 53.5524381, "lon": 9.9769697, "tags": {"amenity": "bicycle_rental", "bicycle_rental": "docking_station", "brand": "StadtRAD Hamburg", "capacity": "24", "check_date": "2024-06-07", "name": "Enckeplatz / Hütten", "network": "stadtradhamburg", "operator": "Deutsche Bahn Connect GmbH", "ref": "23306", "website": "https://stadtrad.hamburg.de"}}, {"type": "node", "id": 438353007, "lat": 53.5572335, "lon": 10.0199124, "tags": {"amenity": "bicycle_rental", "bicycle_rental": "docking_station", "brand": "StadtRAD Hamburg", "brand:wikidata": "Q2326366", "brand:wikipedia": "de:StadtRAD Hamburg", "capacity": "27", "check_date": "2023-05-30", "name": "U Lohmühlenstraße / Steindamm", "network": "stadtradhamburg", "network:wikidata": "Q2326366", "network:wikipedia": "de:StadtRAD Hamburg", "operator": "Deutsche Bahn Connect GmbH", "operator:wikidata": "Q1152100", "operator:wikipedia": "de:Deutsche Bahn Connect", "ref": "23501", "website": "https://stadtrad.hamburg.de"}}, {"type": "node", "id": 439178655, "lat": 53.5542566, "lon": 10.0133228, "tags": {"amenity": "bicycle_rental", "bicycle_rental": "docking_station", "brand": "StadtRAD Hamburg", "capacity": "22", "check_date": "2023-05-30", "name": "Steindamm / Stralsunder Straße", "network": "stadtradhamburg", "operator": "Deutsche Bahn Connect GmbH", "ref": "23505", "website": "https://stadtrad.hamburg.de"}}, {"type": "node", "id": 441097728, "lat": 53.5516263, "lon": 10.0052878, "tags": {"amenity": "bicycle_rental", "bicycle_rental": "docking_station", "brand": "StadtRAD Hamburg", "brand:wikidata": "Q2326366", "capacity": "16", "check_date": "2023-06-22", "level": "0", "name": "Mönckebergstraße / Steintorwall", "network": "StadtRAD Hamburg", "network:wikidata": "Q2326366", "operator": "Deutsche Bahn Connect", "operator:wikidata": "Q1152100", "ref": "23406", "website": "https://stadtrad.hamburg.de"}}, {"type": "node", "id": 441097729, "lat": 53.5526184, "lon": 10.0039022, "tags": {"amenity": "bicycle_rental", "bicycle_rental": "docking_station", "brand": "StadtRAD Hamburg", "brand:wikidata": "Q2326366", "capacity": "16", "check_date": "2023-07-14", "name": "Kurze Mühren / Spitalerstraße", "network": "StadtRAD Hamburg", "network:wikidata": "Q2326366", "note": "StadtRAD-Station war einige Jahre verschwunden und ist nun wieder da ..", "operator": "Deutsche Bahn Connect", "operator:wikidata": "Q1152100", "ref": "23402", "website": "https://stadtrad.hamburg.de"}}, {"type": "node", "id": 441123075, "lat": 53.5886426, "lon": 9.9913213, "tags": {"amenity": "bicycle_rental", "bicycle_rental": "docking_station", "brand": "StadtRAD Hamburg", "capacity": "20", "check_date": "2024-04-25", "name": "U Kellinghusenstraße / Loogeplatz", "network": "stadtradhamburg", "operator": "Deutsche Bahn Connect GmbH", "ref": "20603", "website": "https://stadtrad.hamburg.de"}}, {"type": "node", "id": 441123077, "lat": 53.5902642, "lon": 9.9867979, "tags": {"amenity": "bicycle_rental", "bicycle_rental": "docking_station", "brand": "StadtRAD Hamburg", "capacity": "15", "capacity:cargo_bike": "1", "check_date": "2024-04-25", "name": "Kümmellstraße / Robert-Koch-Straße", "network": "stadtradhamburg", "operator": "Deutsche Bahn Connect GmbH", "ref": "20601", "website": "https://stadtrad.hamburg.de"}}, {"type": "node", "id": 441123078, "lat": 53.5831878, "lon": 9.9843865, "tags": {"amenity": "bicycle_rental", "bicycle_rental": "docking_station", "brand": "StadtRAD Hamburg", "capacity": "19", "check_date": "2024-05-16", "name": "U Eppendorfer Baum / Isestraße", "network": "stadtradhamburg", "operator": "Deutsche Bahn Connect GmbH", "ref": "29800", "website": "https://stadtrad.hamburg.de"}}, {"type": "node", "id": 441243153, "lat": 53.5754102, "lon": 9.9778746, "tags": {"amenity": "bicycle_rental", "bicycle_rental": "docking_station", "brand": "StadtRAD Hamburg", "brand:wikidata": "Q2326366", "brand:wikipedia": "de:StadtRAD Hamburg", "capacity": "16", "check_date": "2024-05-16", "name": "Grindelberg", "network": "stadtradhamburg", "network:wikidata": "Q2326366", "network:wikipedia": "de:StadtRAD Hamburg", "operator": "Deutsche Bahn Connect GmbH", "operator:wikidata": "Q1152100", "operator:wikipedia": "de:Deutsche Bahn Connect", "ref": "29805", "website": "https://stadtrad.hamburg.de"}}, {"type": "node", "id": 441297373, "lat": 53.5533379, "lon": 10.0246127, "tags": {"amenity": "bicycle_rental", "bicycle_rental": "docking_station", "brand": "StadtRAD Hamburg", "capacity": "25", "check_date": "2024-04-27", "name": "S+U Berliner Tor / Beim Strohhause", "network": "stadtradhamburg", "note": "2024-04-27: wegen Großbaustelle zum Überprüfungszeitpunkt weniger Säulen und reduzierte Stellfläche ..", "operator": "Deutsche Bahn Connect GmbH", "ref": "23507", "website": "https://stadtrad.hamburg.de"}}, {"type": "node", "id": 442006757, "lat": 53.564472, "lon": 9.9688152, "tags": {"amenity": "bicycle_rental", "bicycle_rental": "docking_station", "brand": "StadtRAD Hamburg", "brand:wikidata": "Q2326366", "brand:wikipedia": "de:StadtRAD Hamburg", "capacity": "43", "capacity:cargo_bike": "1", "check_date": "2024-02-21", "name": "S+U Sternschanze / Dänenweg", "network": "stadtradhamburg", "network:wikidata": "Q2326366", "network:wikipedia": "de:StadtRAD Hamburg", "operator": "Deutsche Bahn Connect GmbH", "operator:wikidata": "Q1152100", "operator:wikipedia": "de:Deutsche Bahn Connect", "ref": "28900", "website": "https://stadtrad.hamburg.de"}}, {"type": "node", "id": 442006775, "lat": 53.5549978, "lon": 9.9913836, "tags": {"amenity": "bicycle_rental", "bicycle_rental": "docking_station", "brand": "StadtRAD Hamburg", "brand:wikidata": "Q2326366", "brand:wikipedia": "de:StadtRAD Hamburg", "capacity": "30", "check_date": "2024-06-07", "name": "Jungfernstieg / Neuer Jungfernstieg", "network": "stadtradhamburg", "network:wikidata": "Q2326366", "network:wikipedia": "de:StadtRAD Hamburg", "operator": "Deutsche Bahn Connect GmbH", "operator:wikidata": "Q1152100", "operator:wikipedia": "de:Deutsche Bahn Connect", "ref": "23305", "website": "https://stadtrad.hamburg.de"}}, {"type": "node", "id": 443047986, "lat": 53.5552896, "lon": 9.942995, "tags": {"amenity": "bicycle_rental", "bicycle_rental": "docking_station", "brand": "StadtRAD Hamburg", "brand:wikidata": "Q2326366", "capacity": "16", "check_date": "2024-04-16", "name": "Chemnitzstraße / Max-Brauer-Allee", "network": "StadtRAD Hamburg", "network:wikidata": "Q2326366", "operator": "Deutsche Bahn Connect", "operator:wikidata": "Q1152100", "ref": "29000", "website": "https://stadtrad.hamburg.de"}}, {"type": "node", "id": 446760137, "lat": 53.551694, "lon": 10.015996, "tags": {"amenity": "bicycle_rental", "bicycle_rental": "docking_station", "brand": "StadtRAD Hamburg", "capacity": "17", "check_date": "2023-05-30", "name": "Kurt-Schumacher-Allee / Nagelsweg", "network": "stadtradhamburg", "operator": "Deutsche Bahn Connect GmbH", "ref": "23506", "website": "https://stadtrad.hamburg.de"}}, {"type": "node", "id": 447110699, "lat": 53.5562459, "lon": 9.9901341, "tags": {"amenity": "bicycle_rental", "bicycle_rental": "docking_station", "brand": "StadtRAD Hamburg", "brand:wikidata": "Q2326366", "brand:wikipedia": "de:StadtRAD Hamburg", "capacity": "32", "check_date": "2024-06-07", "name": "Gustav-Mahler-Platz / Büschstraße", "network": "stadtradhamburg", "network:wikidata": "Q2326366", "network:wikipedia": "de:StadtRAD Hamburg", "operator": "Deutsche Bahn Connect GmbH", "operator:wikidata": "Q1152100", "operator:wikipedia": "de:Deutsche Bahn Connect", "ref": "23303", "website": "https://stadtrad.hamburg.de"}}, {"type": "node", "id": 448582037, "lat": 53.5503806, "lon": 10.0088105, "tags": {"amenity": "bicycle_rental", "bicycle_rental": "docking_station", "brand": "StadtRAD Hamburg", "brand:wikidata": "Q2326366", "brand:wikipedia": "de:StadtRAD Hamburg", "capacity": "16", "check_date": "2023-05-30", "name": "Zentralbibliothek / Münzstraße", "network": "stadtradhamburg", "network:wikidata": "Q2326366", "network:wikipedia": "de:StadtRAD Hamburg", "operator": "Deutsche Bahn Connect GmbH", "operator:wikidata": "Q1152100", "operator:wikipedia": "de:Deutsche Bahn Connect", "ref": "24100", "website": "https://stadtrad.hamburg.de"}}, {"type": "node", "id": 448879782, "lat": 53.5542191, "lon": 9.9625129, "tags": {"amenity": "bicycle_rental", "bicycle_rental": "docking_station", "brand": "StadtRAD Hamburg", "capacity": "22", "check_date": "2024-02-22", "name": "Paulinenplatz / Wohlwillstraße", "network": "stadtradhamburg", "note": "Stadtradstation besitzt aufgrund von ständigem Vandalismus kein funktionierendes klassisches Bedienterminal mehr..", "operator": "Deutsche Bahn Connect GmbH", "ref": "23203", "website": "https://stadtrad.hamburg.de"}}, {"type": "node", "id": 455878196, "lat": 53.5516175, "lon": 9.9984001, "tags": {"amenity": "bicycle_rental", "bicycle_rental": "docking_station", "brand": "StadtRAD Hamburg", "brand:wikidata": "Q2326366", "capacity": "16", "check_date": "2023-06-22", "name": "Kleine Rosenstraße / Gerhart-Hauptmann-Platz", "network": "stadtradhamburg", "network:wikidata": "Q2326366", "operator": "Deutsche Bahn Connect GmbH", "operator:wikidata": "Q1152100", "ref": "23401", "website": "https://stadtrad.hamburg.de"}}, {"type": "node", "id": 455878296, "lat": 53.550247, "lon": 10.0015328, "tags": {"amenity": "bicycle_rental", "bicycle_rental": "docking_station", "brand": "StadtRAD Hamburg", "brand:wikidata": "Q2326366", "capacity": "20", "check_date": "2023-06-22", "name": "Jakobikirchhhof / Steinstraße", "network": "stadtradhamburg", "network:wikidata": "Q2326366", "operator": "Deutsche Bahn Connect GmbH", "operator:wikidata": "Q1152100", "ref": "23405", "website": "https://stadtrad.hamburg.de"}}, {"type": "node", "id": 455878879, "lat": 53.5478333, "lon": 9.9988245, "tags": {"amenity": "bicycle_rental", "bicycle_rental": "docking_station", "brand": "StadtRAD Hamburg", "brand:wikidata": "Q2326366", "capacity": "11", "check_date": "2023-06-22", "name": "U Meßberg / Willy-Brandt-Straße", "network": "StadtRAD Hamburg", "network:wikidata": "Q2326366", "operator": "Deutsche Bahn Connect", "operator:wikidata": "Q1152100", "ref": "23410", "website": "https://stadtrad.hamburg.de"}}, {"type": "node", "id": 455879010, "lat": 53.555728, "lon": 10.041278, "tags": {"amenity": "bicycle_rental", "bicycle_rental": "docking_station", "brand": "StadtRAD Hamburg", "capacity": "25", "capacity:cargo_bike": "1", "check_date": "2024-04-27", "name": "U Burgstraße / Hammer Landstraße", "network": "stadtradhamburg", "operator": "Deutsche Bahn Connect GmbH", "ref": "23700", "website": "https://stadtrad.hamburg.de"}}, {"type": "node", "id": 455879039, "lat": 53.5610672, "lon": 10.0371237, "tags": {"amenity": "bicycle_rental", "bicycle_rental": "docking_station", "brand": "StadtRAD Hamburg", "capacity": "21", "capacity:cargo_bike": "1", "capacity:description": "20 Standardfahrräder + 1 Lastenpedelec", "check_date": "2023-05-30", "name": "S Landwehr / Ramazan-Avci-Platz", "network": "stadtradhamburg", "operator": "Deutsche Bahn Connect GmbH", "ref": "21304", "website": "https://stadtrad.hamburg.de"}}, {"type": "node", "id": 455879231, "lat": 53.563702, "lon": 10.0342838, "tags": {"amenity": "bicycle_rental", "bicycle_rental": "docking_station", "brand": "StadtRAD Hamburg", "brand:wikidata": "Q2326366", "capacity": "22", "check_date": "2023-05-30", "name": "U Wartenau / Lübecker Straße", "network": "StadtRAD Hamburg", "network:wikidata": "Q2326366", "operator": "Deutsche Bahn Connect", "operator:wikidata": "Q1152100", "ref": "21301", "website": "https://stadtrad.hamburg.de"}}, {"type": "node", "id": 455879390, "lat": 53.5597466, "lon": 10.0285415, "tags": {"amenity": "bicycle_rental", "bicycle_rental": "docking_station", "brand": "StadtRAD Hamburg", "capacity": "24", "check_date": "2023-05-30", "name": "Lübecker Straße / Marienkrankenhaus", "network": "stadtradhamburg", "operator": "Deutsche Bahn Connect GmbH", "ref": "21303", "website": "https://stadtrad.hamburg.de"}}, {"type": "node", "id": 455879492, "lat": 53.564994, "lon": 10.0267664, "tags": {"amenity": "bicycle_rental", "bicycle_rental": "docking_station", "brand": "StadtRAD Hamburg", "capacity": "17", "capacity:cargo_bike": "1", "capacity:description": "16 Standardfahrräder + 1 Lastenpedelec", "check_date": "2023-05-30", "name": "U Uhlandstraße / Eilenau", "network": "stadtradhamburg", "operator": "Deutsche Bahn Connect GmbH", "ref": "21300", "website": "https://stadtrad.hamburg.de"}}, {"type": "node", "id": 455880479, "lat": 53.5452274, "lon": 9.9734899, "tags": {"amenity": "bicycle_rental", "bicycle_rental": "docking_station", "brand": "StadtRAD Hamburg", "capacity": "16", "check_date": "2024-06-07", "name": "S+U Landungsbrücken / Johannisbollwerk", "network": "stadtradhamburg", "operator": "Deutsche Bahn Connect GmbH", "ref": "23312", "website": "https://stadtrad.hamburg.de"}}, {"type": "node", "id": 455880789, "lat": 53.5480241, "lon": 9.9794956, "tags": {"amenity": "bicycle_rental", "bicycle_rental": "docking_station", "brand": "StadtRAD Hamburg", "capacity": "24", "check_date": "2024-06-07", "name": "Michaeliskirche / Krayenkamp", "network": "stadtradhamburg", "operator": "Deutsche Bahn Connect GmbH", "ref": "23311", "website": "https://stadtrad.hamburg.de"}}, {"type": "node", "id": 455882506, "lat": 53.5720753, "lon": 9.9888332, "tags": {"amenity": "bicycle_rental", "bicycle_rental": "docking_station", "brand": "StadtRAD Hamburg", "capacity": "26", "check_date": "2024-05-16", "name": "U Hallerstraße / Rothenbaumchaussee", "network": "stadtradhamburg", "operator": "Deutsche Bahn Connect GmbH", "ref": "29901", "website": "https://stadtrad.hamburg.de"}}, {"type": "node", "id": 455947046, "lat": 53.5840442, "lon": 10.0212233, "tags": {"amenity": "bicycle_rental", "bicycle_rental": "docking_station", "brand": "StadtRAD Hamburg", "capacity": "22", "check_date": "2024-03-30", "name": "Jarrestraße / Rambatzweg", "network": "stadtradhamburg", "operator": "Deutsche Bahn Connect GmbH", "ref": "20811", "website": "https://stadtrad.hamburg.de"}}, {"type": "node", "id": 455947727, "lat": 53.5837521, "lon": 10.0099075, "tags": {"amenity": "bicycle_rental", "bicycle_rental": "docking_station", "brand": "StadtRAD Hamburg", "capacity": "38", "capacity:cargo_bike": "1", "capacity:note": "37 schwere Standardfahrräder + 1 Schwerlastfahrrad", "check_date": "2024-03-30", "name": "Goldbekplatz", "network": "stadtradhamburg", "operator": "Deutsche Bahn Connect GmbH", "ref": "20810", "website": "https://stadtrad.hamburg.de"}}, {"type": "node", "id": 456349702, "lat": 53.5943036, "lon": 9.9957591, "tags": {"amenity": "bicycle_rental", "bicycle_rental": "docking_station", "brand": "StadtRAD Hamburg", "brand:wikidata": "Q2326366", "capacity": "25", "capacity:cargo_bike": "1", "check_date": "2023-05-09", "name": "U Hudtwalckerstraße / Bebelallee", "network": "StadtRAD Hamburg", "network:wikidata": "Q2326366", "operator": "Deutsche Bahn Connect", "operator:wikidata": "Q1152100", "ref": "20805", "website": "https://stadtrad.hamburg.de"}}, {"type": "node", "id": 463552897, "lat": 53.5460239, "lon": 10.0242053, "tags": {"amenity": "bicycle_rental", "bicycle_rental": "docking_station", "brand": "StadtRAD Hamburg", "capacity": "28", "check_date": "2024-04-27", "name": "S Hammerbrook / Sachsenfeld", "network": "stadtradhamburg", "operator": "Deutsche Bahn Connect GmbH", "ref": "24102", "website": "https://stadtrad.hamburg.de"}}, {"type": "node", "id": 467926773, "lat": 53.5478097, "lon": 9.9345695, "tags": {"amenity": "bicycle_rental", "bicycle_rental": "docking_station", "brand": "StadtRAD Hamburg", "capacity": "16", "check_date": "2024-04-30", "name": "Ottenser Marktplatz / Platz der Republik", "network": "stadtradhamburg", "note": "2024-04-30: war zum Überprüfungszeitpunkt bedingt durch eine Baustelle nur beschränkt nutzbar ..", "operator": "Deutsche Bahn Connect GmbH", "ref": "28708", "website": "https://stadtrad.hamburg.de"}}, {"type": "node", "id": 471332373, "lat": 53.5496995, "lon": 9.9866348, "tags": {"amenity": "bicycle_rental", "bicycle_rental": "docking_station", "brand": "StadtRAD Hamburg", "capacity": "16", "check_date": "2024-06-07", "name": "S Stadthausbrücke / Neuer Wall", "network": "stadtradhamburg", "operator": "Deutsche Bahn Connect GmbH", "ref": "23310", "website": "https://stadtrad.hamburg.de"}}, {"type": "node", "id": 471776643, "lat": 53.5471222, "lon": 9.9424211, "tags": {"amenity": "bicycle_rental", "bicycle_rental": "docking_station", "brand": "StadtRAD Hamburg", "capacity": "16", "capacity:cargo_bike": "1", "capacity:description": "15 Standardfahrräder + 1 Lastenpedelec", "check_date": "2024-04-16", "name": "S Königstraße / Struenseestraße", "network": "stadtradhamburg", "operator": "Deutsche Bahn Connect GmbH", "ref": "29003", "website": "https://stadtrad.hamburg.de"}}, {"type": "node", "id": 565607505, "lat": 53.5695625, "lon": 9.9630732, "tags": {"amenity": "bicycle_rental", "bicycle_rental": "docking_station", "brand": "StadtRAD Hamburg", "brand:wikidata": "Q2326366", "brand:wikipedia": "de:StadtRAD Hamburg", "capacity": "27", "capacity:cargo_bike": "1", "capacity:description": "26 schwere Standardfahrräder + 1 Lastenpedelec", "check_date": "2024-02-21", "level": "0", "name": "U Christuskirche / Fruchtallee", "network": "StadtRAD Hamburg", "network:wikidata": "Q2326366", "network:wikipedia": "de:StadtRAD Hamburg", "operator": "Deutsche Bahn Connect", "operator:wikidata": "Q1152100", "operator:wikipedia": "de:Deutsche Bahn Connect", "ref": "29608", "website": "https://stadtrad.hamburg.de"}}, {"type": "node", "id": 598300226, "lat": 53.5890071, "lon": 9.975907, "tags": {"amenity": "bicycle_rental", "bicycle_rental": "docking_station", "brand": "StadtRAD Hamburg", "brand:wikidata": "Q2326366", "brand:wikipedia": "de:StadtRAD Hamburg", "capacity": "18", "check_date": "2024-04-25", "name": "Martinistraße / Haupteingang Klinikum", "network": "stadtradhamburg", "network:wikidata": "Q2326366", "network:wikipedia": "de:StadtRAD Hamburg", "operator": "Deutsche Bahn Connect GmbH", "operator:wikidata": "Q1152100", "operator:wikipedia": "de:Deutsche Bahn Connect", "phone": "+49 40 822188100", "ref": "20602", "website": "https://stadtrad.hamburg.de"}}, {"type": "node", "id": 707060970, "lat": 53.5662285, "lon": 9.9534406, "tags": {"amenity": "bicycle_rental", "bicycle_rental": "docking_station", "brand": "StadtRAD Hamburg", "capacity": "16", "check_date": "2024-04-10", "name": "Eimsbütteler Straße / Waterloostraße", "network": "stadtradhamburg", "operator": "Deutsche Bahn Connect GmbH", "ref": "28800", "website": "https://stadtrad.hamburg.de"}}, {"type": "node", "id": 752741462, "lat": 53.5520855, "lon": 9.9862216, "tags": {"amenity": "bicycle_rental", "bicycle_rental": "docking_station", "brand": "StadtRAD Hamburg", "capacity": "22", "check_date": "2024-06-07", "name": "Axel-Springer-Platz / Wexstraße", "network": "stadtradhamburg", "operator": "Deutsche Bahn Connect GmbH", "ref": "23307", "website": "https://stadtrad.hamburg.de"}}, {"type": "node", "id": 764042161, "lat": 53.522701, "lon": 10.014741, "tags": {"amenity": "bicycle_rental", "bicycle_rental": "docking_station", "brand": "StadtRAD Hamburg", "capacity": "24", "check_date": "2024-01-06", "name": "S Veddel / Wilhelmsburger Platz", "network": "stadtradhamburg", "operator": "Deutsche Bahn Connect GmbH", "ref": "24801", "website": "https://stadtrad.hamburg.de"}}, {"type": "node", "id": 1281711846, "lat": 53.6880061, "lon": 10.0370776, "tags": {"amenity": "bicycle_rental", "brand": "nextbike", "capacity": "10", "check_date": "2024-01-05", "network": "nextbike", "operator": "nextbike GmbH", "ref": "4723", "website": "https://www.nextbike.de"}}, {"type": "node", "id": 1349140800, "lat": 53.7132127, "lon": 10.0187442, "tags": {"amenity": "bicycle_rental", "bicycle_rental": "dropoff_point", "brand": "nextbike", "check_date": "2024-01-05", "network": "nextbike", "ref": "4725", "website": "https://www.nextbike.de"}}, {"type": "node", "id": 1352734840, "lat": 53.5775952, "lon": 9.9529299, "tags": {"amenity": "bicycle_rental", "bicycle_rental": "docking_station", "brand": "StadtRAD Hamburg", "capacity": "16", "check_date": "2024-04-10", "name": "Heußweg / Wiesenstraße", "network": "stadtradhamburg", "operator": "Deutsche Bahn Connect GmbH", "ref": "29603", "website": "https://stadtrad.hamburg.de"}}, {"type": "node", "id": 1352742382, "lat": 53.5801407, "lon": 9.9467011, "tags": {"amenity": "bicycle_rental", "bicycle_rental": "docking_station", "brand": "StadtRAD Hamburg", "capacity": "35", "check_date": "2024-04-03", "name": "Methfesselstraße / Luruper Weg", "network": "stadtradhamburg", "operator": "Deutsche Bahn Connect GmbH", "ref": "29600", "website": "https://stadtrad.hamburg.de"}}, {"type": "node", "id": 1352768597, "lat": 53.5414899, "lon": 9.9997759, "tags": {"amenity": "bicycle_rental", "bicycle_rental": "docking_station", "brand": "StadtRAD Hamburg", "brand:wikidata": "Q2326366", "brand:wikipedia": "de:StadtRAD Hamburg", "capacity": "17", "check_date": "2024-04-25", "name": "Osakaallee / Überseequartier", "network": "stadtradhamburg", "network:wikidata": "Q2326366", "network:wikipedia": "de:StadtRAD Hamburg", "operator": "Deutsche Bahn Connect GmbH", "operator:wikidata": "Q1152100", "operator:wikipedia": "de:Deutsche Bahn Connect", "ref": "24004", "website": "https://stadtrad.hamburg.de"}}, {"type": "node", "id": 1352772467, "lat": 53.5615358, "lon": 10.0222053, "tags": {"amenity": "bicycle_rental", "bicycle_rental": "docking_station", "brand": "StadtRAD Hamburg", "capacity": "16", "check_date": "2023-05-30", "name": "Alsterschwimmhalle / Ifflandstraße", "network": "stadtradhamburg", "operator": "Deutsche Bahn Connect GmbH", "ref": "21302", "website": "https://stadtrad.hamburg.de"}}, {"type": "node", "id": 1352773902, "lat": 53.592041, "lon": 10.0149443, "tags": {"amenity": "bicycle_rental", "bicycle_rental": "docking_station", "brand": "StadtRAD Hamburg", "capacity": "24", "check_date": "2023-05-09", "name": "Borgweg / Stadtpark", "network": "stadtradhamburg", "operator": "Deutsche Bahn Connect GmbH", "ref": "20806", "website": "https://stadtrad.hamburg.de"}}, {"type": "node", "id": 1353780111, "lat": 53.5679082, "lon": 9.9824008, "tags": {"amenity": "bicycle_rental", "bicycle_rental": "docking_station", "brand": "StadtRAD Hamburg", "brand:wikidata": "Q2326366", "brand:wikipedia": "de:StadtRAD Hamburg", "capacity": "32", "check_date": "2024-05-16", "name": "Allende-Platz", "network": "stadtradhamburg", "network:wikidata": "Q2326366", "network:wikipedia": "de:StadtRAD Hamburg", "operator": "Deutsche Bahn Connect GmbH", "operator:wikidata": "Q1152100", "operator:wikipedia": "de:Deutsche Bahn Connect", "ref": "29902", "website": "https://stadtrad.hamburg.de"}}, {"type": "node", "id": 1357469854, "lat": 53.539537, "lon": 9.9938423, "tags": {"amenity": "bicycle_rental", "bicycle_rental": "docking_station", "brand": "StadtRAD Hamburg", "brand:wikidata": "Q2326366", "brand:wikipedia": "de:StadtRAD Hamburg", "capacity": "24", "check_date": "2024-04-25", "name": "Am Strandkai", "network": "stadtradhamburg", "network:wikidata": "Q2326366", "network:wikipedia": "de:StadtRAD Hamburg", "operator": "Deutsche Bahn Connect GmbH", "operator:wikidata": "Q1152100", "operator:wikipedia": "de:Deutsche Bahn Connect", "ref": "24002", "website": "https://stadtrad.hamburg.de"}}, {"type": "node", "id": 1399284352, "lat": 53.588617, "lon": 10.0326597, "tags": {"amenity": "bicycle_rental", "bicycle_rental": "docking_station", "brand": "StadtRAD Hamburg", "capacity": "24", "capacity:cargo_bike": "1", "check_date": "2023-05-09", "name": "U Saarlandstraße / Wiesendamm", "network": "stadtradhamburg", "operator": "Deutsche Bahn Connect GmbH", "ref": "20808", "website": "https://stadtrad.hamburg.de"}}, {"type": "node", "id": 1420686647, "lat": 53.5762018, "lon": 10.0580246, "tags": {"amenity": "bicycle_rental", "bicycle_rental": "docking_station", "brand": "StadtRAD Hamburg", "capacity": "20", "check_date": "2024-03-30", "name": "S Friedrichsberg / Krausestraße", "network": "stadtradhamburg", "operator": "Deutsche Bahn Connect GmbH", "ref": "21201", "website": "https://stadtrad.hamburg.de"}}, {"type": "node", "id": 1420692330, "lat": 53.5711272, "lon": 10.0401222, "tags": {"amenity": "bicycle_rental", "bicycle_rental": "docking_station", "brand": "StadtRAD Hamburg", "capacity": "20", "check_date": "2024-03-30", "name": "Uferstraße / Wagnerstraße", "network": "stadtradhamburg", "operator": "Deutsche Bahn Connect GmbH", "ref": "21106", "website": "https://stadtrad.hamburg.de"}}, {"type": "node", "id": 1420948951, "lat": 53.5800616, "lon": 10.0415391, "tags": {"amenity": "bicycle_rental", "bicycle_rental": "docking_station", "brand": "StadtRAD Hamburg", "capacity": "24", "check_date": "2024-03-30", "name": "U Dehnhaide / Barmbeker Markt", "network": "stadtradhamburg", "operator": "Deutsche Bahn Connect GmbH", "ref": "21103", "website": "https://stadtrad.hamburg.de"}}, {"type": "node", "id": 1420951107, "lat": 53.5717299, "lon": 10.0684562, "tags": {"amenity": "bicycle_rental", "bicycle_rental": "docking_station", "brand": "StadtRAD Hamburg", "capacity": "21", "check_date": "2024-04-20", "name": "U Wandsbek Markt / Schloßgarten", "network": "stadtradhamburg", "operator": "Deutsche Bahn Connect GmbH", "ref": "22704", "service:bicycle:pump": "yes", "website": "https://stadtrad.hamburg.de"}}, {"type": "node", "id": 1420957412, "lat": 53.5914449, "lon": 10.0303465, "tags": {"amenity": "bicycle_rental", "bicycle_rental": "docking_station", "brand": "StadtRAD Hamburg", "capacity": "24", "check_date": "2023-05-09", "name": "Südring / Stadthallenbrücke", "network": "stadtradhamburg", "operator": "Deutsche Bahn Connect GmbH", "ref": "20807", "website": "https://stadtrad.hamburg.de"}}, {"type": "node", "id": 1420960623, "lat": 53.5671703, "lon": 10.0444553, "tags": {"amenity": "bicycle_rental", "bicycle_rental": "docking_station", "brand": "StadtRAD Hamburg", "capacity": "16", "capacity:cargo_bike": "1", "capacity:description": "15 Plätze für Standardfahrräder + 1 Lastenpedelec", "check_date": "2024-03-30", "name": "U Ritterstraße / Wandsbeker Chaussee", "network": "stadtradhamburg", "operator": "Deutsche Bahn Connect GmbH", "ref": "22900", "service:bicycle:pump": "yes", "website": "https://stadtrad.hamburg.de"}}, {"type": "node", "id": 1434219413, "lat": 53.5569608, "lon": 9.9279935, "tags": {"amenity": "bicycle_rental", "bicycle_rental": "docking_station", "brand": "StadtRAD Hamburg", "capacity": "16", "check_date": "2024-04-30", "name": "Bahrenfelder Straße / Völckersstraße", "network": "stadtradhamburg", "note": "Einige Stellplätze befinden sich auf der anderen Straßenseite der Völckersstraße ..", "operator": "Deutsche Bahn Connect GmbH", "ref": "28701", "website": "https://stadtrad.hamburg.de"}}, {"type": "node", "id": 1464368951, "lat": 53.5752276, "lon": 10.0207917, "tags": {"amenity": "bicycle_rental", "bicycle_rental": "docking_station", "brand": "StadtRAD Hamburg", "capacity": "13", "check_date": "2024-06-01", "name": "Winterhuder Weg / Zimmerstraße", "network": "StadtRAD Hamburg", "operator": "Deutsche Bahn Connect", "ref": "21001", "website": "https://stadtrad.hamburg.de"}}, {"type": "node", "id": 1489977810, "lat": 53.584136, "lon": 10.0334035, "tags": {"amenity": "bicycle_rental", "bicycle_rental": "docking_station", "brand": "StadtRAD Hamburg", "capacity": "19", "check_date": "2024-03-30", "name": "Schleidenstraße / Osterbekstraße", "network": "stadtradhamburg", "operator": "Deutsche Bahn Connect GmbH", "ref": "21100", "website": "https://stadtrad.hamburg.de"}}, {"type": "node", "id": 1497798910, "lat": 53.5520591, "lon": 10.030488, "tags": {"amenity": "bicycle_rental", "bicycle_rental": "docking_station", "brand": "StadtRAD Hamburg", "capacity": "20", "check_date": "2024-04-27", "name": "Eiffestraße / Normannenweg", "network": "stadtradhamburg", "note": "2024-04-27: wegen Großbaustelle zum Überprüfungszeitpunkt weniger Säulen und reduzierte Stellfläche ..", "operator": "Deutsche Bahn Connect GmbH", "ref": "23600", "website": "https://stadtrad.hamburg.de"}}, {"type": "node", "id": 1501718795, "lat": 53.5800617, "lon": 10.0340414, "tags": {"amenity": "bicycle_rental", "bicycle_rental": "docking_station", "brand": "StadtRAD Hamburg", "capacity": "22", "check_date": "2024-03-30", "name": "Weidestraße / Biedermannplatz", "network": "stadtradhamburg", "operator": "Deutsche Bahn Connect GmbH", "ref": "21102", "website": "https://stadtrad.hamburg.de"}}, {"type": "node", "id": 1501996163, "lat": 53.5817094, "lon": 9.9711433, "tags": {"amenity": "bicycle_rental", "bicycle_rental": "docking_station", "brand": "StadtRAD Hamburg", "capacity": "21", "capacity:cargo_bike": "1", "capacity:description": "20 schwere Standardfahrräder + 1 Lastenpedelec", "check_date": "2024-04-25", "name": "Eppendorfer Weg / Hoheluftchaussee", "network": "stadtradhamburg", "operator": "Deutsche Bahn Connect GmbH", "ref": "29700", "website": "https://stadtrad.hamburg.de"}}, {"type": "node", "id": 1503301952, "lat": 53.5731941, "lon": 9.9623548, "tags": {"amenity": "bicycle_rental", "bicycle_rental": "docking_station", "brand": "StadtRAD Hamburg", "brand:wikidata": "Q2326366", "brand:wikipedia": "de:StadtRAD Hamburg", "capacity": "20", "check_date": "2024-04-25", "name": "Osterstraße / Bismarckstraße", "network": "stadtradhamburg", "network:wikidata": "Q2326366", "network:wikipedia": "de:StadtRAD Hamburg", "operator": "Deutsche Bahn Connect GmbH", "operator:wikidata": "Q1152100", "operator:wikipedia": "de:Deutsche Bahn Connect", "ref": "29607", "website": "https://stadtrad.hamburg.de"}}, {"type": "node", "id": 1509854937, "lat": 53.5870987, "lon": 10.0433154, "tags": {"amenity": "bicycle_rental", "bicycle_rental": "docking_station", "brand": "StadtRAD Hamburg", "brand:wikidata": "Q2326366", "capacity": "16", "check_date": "2024-03-30", "name": "S+U Barmbek / Wiesendamm", "network": "StadtRAD Hamburg", "network:wikidata": "Q2326366", "operator": "Deutsche Bahn Connect", "operator:wikidata": "Q1152100", "ref": "20903", "website": "https://stadtrad.hamburg.de"}}, {"type": "node", "id": 1562385960, "lat": 53.562811, "lon": 9.9609193, "tags": {"amenity": "bicycle_rental", "bicycle_rental": "docking_station", "brand": "StadtRAD Hamburg", "brand:wikidata": "Q2326366", "brand:wikipedia": "de:StadtRAD Hamburg", "capacity": "12", "check_date": "2024-02-21", "name": "Schulterblatt / Eifflerstraße", "network": "stadtradhamburg", "network:wikidata": "Q2326366", "network:wikipedia": "de:StadtRAD Hamburg", "operator": "Deutsche Bahn Connect GmbH", "operator:wikidata": "Q1152100", "operator:wikipedia": "de:Deutsche Bahn Connect", "ref": "28901", "website": "https://stadtrad.hamburg.de"}}, {"type": "node", "id": 1563912977, "lat": 53.5696315, "lon": 10.0271587, "tags": {"amenity": "bicycle_rental", "bicycle_rental": "docking_station", "brand": "StadtRAD Hamburg", "capacity": "17", "capacity:cargo_bike": "1", "capacity:description": "16 Standardfahrräder + 1 Lastenpedelec", "check_date": "2024-06-01", "name": "U Mundsburg / Schürbeker Straße", "network": "stadtradhamburg", "operator": "Deutsche Bahn Connect GmbH", "ref": "21003", "website": "https://stadtrad.hamburg.de"}}, {"type": "node", "id": 1564203610, "lat": 53.5560913, "lon": 9.9798788, "tags": {"amenity": "bicycle_rental", "bicycle_rental": "docking_station", "brand": "StadtRAD Hamburg", "brand:wikidata": "Q2326366", "brand:wikipedia": "de:StadtRAD Hamburg", "capacity": "23", "check_date": "2024-06-07", "name": "Sievekingplatz / Gorch-Fock-Wall", "network": "stadtradhamburg", "network:wikidata": "Q2326366", "network:wikipedia": "de:StadtRAD Hamburg", "operator": "Deutsche Bahn Connect GmbH", "operator:wikidata": "Q1152100", "operator:wikipedia": "de:Deutsche Bahn Connect", "ref": "23301", "website": "https://stadtrad.hamburg.de"}}, {"type": "node", "id": 1571171292, "lat": 53.5507903, "lon": 9.9251597, "tags": {"amenity": "bicycle_rental", "bicycle_rental": "dropoff_point", "brand": "StadtRAD Hamburg", "capacity": "21", "check_date": "2024-04-30", "name": "Eulenstraße / Große Brunnenstraße", "network": "stadtradhamburg", "operator": "Deutsche Bahn Connect GmbH", "ref": "28704", "website": "https://stadtrad.hamburg.de"}}, {"type": "node", "id": 1571202258, "lat": 53.5507874, "lon": 9.9222107, "tags": {"amenity": "bicycle_rental", "bicycle_rental": "docking_station", "brand": "StadtRAD Hamburg", "capacity": "10", "capacity:cargo_bike": "1", "capacity:description": "9 Plätze für Standardfahrräder + 1 Lastenpedelec", "check_date": "2024-04-30", "name": "Fischersallee / Bleickenallee", "network": "stadtradhamburg", "operator": "Deutsche Bahn Connect GmbH", "ref": "28703", "website": "https://stadtrad.hamburg.de"}}, {"type": "node", "id": 1572847745, "lat": 53.5736506, "lon": 10.049496, "tags": {"amenity": "bicycle_rental", "bicycle_rental": "docking_station", "brand": "StadtRAD Hamburg", "capacity": "17", "capacity:cargo_bike": "1", "capacity:description": "16 Plätze für Standardfahrräder + 1 Lastenpedelec", "check_date": "2024-03-30", "name": "Lortzingstraße / Friedrichsberger Straße", "network": "stadtradhamburg", "operator": "Deutsche Bahn Connect GmbH", "ref": "21107", "website": "https://stadtrad.hamburg.de"}}, {"type": "node", "id": 1575877881, "lat": 53.5777037, "lon": 10.0141483, "tags": {"amenity": "bicycle_rental", "bicycle_rental": "docking_station", "brand": "StadtRAD Hamburg", "capacity": "23", "check_date": "2024-06-01", "name": "Hofweg / Am Langenzug", "network": "stadtradhamburg", "operator": "Deutsche Bahn Connect GmbH", "ref": "21000", "website": "https://stadtrad.hamburg.de"}}, {"type": "node", "id": 1575883765, "lat": 53.541724, "lon": 9.9929215, "tags": {"amenity": "bicycle_rental", "bicycle_rental": "docking_station", "brand": "StadtRAD Hamburg", "brand:wikidata": "Q2326366", "brand:wikipedia": "de:StadtRAD Hamburg", "capacity": "17", "check_date": "2024-04-25", "name": "Am Kaiserkai / Großer Grasbrook", "network": "stadtradhamburg", "network:wikidata": "Q2326366", "network:wikipedia": "de:StadtRAD Hamburg", "operator": "Deutsche Bahn Connect GmbH", "operator:wikidata": "Q1152100", "operator:wikipedia": "de:Deutsche Bahn Connect", "ref": "24001", "website": "https://stadtrad.hamburg.de"}}, {"type": "node", "id": 1578071052, "lat": 53.5509762, "lon": 9.9804066, "tags": {"amenity": "bicycle_rental", "bicycle_rental": "docking_station", "brand": "StadtRAD Hamburg", "capacity": "24", "capacity:cargo_bike": "1", "check_date": "2024-06-07", "name": "Großneumarkt / Thielbek", "network": "stadtradhamburg", "operator": "Deutsche Bahn Connect GmbH", "ref": "23309", "website": "https://stadtrad.hamburg.de"}}, {"type": "node", "id": 1595412889, "lat": 53.5563309, "lon": 10.0556929, "tags": {"amenity": "bicycle_rental", "bicycle_rental": "docking_station", "brand": "StadtRAD Hamburg", "capacity": "23", "check_date": "2024-06-01", "name": "U Hammer Kirche / Hammer Park", "network": "StadtRAD Hamburg", "operator": "Deutsche Bahn Connect", "ref": "23704", "website": "https://stadtrad.hamburg.de"}}, {"type": "node", "id": 1595462311, "lat": 53.5476294, "lon": 9.9941624, "tags": {"amenity": "bicycle_rental", "bicycle_rental": "docking_station", "brand": "StadtRAD Hamburg", "brand:wikidata": "Q2326366", "capacity": "16", "check_date": "2023-06-22", "name": "Domstraße / Willy-Brandt-Straße", "network": "stadtradhamburg", "network:wikidata": "Q2326366", "operator": "Deutsche Bahn Connect GmbH", "operator:wikidata": "Q1152100", "ref": "23408", "website": "https://stadtrad.hamburg.de"}}, {"type": "node", "id": 1638931988, "lat": 53.5935921, "lon": 9.9433088, "tags": {"amenity": "bicycle_rental", "bicycle_rental": "docking_station", "brand": "StadtRAD Hamburg", "capacity": "20", "check_date": "2024-04-10", "fee": "yes", "name": "U Hagenbecks Tierpark / Koppelstraße", "network": "stadtradhamburg", "operator": "Deutsche Bahn Connect GmbH", "ref": "29501", "website": "https://stadtrad.hamburg.de"}}, {"type": "node", "id": 1675065142, "lat": 53.5758119, "lon": 10.0292335, "tags": {"amenity": "bicycle_rental", "bicycle_rental": "docking_station", "brand": "StadtRAD Hamburg", "capacity": "20", "check_date": "2024-03-30", "name": "Bartholomäusstraße / Beim Alten Schützenhof", "network": "stadtradhamburg", "operator": "Deutsche Bahn Connect GmbH", "ref": "21104", "website": "https://stadtrad.hamburg.de"}}, {"type": "node", "id": 1710567823, "lat": 53.5958157, "lon": 10.01379, "tags": {"amenity": "bicycle_rental", "bicycle_rental": "docking_station", "brand": "StadtRAD Hamburg", "capacity": "16", "check_date": "2023-05-09", "name": "Planetarium / Hindenburgstraße", "network": "stadtradhamburg", "operator": "Deutsche Bahn Connect GmbH", "ref": "20804", "website": "https://stadtrad.hamburg.de"}}, {"type": "node", "id": 1728287055, "lat": 53.547232, "lon": 9.9659564, "tags": {"amenity": "bicycle_rental", "bicycle_rental": "docking_station", "brand": "StadtRAD Hamburg", "capacity": "22", "check_date": "2024-02-22", "name": "Bernhard-Nocht-Straße / Zirkusweg", "network": "StadtRAD Hamburg", "operator": "Deutsche Bahn Connect GmbH", "ref": "23204", "website": "https://stadtrad.hamburg.de"}}, {"type": "node", "id": 1747142838, "lat": 53.5681379, "lon": 9.9701982, "tags": {"amenity": "bicycle_rental", "bicycle_rental": "docking_station", "brand": "StadtRAD Hamburg", "brand:wikidata": "Q2326366", "brand:wikipedia": "de:StadtRAD Hamburg", "capacity": "18", "check_date": "2024-02-21", "name": "U Schlump / Gustav-Falke-Straße", "network": "stadtradhamburg", "network:wikidata": "Q2326366", "network:wikipedia": "de:StadtRAD Hamburg", "operator": "Deutsche Bahn Connect GmbH", "operator:wikidata": "Q1152100", "operator:wikipedia": "de:Deutsche Bahn Connect", "ref": "29609", "website": "https://stadtrad.hamburg.de"}}, {"type": "node", "id": 1796325073, "lat": 53.7341389, "lon": 9.9894205, "tags": {"amenity": "bicycle_rental", "bicycle_rental": "docking_station", "brand": "nextbike", "brand:wikidata": "Q2351279", "brand:wikipedia": "de:Nextbike", "capacity": "15", "check_date": "2023-08-19", "network": "nextbike", "ref": "4726", "service:bicycle:pump": "yes", "wheelchair": "yes"}}, {"type": "node", "id": 1802825756, "lat": 53.5837814, "lon": 9.9780914, "tags": {"amenity": "bicycle_rental", "bicycle_rental": "docking_station", "brand": "StadtRAD Hamburg", "capacity": "16", "check_date": "2024-04-25", "name": "Löwenstraße / Eppendorfer Weg", "network": "stadtradhamburg", "operator": "Deutsche Bahn Connect GmbH", "ref": "20700", "website": "https://stadtrad.hamburg.de"}}, {"type": "node", "id": 1807499522, "lat": 53.5342683, "lon": 10.0390544, "tags": {"amenity": "bicycle_rental", "bicycle_rental": "docking_station", "brand": "StadtRAD Hamburg", "brand:wikidata": "Q2326366", "brand:wikipedia": "de:Call a Bike", "capacity": "16", "check_date": "2024-04-27", "name": "Rothenburgsorter Marktplatz / Lindleystraße", "network": "stadtradhamburg", "network:wikidata": "Q2326366", "network:wikipedia": "de:Call a Bike", "operator": "Deutsche Bahn Connect GmbH", "operator:wikidata": "Q1152100", "operator:wikipedia": "de:Deutsche Bahn Connect", "ref": "24201", "website": "https://stadtrad.hamburg.de"}}, {"type": "node", "id": 1809979508, "lat": 53.5746601, "lon": 10.037078, "tags": {"amenity": "bicycle_rental", "bicycle_rental": "docking_station", "brand": "StadtRAD Hamburg", "capacity": "19", "check_date": "2024-03-30", "name": "U Hamburger Straße / Wagnerstraße", "network": "stadtradhamburg", "operator": "Deutsche Bahn Connect GmbH", "ref": "21105", "website": "https://stadtrad.hamburg.de"}}, {"type": "node", "id": 1813972888, "lat": 53.547904, "lon": 10.0131678, "tags": {"amenity": "bicycle_rental", "bicycle_rental": "docking_station", "brand": "StadtRAD Hamburg", "capacity": "16", "check_date": "2024-04-27", "name": "Amsinckstraße / Nordkanalbrücke", "network": "stadtradhamburg", "operator": "Deutsche Bahn Connect GmbH", "ref": "24101", "website": "https://stadtrad.hamburg.de"}}, {"type": "node", "id": 1825365113, "lat": 53.5442525, "lon": 9.9810736, "tags": {"amenity": "bicycle_rental", "bicycle_rental": "docking_station", "brand": "StadtRAD Hamburg", "capacity": "24", "check_date": "2024-06-07", "name": "U Bahn Baumwall / Elbphilharmonie", "network": "stadtradhamburg", "operator": "Deutsche Bahn Connect GmbH", "ref": "23313", "website": "https://stadtrad.hamburg.de"}}, {"type": "node", "id": 1867808214, "lat": 53.5139807, "lon": 9.9872057, "tags": {"amenity": "bicycle_rental", "bicycle_rental": "docking_station", "brand": "StadtRAD Hamburg", "brand:wikidata": "Q2326366", "capacity": "24", "capacity:cargo_bike": "1", "check_date": "2024-05-20", "internet_access": "no", "level": "0", "name": "Veringstraße / Mannesallee", "network": "StadtRAD Hamburg", "network:wikidata": "Q2326366", "operator": "Deutsche Bahn Connect", "operator:wikidata": "Q1152100", "payment:cash": "yes", "payment:credit_cards": "yes", "payment:debit_cards": "yes", "ref": "24900", "website": "https://stadtrad.hamburg.de", "wheelchair": "yes"}}, {"type": "node", "id": 1887862125, "lat": 53.5437405, "lon": 9.9897215, "tags": {"amenity": "bicycle_rental", "bicycle_rental": "docking_station", "brand": "StadtRAD Hamburg", "capacity": "24", "check_date": "2024-04-25", "name": "Auf dem Sande / Kehrwieder / Miniatur Wunderland", "network": "stadtradhamburg", "note": "2024-04-25: .. trägt immer noch die alte 4-stellige Referenznummer ..", "operator": "Deutsche Bahn Connect GmbH", "ref:old": "2672", "website": "https://stadtrad.hamburg.de"}}, {"type": "node", "id": 2278118737, "lat": 53.5402456, "lon": 10.042627, "tags": {"amenity": "bicycle_rental", "bicycle_rental": "docking_station", "brand": "StadtRAD Hamburg", "capacity": "18", "check_date": "2024-04-27", "name": "S Rothenburgsort / Billhorner Deich", "network": "stadtradhamburg", "operator": "Deutsche Bahn Connect GmbH", "ref": "24200", "website": "https://stadtrad.hamburg.de"}}, {"type": "node", "id": 2291953162, "lat": 53.5598145, "lon": 9.9818107, "tags": {"amenity": "bicycle_rental", "bicycle_rental": "docking_station", "brand": "StadtRAD Hamburg", "brand:wikidata": "Q2326366", "brand:wikipedia": "de:StadtRAD Hamburg", "capacity": "18", "check_date": "2024-05-16", "name": "Bei den Kirchhöfen / St. Petersburger Straße", "network": "stadtradhamburg", "network:wikidata": "Q2326366", "network:wikipedia": "de:StadtRAD Hamburg", "operator": "Deutsche Bahn Connect GmbH", "operator:wikidata": "Q1152100", "operator:wikipedia": "de:Deutsche Bahn Connect", "ref": "23300", "website": "https://stadtrad.hamburg.de"}}, {"type": "node", "id": 2343194436, "lat": 53.4972113, "lon": 10.0035528, "tags": {"amenity": "bicycle_rental", "bicycle_rental": "docking_station", "brand": "StadtRAD Hamburg", "brand:wikidata": "Q2326366", "capacity": "16", "check_date": "2024-01-06", "name": "Neuenfelder Straße / Kurt-Emmerich-Platz", "network": "StadtRAD Hamburg", "network:wikidata": "Q2326366", "operator": "Deutsche Bahn Connect", "operator:wikidata": "Q1152100", "ref": "24903", "website": "https://stadtrad.hamburg.de"}}, {"type": "node", "id": 2418546166, "lat": 53.5995318, "lon": 9.9941038, "tags": {"amenity": "bicycle_rental", "bicycle_rental": "docking_station", "brand": "StadtRAD Hamburg", "capacity": "23", "capacity:cargo_bike": "1", "check_date": "2023-05-09", "name": "U Lattenkamp / Bebelallee", "network": "stadtradhamburg", "operator": "Deutsche Bahn Connect GmbH", "ref": "20802", "website": "https://stadtrad.hamburg.de"}}, {"type": "node", "id": 2434483183, "lat": 53.5402315, "lon": 9.9966419, "tags": {"amenity": "bicycle_rental", "bicycle_rental": "docking_station", "brand": "StadtRAD Hamburg", "brand:wikidata": "Q2326366", "brand:wikipedia": "de:StadtRAD Hamburg", "capacity": "18", "capacity:cargo_bike": "1", "check_date": "2024-04-25", "name": "U Überseequartier / Grasbrookpark", "network": "stadtradhamburg", "network:wikidata": "Q2326366", "network:wikipedia": "de:StadtRAD Hamburg", "operator": "Deutsche Bahn Connect GmbH", "operator:wikidata": "Q1152100", "operator:wikipedia": "de:Deutsche Bahn Connect", "ref": "24003", "website": "https://stadtrad.hamburg.de"}}, {"type": "node", "id": 2434511646, "lat": 53.5704208, "lon": 10.0594889, "tags": {"amenity": "bicycle_rental", "bicycle_rental": "docking_station", "brand": "StadtRAD Hamburg", "brand:wikidata": "Q2326366", "capacity": "26", "check_date": "2024-03-30", "name": "S+U Wandsbeker Chaussee / Börnestraße", "network": "StadtRAD Hamburg", "network:wikidata": "Q2326366", "operator": "Deutsche Bahn Connect", "operator:wikidata": "Q1152100", "ref": "22901", "website": "https://stadtrad.hamburg.de"}}, {"type": "node", "id": 2450581971, "lat": 53.6002102, "lon": 10.0705263, "tags": {"amenity": "bicycle_rental", "bicycle_rental": "dropoff_point", "brand": "StadtRAD Hamburg", "capacity": "(unknown)", "capacity:description": "keine expliziten baulichen Stellplätze ..", "check_date": "2024-02-25", "name": "Werner-Otto-Straße / OTTO Group", "network": "stadtradhamburg", "operator": "Deutsche Bahn Connect GmbH", "ref": "22401", "website": "https://stadtrad.hamburg.de"}}, {"type": "node", "id": 2463701771, "lat": 53.4993968, "lon": 9.9973129, "tags": {"amenity": "bicycle_rental", "bicycle_rental": "docking_station", "brand": "StadtRAD Hamburg", "capacity": "18", "check_date": "2024-01-06", "name": "Ursula-Falke-Terrassen / Mengestraße", "network": "stadtradhamburg", "operator": "Deutsche Bahn Connect GmbH", "ref": "24902", "website": "https://stadtrad.hamburg.de"}}, {"type": "node", "id": 2463701772, "lat": 53.4978508, "lon": 10.0068566, "tags": {"amenity": "bicycle_rental", "bicycle_rental": "docking_station", "brand": "StadtRAD Hamburg", "brand:wikidata": "Q2326366", "capacity": "26", "check_date": "2024-01-06", "name": "S Wilhelmsburg / Wilhelm-Strauß-Weg", "network": "StadtRAD Hamburg", "network:wikidata": "Q2326366", "operator": "Deutsche Bahn Connect", "operator:wikidata": "Q1152100", "ref": "24904", "website": "https://stadtrad.hamburg.de"}}, {"type": "node", "id": 2877623997, "lat": 53.601918, "lon": 10.0247003, "tags": {"amenity": "bicycle_rental", "bicycle_rental": "docking_station", "brand": "StadtRAD Hamburg", "brand:wikidata": "Q2326366", "capacity": "22", "check_date": "2023-05-09", "name": "Überseering / Mexikoring", "network": "StadtRAD Hamburg", "network:wikidata": "Q2326366", "operator": "Deutsche Bahn Connect", "operator:wikidata": "Q1152100", "ref": "20803", "website": "https://stadtrad.hamburg.de"}}, {"type": "node", "id": 2983710492, "lat": 53.5528145, "lon": 10.0000612, "tags": {"amenity": "bicycle_rental", "bicycle_rental": "dropoff_point", "operator": "ERFAHRE Hamburg", "website": "https://www.erfahre.com/"}}, {"type": "node", "id": 3110589853, "lat": 53.5826806, "lon": 9.9569937, "tags": {"amenity": "bicycle_rental", "bicycle_rental": "docking_station", "brand": "StadtRAD Hamburg", "capacity": "26", "check_date": "2024-04-10", "name": "Troplowitzstraße / Beiersdorf / NXP", "network": "stadtradhamburg", "operator": "Deutsche Bahn Connect GmbH", "ref": "29504", "website": "https://stadtrad.hamburg.de"}}, {"type": "node", "id": 3257767661, "lat": 53.4488961, "lon": 9.9904561, "tags": {"amenity": "bicycle_rental", "bicycle_rental": "docking_station", "brand": "StadtRAD Hamburg", "capacity": "15", "check_date": "2024-02-10", "name": "Reeseberg / Anzengruberstraße", "network": "stadtradhamburg", "operator": "Deutsche Bahn Connect GmbH", "ref": "27101", "website": "https://stadtrad.hamburg.de"}}, {"type": "node", "id": 3258575664, "lat": 53.5804155, "lon": 9.9995767, "tags": {"amenity": "bicycle_rental", "bicycle_rental": "docking_station", "brand": "StadtRAD Hamburg", "capacity": "12", "check_date": "2024-06-01", "name": "Leinpfad / Fernsicht", "network": "stadtradhamburg", "operator": "Deutsche Bahn Connect GmbH", "ref": "20809", "website": "https://stadtrad.hamburg.de"}}, {"type": "node", "id": 3427054038, "lat": 53.4572337, "lon": 9.987899, "tags": {"amenity": "bicycle_rental", "bicycle_rental": "docking_station", "brand": "StadtRAD Hamburg", "capacity": "21", "check_date": "2024-02-10", "name": "Bahnhof Harburg / Moorstraße", "network": "stadtradhamburg", "operator": "Deutsche Bahn Connect GmbH", "ref": "26806", "website": "https://stadtrad.hamburg.de", "wheelchair": "yes"}}, {"type": "node", "id": 3450742341, "lat": 53.4652581, "lon": 9.9635932, "tags": {"amenity": "bicycle_rental", "bicycle_rental": "docking_station", "brand": "Stadtrad Hamburg", "capacity": "16", "check_date": "2024-02-10", "name": "Alter Postweg / Heimfelder Straße", "network": "stadtradhamburg", "operator": "Deutsche Bahn Connect GmbH", "ref": "26700", "website": "https://stadtrad.hamburg.de"}}, {"type": "node", "id": 3450742342, "lat": 53.4598353, "lon": 9.9807064, "tags": {"amenity": "bicycle_rental", "bicycle_rental": "docking_station", "brand": "StadtRAD Hamburg", "capacity": "16", "check_date": "2024-02-10", "name": "S Harburg Rathaus / Deichhausweg", "network": "stadtradhamburg", "operator": "Deutsche Bahn Connect GmbH", "ref": "26804", "website": "https://stadtrad.hamburg.de"}}, {"type": "node", "id": 3460189839, "lat": 53.4642494, "lon": 9.9861281, "tags": {"amenity": "bicycle_rental", "bicycle_rental": "docking_station", "brand": "StadtRAD Hamburg", "capacity": "16", "check_date": "2024-02-10", "name": "Schellerdamm / Hausnummer 22", "network": "stadtradhamburg", "operator": "Deutsche Bahn Connect GmbH", "ref": "26801", "website": "https://stadtrad.hamburg.de"}}, {"type": "node", "id": 3460351520, "lat": 53.5698418, "lon": 9.9495006, "tags": {"amenity": "bicycle_rental", "bicycle_rental": "docking_station", "brand": "StadtRAD Hamburg", "capacity": "14", "check_date": "2024-04-10", "name": "Sandweg / Sophienallee", "network": "stadtradhamburg", "operator": "Deutsche Bahn Connect GmbH", "ref": "29605", "website": "https://stadtrad.hamburg.de"}}, {"type": "node", "id": 3472122206, "lat": 53.4477551, "lon": 9.9807026, "tags": {"amenity": "bicycle_rental", "bicycle_rental": "docking_station", "brand": "StadtRAD Hamburg", "capacity": "16", "check_date": "2024-02-10", "name": "Gotthelfweg / Außenmühlenteich", "network": "stadtradhamburg", "operator": "Deutsche Bahn Connect GmbH", "ref": "27100", "website": "https://stadtrad.hamburg.de"}}, {"type": "node", "id": 3472122207, "lat": 53.4607018, "lon": 9.9776703, "tags": {"amenity": "bicycle_rental", "bicycle_rental": "docking_station", "brand": "StadtRAD Hamburg", "capacity": "16", "capacity:cargo_bike": "1", "check_date": "2024-02-10", "name": "Harburger Ring / Neue Straße", "network": "stadtradhamburg", "operator": "Deutsche Bahn Connect GmbH", "ref": "26803", "website": "https://stadtrad.hamburg.de"}}, {"type": "node", "id": 3472122208, "lat": 53.4604968, "lon": 9.9698051, "tags": {"amenity": "bicycle_rental", "bicycle_rental": "docking_station", "brand": "StadtRAD Hamburg", "brand:wikidata": "Q2326366", "brand:wikipedia": "de:StadtRAD Hamburg", "capacity": "30", "check_date": "2024-02-10", "name": "Denickestraße / TUHH", "network": "stadtradhamburg", "network:wikidata": "Q2326366", "network:wikipedia": "de:StadtRAD Hamburg", "operator": "Deutsche Bahn Connect GmbH", "operator:wikidata": "Q1152100", "operator:wikipedia": "de:Deutsche Bahn Connect", "ref": "26802", "website": "https://stadtrad.hamburg.de"}}, {"type": "node", "id": 3482239424, "lat": 53.6844149, "lon": 9.9848872, "tags": {"amenity": "bicycle_rental", "bicycle_rental": "dropoff_point", "brand": "nextbike", "capacity:description": "keine fest installierten Stellplätze ..", "check_date": "2024-01-05", "network": "nextbike", "operator": "nextbike GmbH", "ref": "4724", "website": "https://www.nextbike.de"}}, {"type": "node", "id": 3505808109, "lat": 53.5929209, "lon": 9.9520562, "tags": {"amenity": "bicycle_rental", "bicycle_rental": "docking_station", "brand": "StadtRAD Hamburg", "capacity": "14", "check_date": "2024-04-18", "name": "Emil-Andresen-Straße / Lohkoppelweg", "network": "stadtradhamburg", "operator": "Deutsche Bahn Connect GmbH", "ref": "29502", "website": "https://stadtrad.hamburg.de"}}, {"type": "node", "id": 3507753761, "lat": 53.6958575, "lon": 9.9895086, "tags": {"amenity": "bicycle_rental", "bicycle_rental": "docking_station", "brand": "nextbike", "capacity": "11", "capacity:cargo_bike": "1", "capacity:description": "10 feste Plätze für Standardbikes + 1 freier Platz für ein Lastenpedelec ..", "check_date": "2024-01-05", "network": "nextbike", "operator": "nextbike GmbH", "ref": "4732", "service:bicycle:pump": "yes", "website": "https://www.nextbike.de"}}, {"type": "node", "id": 3531261093, "lat": 53.5755741, "lon": 9.9443886, "tags": {"amenity": "bicycle_rental", "bicycle_rental": "docking_station", "brand": "StadtRAD Hamburg", "capacity": "15", "capacity:cargo_bike": "1", "capacity:description": "14 schwere Standardfahrräder + 1 Lastenpedelec", "check_date": "2024-04-03", "name": "Lappenbergsallee / Bei der Apostelkirche", "network": "stadtradhamburg", "operator": "Deutsche Bahn Connect GmbH", "ref": "29601", "website": "https://stadtrad.hamburg.de"}}, {"type": "node", "id": 3531579898, "lat": 53.5477973, "lon": 9.9651403, "tags": {"addr:city": "Hamburg", "addr:housenumber": "15b", "addr:postcode": "20359", "addr:street": "Hopfenstraße", "amenity": "bicycle_rental", "capacity": "150", "check_date": "2023-11-16", "description": "geführte Sightseeing-Fahrradtouren und Fahrradverleih", "email": "info@hhcitycycles.de", "name": "Hamburg City Cycles", "operator": "Hamburg City Cycles", "operator:type": "private", "payment:cash": "yes", "payment:contactless": "yes", "payment:credit_cards": "yes", "payment:debit_cards": "yes", "phone": "+49 40 81955985", "start_date": "2009", "website": "https://www.hhcitycycles.de"}}, {"type": "node", "id": 3534209234, "lat": 53.5522756, "lon": 9.9303997, "tags": {"amenity": "bicycle_rental", "bicycle_rental": "docking_station", "brand": "StadtRAD Hamburg", "capacity": "15", "check_date": "2024-04-30", "name": "Große Rainstraße / Ottenser Hauptstraße", "network": "stadtradhamburg", "operator": "Deutsche Bahn Connect GmbH", "ref": "28705", "website": "https://stadtrad.hamburg.de"}}, {"type": "node", "id": 3552127128, "lat": 53.5849456, "lon": 10.0796842, "tags": {"amenity": "bicycle_rental", "bicycle_rental": "docking_station", "brand": "StadtRAD Hamburg", "capacity": "16", "check_date": "2024-04-20", "name": "Friedrich-Ebert-Damm / Lomerstraße", "network": "stadtradhamburg", "operator": "Deutsche Bahn Connect GmbH", "ref": "22701", "website": "https://stadtrad.hamburg.de"}}, {"type": "node", "id": 3578212323, "lat": 53.5468731, "lon": 10.0582322, "tags": {"amenity": "bicycle_rental", "bicycle_rental": "docking_station", "brand": "StadtRAD Hamburg", "capacity": "14", "check_date": "2024-04-27", "name": "Süderstraße / Osterbrookplatz", "network": "stadtradhamburg", "operator": "Deutsche Bahn Connect GmbH", "ref": "23705", "website": "https://stadtrad.hamburg.de"}}, {"type": "node", "id": 3597478311, "lat": 53.5555238, "lon": 10.0668027, "tags": {"amenity": "bicycle_rental", "bicycle_rental": "docking_station", "brand": "StadtRAD Hamburg", "capacity": "24", "check_date": "2024-05-04", "name": "U Rauhes Haus / Horner Weg", "network": "stadtradhamburg", "operator": "Deutsche Bahn Connect GmbH", "ref": "23703", "website": "https://stadtrad.hamburg.de"}}, {"type": "node", "id": 3605366993, "lat": 53.5542026, "lon": 10.0850342, "tags": {"amenity": "bicycle_rental", "bicycle_rental": "docking_station", "brand": "StadtRAD Hamburg", "brand:wikidata": "Q2326366", "capacity": "24", "check_date": "2024-05-04", "name": "U Horner Rennbahn / Meurer Weg", "network": "StadtRAD Hamburg", "network:wikidata": "Q2326366", "operator": "Deutsche Bahn Connect", "operator:wikidata": "Q1152100", "ref": "23800", "website": "https://stadtrad.hamburg.de"}}, {"type": "node", "id": 3621694181, "lat": 53.5560485, "lon": 9.9843317, "tags": {"amenity": "bicycle_rental", "bicycle_rental": "docking_station", "brand": "StadtRAD Hamburg", "capacity": "15", "check_date": "2024-06-07", "name": "U Gänsemarkt / Caffamacherreihe", "network": "stadtradhamburg", "operator": "Deutsche Bahn Connect GmbH", "ref": "23302", "website": "https://stadtrad.hamburg.de"}}, {"type": "node", "id": 3648624501, "lat": 53.6014087, "lon": 10.0410578, "tags": {"amenity": "bicycle_rental", "bicycle_rental": "docking_station", "brand": "StadtRAD Hamburg", "capacity": "21", "capacity:cargo_bike": "1", "check_date": "2024-03-30", "name": "Fuhlsbüttler Straße / Hartzloh", "network": "stadtradhamburg", "operator": "Deutsche Bahn Connect GmbH", "ref": "20900", "website": "https://stadtrad.hamburg.de"}}, {"type": "node", "id": 3656563612, "lat": 53.5916236, "lon": 10.0439648, "tags": {"amenity": "bicycle_rental", "bicycle_rental": "docking_station", "brand": "StadtRAD Hamburg", "capacity": "24", "check_date": "2024-03-30", "name": "Fuhlsbüttler Straße / Hellbrookstraße", "network": "stadtradhamburg", "operator": "Deutsche Bahn Connect GmbH", "ref": "20902", "website": "https://stadtrad.hamburg.de"}}, {"type": "node", "id": 3660898427, "lat": 53.5601682, "lon": 9.9090417, "tags": {"amenity": "bicycle_rental", "bicycle_rental": "docking_station", "brand": "StadtRAD Hamburg", "capacity": "16", "check_date": "2024-04-30", "name": "S Bahrenfeld / Friedensallee", "network": "stadtradhamburg", "operator": "Deutsche Bahn Connect GmbH", "ref": "28203", "website": "https://stadtrad.hamburg.de"}}, {"type": "node", "id": 3683152002, "lat": 53.7046288, "lon": 10.0087265, "tags": {"amenity": "bicycle_rental", "bicycle_rental": "docking_station", "brand": "nextbike", "capacity": "10", "capacity:cargo_bike": "1", "capacity:description": "9 feste Plätze für Standardbikes + 1 freier Platz für ein Lastenpedelec ..", "check_date": "2024-01-05", "network": "nextbike", "operator": "nextbike GmbH", "ref": "4721", "website": "https://www.nextbike.de"}}, {"type": "node", "id": 3683385298, "lat": 53.5408426, "lon": 10.005987, "tags": {"amenity": "bicycle_rental", "bicycle_rental": "docking_station", "brand": "StadtRAD Hamburg", "brand:wikidata": "Q2326366", "brand:wikipedia": "de:StadtRAD Hamburg", "capacity": "12", "check_date": "2024-04-25", "name": "U HafenCity Universität / Versmannstraße", "network": "stadtradhamburg", "network:wikidata": "Q2326366", "network:wikipedia": "de:StadtRAD Hamburg", "operator": "Deutsche Bahn Connect GmbH", "operator:wikidata": "Q1152100", "operator:wikipedia": "de:Deutsche Bahn Connect", "ref": "24005", "website": "https://stadtrad.hamburg.de"}}, {"type": "node", "id": 3728281829, "lat": 53.4596418, "lon": 9.9511079, "tags": {"amenity": "bicycle_rental", "bicycle_rental": "docking_station", "brand": "Stadtrad Hamburg", "capacity": "16", "check_date": "2024-02-10", "name": "Eißendorfer Pferdeweg / Asklepios-Klinik Harburg", "network": "stadtradhamburg", "operator": "Deutsche Bahn Connect GmbH", "ref": "26701", "website": "https://stadtrad.hamburg.de"}}, {"type": "node", "id": 3730234807, "lat": 53.5607697, "lon": 10.0525311, "tags": {"amenity": "bicycle_rental", "bicycle_rental": "docking_station", "brand": "StadtRAD Hamburg", "capacity": "12", "check_date": "2024-04-27", "name": "Sievekingsallee / Sievekingdamm", "network": "stadtradhamburg", "operator": "Deutsche Bahn Connect GmbH", "ref": "23701", "website": "https://stadtrad.hamburg.de"}}, {"type": "node", "id": 3754474025, "lat": 53.5937529, "lon": 10.0504313, "tags": {"amenity": "bicycle_rental", "bicycle_rental": "docking_station", "brand": "StadtRAD Hamburg", "capacity": "16", "check_date": "2024-03-30", "name": "U Habichtstraße / Steilshooper Straße", "network": "stadtradhamburg", "operator": "Deutsche Bahn Connect GmbH", "ref": "20901", "website": "https://stadtrad.hamburg.de"}}, {"type": "node", "id": 3763197357, "lat": 53.5940652, "lon": 9.9735925, "tags": {"amenity": "bicycle_rental", "bicycle_rental": "docking_station", "brand": "StadtRAD Hamburg", "capacity": "22", "check_date": "2024-04-25", "name": "Süderfeldstraße / Universitätsklinikum Eppendorf", "network": "stadtradhamburg", "operator": "Deutsche Bahn Connect GmbH", "phone": "+49 40 822188100", "ref": "20600", "website": "https://stadtrad.hamburg.de"}}, {"type": "node", "id": 3792671367, "lat": 53.5712228, "lon": 9.977724, "tags": {"amenity": "bicycle_rental", "bicycle_rental": "docking_station", "brand": "StadtRAD Hamburg", "brand:wikidata": "Q2326366", "brand:wikipedia": "de:StadtRAD Hamburg", "capacity": "16", "check_date": "2024-05-16", "name": "Bogenstraße / Grindelallee", "network": "stadtradhamburg", "network:wikidata": "Q2326366", "network:wikipedia": "de:StadtRAD Hamburg", "operator": "Deutsche Bahn Connect GmbH", "operator:wikidata": "Q1152100", "operator:wikipedia": "de:Deutsche Bahn Connect", "ref": "29900", "website": "https://stadtrad.hamburg.de"}}, {"type": "node", "id": 3801695514, "lat": 53.5808184, "lon": 10.0258062, "tags": {"amenity": "bicycle_rental", "bicycle_rental": "docking_station", "brand": "StadtRAD Hamburg", "capacity": "16", "capacity:cargo_bike": "1", "check_date": "2024-03-30", "name": "Weidestraße / Johannes-Prassek-Park", "network": "stadtradhamburg", "operator": "Deutsche Bahn Connect GmbH", "ref": "21101", "website": "https://stadtrad.hamburg.de"}}, {"type": "node", "id": 3808221412, "lat": 53.6207755, "lon": 10.0325465, "tags": {"amenity": "bicycle_rental", "bicycle_rental": "docking_station", "brand": "StadtRAD Hamburg", "capacity": "20", "check_date": "2024-02-25", "name": "S+U Ohlsdorf / Alsterdorfer Straße", "network": "stadtradhamburg", "operator": "Deutsche Bahn Connect", "ref": "20501", "website": "https://stadtrad.hamburg.de"}}, {"type": "node", "id": 3808221422, "lat": 53.6487629, "lon": 10.0163774, "tags": {"amenity": "bicycle_rental", "bicycle_rental": "docking_station", "brand": "StadtRAD Hamburg", "capacity": "23", "check_date": "2024-03-02", "name": "U Langenhorn Markt / Tangstedter Landstraße", "network": "stadtradhamburg", "operator": "Deutsche Bahn Connect GmbH", "ref": "20101", "website": "https://stadtrad.hamburg.de"}}, {"type": "node", "id": 3822302649, "lat": 53.5604926, "lon": 9.8875229, "tags": {"amenity": "bicycle_rental", "bicycle_rental": "docking_station", "brand": "StadtRAD Hamburg", "capacity": "16", "check_date": "2024-06-12", "name": "S Othmarschen / Beselerplatz", "network": "stadtradhamburg", "operator": "Deutsche Bahn Connect GmbH", "ref": "28300", "website": "https://stadtrad.hamburg.de"}}, {"type": "node", "id": 3834134120, "lat": 53.5764197, "lon": 9.9931072, "tags": {"amenity": "bicycle_rental", "bicycle_rental": "docking_station", "brand": "StadtRAD Hamburg", "capacity": "16", "check_date": "2024-05-16", "name": "Mittelweg / Sophienterrasse", "network": "stadtradhamburg", "operator": "Deutsche Bahn Connect GmbH", "ref": "29806", "website": "https://stadtrad.hamburg.de"}}, {"type": "node", "id": 3834633297, "lat": 53.6543026, "lon": 9.9852987, "tags": {"amenity": "bicycle_rental", "brand": "StadtRAD Hamburg", "capacity": "16", "check_date": "2024-01-05", "name": "Hugo-Kirchberg-Straße / Tesa", "network": "stadtradhamburg", "operator": "Deutsche Bahn Connect GmbH", "ref": "20100", "website": "https://stadtrad.hamburg.de"}}, {"type": "node", "id": 3854338498, "lat": 53.5855098, "lon": 10.0654035, "tags": {"amenity": "bicycle_rental", "bicycle_rental": "docking_station", "brand": "StadtRAD Hamburg", "capacity": "16", "check_date": "2024-03-30", "name": "U Alter Teichweg / Nordschleswiger Straße", "network": "stadtradhamburg", "operator": "Deutsche Bahn Connect GmbH", "ref": "21200", "start_date": "2015-12", "website": "https://stadtrad.hamburg.de"}}, {"type": "node", "id": 3937197354, "lat": 53.547643, "lon": 10.0955884, "tags": {"amenity": "bicycle_rental", "bicycle_rental": "docking_station", "brand": "StadtRAD Hamburg", "capacity": "17", "check_date": "2024-05-04", "name": "U Legienstraße / Riedweg", "network": "stadtradhamburg", "operator": "Deutsche Bahn Connect GmbH", "ref": "23802", "website": "https://stadtrad.hamburg.de"}}, {"type": "node", "id": 3944986781, "lat": 53.5591866, "lon": 10.1074791, "tags": {"amenity": "bicycle_rental", "bicycle_rental": "docking_station", "brand": "StadtRAD Hamburg", "capacity": "12", "check_date": "2024-05-04", "name": "Manshardtstraße / Einkaufszentrum Manshardtstraße", "network": "stadtradhamburg", "note": "2024-05-04: nur teilweise nutzbar wegen der großflächigen U4-Bauarbeiten ..", "operator": "Deutsche Bahn Connect GmbH", "ref": "23801", "website": "https://stadtrad.hamburg.de"}}, {"type": "node", "id": 3974732322, "lat": 53.6000607, "lon": 9.9640322, "tags": {"amenity": "bicycle_rental", "bicycle_rental": "docking_station", "brand": "StadtRAD Hamburg", "capacity": "16", "check_date": "2024-04-18", "name": "Siemersplatz / Kollaustraße", "network": "stadtradhamburg", "operator": "Deutsche Bahn Connect GmbH", "ref": "29500", "website": "https://stadtrad.hamburg.de"}}, {"type": "node", "id": 3976794114, "lat": 53.5558636, "lon": 9.9508842, "tags": {"amenity": "bicycle_rental", "bicycle_rental": "docking_station", "brand": "StadtRAD Hamburg", "capacity": "24", "capacity:cargo_bike": "1", "check_date": "2024-04-16", "name": "Holstenstraße / Thadenstraße", "network": "stadtradhamburg", "operator": "Deutsche Bahn Connect GmbH", "ref": "29001", "website": "https://stadtrad.hamburg.de"}}, {"type": "node", "id": 3984342354, "lat": 53.559875, "lon": 10.0616625, "tags": {"amenity": "bicycle_rental", "bicycle_rental": "docking_station", "brand": "StadtRAD Hamburg", "capacity": "18", "check_date": "2024-04-27", "name": "Caspar-Voght-Straße / Sievekingsallee", "network": "stadtradhamburg", "operator": "Deutsche Bahn Connect GmbH", "ref": "23702", "website": "https://stadtrad.hamburg.de"}}, {"type": "node", "id": 3986972994, "lat": 53.6092439, "lon": 10.0229478, "tags": {"amenity": "bicycle_rental", "bicycle_rental": "docking_station", "brand": "StadtRAD Hamburg", "capacity": "20", "check_date": "2024-05-23", "name": "U Sengelmannstraße / Djakartaweg", "network": "stadtradhamburg", "operator": "Deutsche Bahn Connect GmbH", "ref": "20801", "website": "https://stadtrad.hamburg.de"}}, {"type": "node", "id": 3999929458, "lat": 53.6122421, "lon": 10.0237905, "tags": {"amenity": "bicycle_rental", "bicycle_rental": "docking_station", "brand": "StadtRAD Hamburg", "capacity": "16", "check_date": "2024-05-23", "name": "Alsterdorfer Markt / Evangelische Stiftung", "network": "stadtradhamburg", "operator": "Deutsche Bahn Connect GmbH", "ref": "20400", "website": "https://stadtrad.hamburg.de"}}, {"type": "node", "id": 4014947526, "lat": 53.5901843, "lon": 9.9192927, "tags": {"amenity": "bicycle_rental", "bicycle_rental": "docking_station", "brand": "StadtRAD Hamburg", "capacity": "18", "check_date": "2024-04-03", "name": "S Stellingen / Randstraße", "network": "stadtradhamburg", "operator": "Deutsche Bahn Connect GmbH", "ref": "29400", "website": "https://stadtrad.hamburg.de"}}, {"type": "node", "id": 4082015353, "lat": 53.6118771, "lon": 10.0756906, "tags": {"amenity": "bicycle_rental", "bicycle_rental": "docking_station", "brand": "StadtRAD Hamburg", "capacity": "16", "capacity:cargo_bike": "1", "check_date": "2024-02-25", "name": "Herthastraße / Bramfelder Chaussee", "network": "stadtradhamburg", "operator": "Deutsche Bahn Connect GmbH", "ref": "22400", "website": "https://stadtrad.hamburg.de"}}, {"type": "node", "id": 4104596804, "lat": 53.5881822, "lon": 10.0958902, "tags": {"amenity": "bicycle_rental", "bicycle_rental": "docking_station", "brand": "StadtRAD Hamburg", "capacity": "16", "check_date": "2024-04-20", "name": "Friedrich-Ebert-Damm / Helbingtwiete", "network": "stadtradhamburg", "operator": "Deutsche Bahn Connect GmbH", "ref": "22702", "website": "https://stadtrad.hamburg.de"}}, {"type": "node", "id": 4104596805, "lat": 53.5914991, "lon": 10.1067168, "tags": {"amenity": "bicycle_rental", "bicycle_rental": "docking_station", "brand": "StadtRAD Hamburg", "capacity": "18", "check_date": "2024-04-20", "name": "Friedrich-Ebert-Damm / Charlie-Mills-Straße", "network": "stadtradhamburg", "operator": "Deutsche Bahn Connect GmbH", "ref": "22502", "website": "https://stadtrad.hamburg.de"}}, {"type": "node", "id": 4104596806, "lat": 53.6063731, "lon": 10.120232, "tags": {"amenity": "bicycle_rental", "bicycle_rental": "docking_station", "brand": "StadtRAD Hamburg", "capacity": "19", "check_date": "2024-04-13", "name": "U Farmsen / Rahlstedter Weg", "network": "stadtradhamburg", "operator": "Deutsche Bahn Connect GmbH", "ref": "22500", "service:bicycle:pump": "yes", "website": "https://stadtrad.hamburg.de"}}, {"type": "node", "id": 4154232145, "lat": 53.5807728, "lon": 9.9383586, "tags": {"amenity": "bicycle_rental", "bicycle_rental": "docking_station", "brand": "StadtRAD Hamburg", "brand:wikidata": "Q2326366", "brand:wikipedia": "de:StadtRAD Hamburg", "capacity": "24", "check_date": "2024-04-03", "name": "Langenfelder Damm / Müggenkampstraße", "network": "stadtradhamburg", "network:wikidata": "Q2326366", "network:wikipedia": "de:StadtRAD Hamburg", "operator": "Deutsche Bahn Connect GmbH", "operator:wikidata": "Q1152100", "operator:wikipedia": "de:Deutsche Bahn Connect", "ref": "29401", "website": "https://stadtrad.hamburg.de"}}, {"type": "node", "id": 4172849981, "lat": 53.5716373, "lon": 9.8624, "tags": {"amenity": "bicycle_rental", "bicycle_rental": "docking_station", "brand": "StadtRAD Hamburg", "capacity": "12", "check_date": "2024-06-12", "name": "Osdorfer Landstraße / Elbe-Einkaufszentrum", "network": "stadtradhamburg", "operator": "Deutsche Bahn Connect GmbH", "ref": "28100", "website": "https://stadtrad.hamburg.de"}}, {"type": "node", "id": 4180986831, "lat": 53.6234735, "lon": 10.0121218, "tags": {"amenity": "bicycle_rental", "bicycle_rental": "docking_station", "brand": "StadtRAD Hamburg", "capacity": "16", "check_date": "2024-05-23", "name": "Röntgenstraße / Philips", "network": "stadtradhamburg", "operator": "Deutsche Bahn Connect GmbH", "ref": "20500", "website": "https://stadtrad.hamburg.de"}}, {"type": "node", "id": 4180986832, "lat": 53.6062042, "lon": 10.0121461, "tags": {"amenity": "bicycle_rental", "bicycle_rental": "docking_station", "brand": "StadtRAD Hamburg", "capacity": "16", "check_date": "2024-05-23", "name": "U Alsterdorf / Hindenburgstraße", "network": "stadtradhamburg", "operator": "Deutsche Bahn Connect GmbH", "ref": "20800", "website": "https://stadtrad.hamburg.de"}}, {"type": "node", "id": 4182172178, "lat": 53.4900982, "lon": 10.1584208, "tags": {"amenity": "bicycle_rental", "bicycle_rental": "docking_station", "brand": "StadtRAD Hamburg", "capacity": "16", "check_date": "2023-06-10", "name": "S Allermöhe / Walter-Rudolphi-Weg", "network": "stadtradhamburg", "operator": "Deutsche Bahn Connect GmbH", "ref": "25500", "website": "https://stadtrad.hamburg.de"}}, {"type": "node", "id": 4185823625, "lat": 53.4945964, "lon": 10.206896, "tags": {"amenity": "bicycle_rental", "bicycle_rental": "docking_station", "brand": "StadtRAD Hamburg", "brand:wikidata": "Q2326366", "brand:wikipedia": "de:StadtRAD Hamburg", "capacity": "16", "check_date": "2023-06-10", "name": "Lohbrügger Markt/Ludwig-Rosenberg-Ring", "network": "stadtradhamburg", "network:wikidata": "Q2326366", "network:wikipedia": "de:StadtRAD Hamburg", "operator": "Deutsche Bahn Connect GmbH", "operator:wikidata": "Q1152100", "operator:wikipedia": "de:Deutsche Bahn Connect", "ref": "25200", "website": "https://stadtrad.hamburg.de"}}, {"type": "node", "id": 4185823626, "lat": 53.4905093, "lon": 10.2060921, "tags": {"amenity": "bicycle_rental", "bicycle_rental": "docking_station", "brand": "StadtRAD Hamburg", "brand:wikidata": "Q2326366", "brand:wikipedia": "de:StadtRAD Hamburg", "capacity": "26", "capacity:cargo_bike": "1", "check_date": "2023-06-10", "name": "Bahnhof Bergedorf / Johann-Meyer-Straße", "network": "StadtRAD Hamburg", "network:wikidata": "Q2326366", "network:wikipedia": "de:StadtRAD Hamburg", "operator": "Deutsche Bahn Connect", "operator:wikidata": "Q1152100", "operator:wikipedia": "de:Deutsche Bahn Connect", "ref": "25201", "website": "https://stadtrad.hamburg.de"}}, {"type": "node", "id": 4185823627, "lat": 53.4883277, "lon": 10.2109268, "tags": {"amenity": "bicycle_rental", "bicycle_rental": "docking_station", "brand": "StadtRAD Hamburg", "brand:wikidata": "Q2326366", "brand:wikipedia": "de:StadtRAD Hamburg", "capacity": "24", "check_date": "2023-06-10", "name": "Vierlandenstraße / Johann-Adolf-Hasse-Platz", "network": "stadtradhamburg", "network:wikidata": "Q2326366", "network:wikipedia": "de:StadtRAD Hamburg", "operator": "Deutsche Bahn Connect GmbH", "operator:wikidata": "Q1152100", "operator:wikipedia": "de:Deutsche Bahn Connect", "ref": "25701", "website": "https://stadtrad.hamburg.de"}}, {"type": "node", "id": 4185823628, "lat": 53.4874297, "lon": 10.2199235, "tags": {"amenity": "bicycle_rental", "bicycle_rental": "docking_station", "brand": "StadtRAD Hamburg", "brand:wikidata": "Q2326366", "brand:wikipedia": "de:StadtRAD Hamburg", "capacity": "18", "check_date": "2023-06-10", "name": "Wentorfer Straße / Bezirksamt Bergedorf", "network": "stadtradhamburg", "network:wikidata": "Q2326366", "network:wikipedia": "de:StadtRAD Hamburg", "operator": "Deutsche Bahn Connect GmbH", "operator:wikidata": "Q1152100", "operator:wikipedia": "de:Deutsche Bahn Connect", "ref": "25702", "website": "https://stadtrad.hamburg.de"}}, {"type": "node", "id": 4185823629, "lat": 53.4884427, "lon": 10.1822519, "tags": {"amenity": "bicycle_rental", "bicycle_rental": "docking_station", "brand": "StadtRAD Hamburg", "capacity": "16", "check_date": "2023-06-10", "name": "S Nettelnburg / Friedrich-Frank-Bogen", "network": "stadtradhamburg", "operator": "Deutsche Bahn Connect GmbH", "ref": "25700", "website": "https://stadtrad.hamburg.de"}}, {"type": "node", "id": 4194104219, "lat": 53.5438466, "lon": 9.9424946, "tags": {"amenity": "bicycle_rental", "bicycle_rental": "docking_station", "brand": "StadtRAD Hamburg", "capacity": "18", "check_date": "2024-04-30", "name": "Van-der-Smissen-Straße / Große Elbstraße", "network": "stadtradhamburg", "note": ".. bisher immer noch mit alter vierstelliger Referenznummer sowie anderer Bedienkonsolenbauform ..", "operator": "Deutsche Bahn Connect GmbH", "ref": "2117", "website": "https://stadtrad.hamburg.de"}}, {"type": "node", "id": 4207375921, "lat": 53.5400801, "lon": 10.1061928, "tags": {"amenity": "bicycle_rental", "bicycle_rental": "docking_station", "brand": "StadtRAD Hamburg", "capacity": "16", "check_date": "2024-05-04", "name": "Billstedter Platz / Öjendorfer Weg", "network": "stadtradhamburg", "operator": "Deutsche Bahn Connect GmbH", "ref": "23900", "website": "https://stadtrad.hamburg.de"}}, {"type": "node", "id": 4221459279, "lat": 53.5893066, "lon": 9.9645014, "tags": {"amenity": "bicycle_rental", "bicycle_rental": "docking_station", "brand": "StadtRAD Hamburg", "capacity": "14", "check_date": "2024-04-18", "name": "Grandweg / Veilchenweg", "network": "stadtradhamburg", "operator": "Deutsche Bahn Connect GmbH", "ref": "29503", "website": "https://stadtrad.hamburg.de"}}, {"type": "node", "id": 4241611840, "lat": 53.5475373, "lon": 9.8613995, "tags": {"amenity": "bicycle_rental", "bicycle_rental": "docking_station", "brand": "StadtRAD Hamburg", "capacity": "18", "check_date": "2024-06-12", "name": "Elbchaussee / Teufelsbrück", "network": "stadtradhamburg", "operator": "Deutsche Bahn Connect GmbH", "ref": "28500", "website": "https://stadtrad.hamburg.de"}}, {"type": "node", "id": 4349053150, "lat": 53.5980386, "lon": 10.1013751, "tags": {"amenity": "bicycle_rental", "bicycle_rental": "docking_station", "brand": "StadtRAD Hamburg", "capacity": "16", "check_date": "2024-04-13", "name": "U Trabrennbahn / Traberweg", "network": "stadtradhamburg", "operator": "Deutsche Bahn Connect GmbH", "ref": "22501", "service:bicycle:pump": "yes", "website": "https://stadtrad.hamburg.de"}}, {"type": "node", "id": 4349068769, "lat": 53.6101334, "lon": 10.0583885, "tags": {"amenity": "bicycle_rental", "bicycle_rental": "docking_station", "brand": "StadtRAD Hamburg", "brand:wikidata": "Q2326366", "capacity": "16", "check_date": "2024-02-25", "name": "Gründgensstraße / César-Klein-Ring", "network": "StadtRAD Hamburg", "network:wikidata": "Q2326366", "operator": "Deutsche Bahn Connect", "operator:wikidata": "Q1152100", "ref": "22300", "service:bicycle:pump": "yes", "website": "https://stadtrad.hamburg.de"}}, {"type": "node", "id": 4561592890, "lat": 53.566078, "lon": 9.9107328, "tags": {"amenity": "bicycle_rental", "bicycle_rental": "docking_station", "brand": "StadtRAD Hamburg", "capacity": "16", "check_date": "2024-02-01", "name": "Bahrenfelder Chaussee / Von-Sauer-Straße", "network": "stadtradhamburg", "operator": "Deutsche Bahn Connect GmbH", "ref": "28202", "ref:callabike": "264821", "website": "https://stadtrad.hamburg.de"}}, {"type": "node", "id": 4676328327, "lat": 53.6190579, "lon": 9.9512992, "tags": {"amenity": "bicycle_rental", "bicycle_rental": "docking_station", "brand": "StadtRAD Hamburg", "capacity": "16", "capacity:cargo_bike": "1", "check_date": "2024-01-20", "name": "U Niendorf Markt / Tibarg", "network": "stadtradhamburg", "operator": "Deutsche Bahn Connect GmbH", "ref": "29201", "website": "https://stadtrad.hamburg.de"}}, {"type": "node", "id": 4888454521, "lat": 53.5713804, "lon": 9.9533198, "tags": {"amenity": "bicycle_rental", "bicycle_rental": "docking_station", "brand": "StadtRAD Hamburg", "capacity": "17", "check_date": "2024-04-10", "name": "U Emilienstraße / Fruchtallee", "network": "stadtradhamburg", "operator": "Deutsche Bahn Connect GmbH", "ref": "29609", "website": "https://stadtrad.hamburg.de"}}, {"type": "node", "id": 4888466823, "lat": 53.5759384, "lon": 9.9523876, "tags": {"amenity": "bicycle_rental", "bicycle_rental": "docking_station", "brand": "StadtRAD Hamburg", "brand:wikidata": "Q2326366", "brand:wikipedia": "de:StadtRAD Hamburg", "capacity": "15", "capacity:cargo": "1", "capacity:description": "14 schwere Standardfahrräder + 1 Lastenpedelec", "check_date": "2024-04-10", "level": "0", "name": "U Osterstraße / Heußweg", "network": "stadtradhamburg", "network:wikidata": "Q2326366", "network:wikipedia": "de:StadtRAD Hamburg", "opening_hours": "24/7", "operator": "Deutsche Bahn Connect GmbH", "operator:wikidata": "Q1152100", "operator:wikipedia": "de:Deutsche Bahn Connect", "ref": "29602", "website": "https://stadtrad.hamburg.de"}}, {"type": "node", "id": 5018581280, "lat": 53.5659359, "lon": 10.0191888, "tags": {"amenity": "bicycle_rental", "bicycle_rental": "docking_station", "brand": "StadtRAD Hamburg", "capacity": "15", "check_date": "2024-06-01", "name": "Mundsburger Brücke / Papenhuder Straße", "network": "stadtradhamburg", "operator": "Deutsche Bahn Connect GmbH", "ref": "21004", "website": "https://stadtrad.hamburg.de"}}, {"type": "node", "id": 5107424668, "lat": 53.5820249, "lon": 9.987606, "tags": {"amenity": "bicycle_rental", "bicycle_rental": "docking_station", "brand": "StadtRAD Hamburg", "capacity": "19", "capacity:cargo_bike": "1", "check_date": "2024-05-16", "name": "U Klosterstern / Eppendorfer Baum", "network": "stadtradhamburg", "operator": "Deutsche Bahn Connect GmbH", "ref": "29801", "website": "https://stadtrad.hamburg.de"}}, {"type": "node", "id": 5139465939, "lat": 53.5567909, "lon": 10.0200424, "tags": {"amenity": "bicycle_rental", "bicycle_rental": "dropoff_point", "operator": "Motel One"}}, {"type": "node", "id": 5325398339, "lat": 53.5513209, "lon": 9.9130394, "tags": {"amenity": "bicycle_rental", "bicycle_rental": "dropoff_point", "brand": "StadtRAD Hamburg", "capacity": "unknown", "capacity:description": "keine expliziten Stellplatzsäulen vorhanden, außerdem ist keine klassische Bedienkonsole existent ..", "check_date": "2024-04-07", "name": "Bleickenallee / Kinderkrankenhaus Altona", "network": "stadtradhamburg", "operator": "Deutsche Bahn Connect GmbH", "ref": "28702", "website": "https://stadtrad.hamburg.de"}}, {"type": "node", "id": 5366275822, "lat": 53.5877116, "lon": 10.046259, "tags": {"amenity": "bicycle_rental", "bicycle_rental": "docking_station", "brand": "StadtRAD Hamburg", "capacity": "24", "capacity:cargo_bike": "1", "capacity:description": "Platz für 23 Standardräder und 1 Lasten-Pedelec", "check_date": "2024-03-30", "name": "Fuhlsbüttler Straße / Pestalozzistraße (Piazetta)", "network": "stadtradhamburg", "operator": "Deutsche Bahn Connect GmbH", "ref": "20904", "website": "https://stadtrad.hamburg.de"}}, {"type": "node", "id": 5499538285, "lat": 53.5749543, "lon": 9.8790089, "tags": {"amenity": "bicycle_rental", "bicycle_rental": "docking_station", "brand": "StadtRAD Hamburg", "brand:wikidata": "Q1060525", "brand:wikipedia": "de:StadtRAD Hamburg", "capacity": "12", "check_date": "2024-06-06", "name": "Notkestraße / DESY Hörsaal", "network": "stadtradhamburg", "network:wikidata": "Q1060525", "network:wikipedia": "de:StadtRAD Hamburg", "operator": "Deutsche Bahn Connect GmbH", "operator:wikidata": "Q1152100", "operator:wikipedia": "de:Deutsche Bahn Connect", "ref": "28200", "website": "https://stadtrad.hamburg.de"}}, {"type": "node", "id": 5553163491, "lat": 53.7273895, "lon": 9.9971879, "tags": {"amenity": "bicycle_rental", "bicycle_rental": "docking_station", "brand": "nextbike", "capacity": "4", "check_date": "2023-08-19", "network": "nextbike", "operator": "nextbike", "ref": "4736", "wheelchair": "yes"}}, {"type": "node", "id": 5574267062, "lat": 53.5969744, "lon": 10.0625052, "tags": {"amenity": "bicycle_rental", "bicycle_rental": "dropoff_point", "brand": "StadtRAD Hamburg", "capacity": "(unknown)", "check_date": "2024-02-25", "name": "Hellbrookkamp/ Novomind AG", "network": "stadtradhamburg", "note": ".. es gibt kein Bedienterminal und keine expliziten baulichen Stellplätze ..", "operator": "Deutsche Bahn Connect GmbH", "ref": "22402", "website": "https://stadtrad.hamburg.de"}}, {"type": "node", "id": 5600792851, "lat": 53.5781088, "lon": 9.9759273, "tags": {"amenity": "bicycle_rental", "bicycle_rental": "docking_station", "brand": "StadtRAD Hamburg", "brand:wikidata": "Q2326366", "brand:wikipedia": "de:StadtRAD Hamburg", "capacity": "19", "capacity:cargo_bike": "1", "capacity:description": "18 Standardfahrräder + 1 Lastenpedelec", "check_date": "2024-05-16", "name": "U Hoheluftbrücke / Kaiser-Friedrich-Ufer", "network": "stadtradhamburg", "network:wikidata": "Q2326366", "network:wikipedia": "de:StadtRAD Hamburg", "operator": "Deutsche Bahn Connect GmbH", "operator:wikidata": "Q1152100", "operator:wikipedia": "de:Deutsche Bahn Connect", "ref": "29802", "website": "https://stadtrad.hamburg.de"}}, {"type": "node", "id": 5629104779, "lat": 53.5039284, "lon": 9.9856912, "tags": {"amenity": "bicycle_rental", "bicycle_rental": "dropoff_point", "brand": "StadtRAD Hamburg", "check_date": "2024-01-06", "name": "Groß-Sand / Wilhelmsburger Krankenhaus", "network": "stadtradhamburg", "operator": "Deutsche Bahn Connect GmbH", "ref": "24901", "website": "https://stadtrad.hamburg.de"}}, {"type": "node", "id": 5892784115, "lat": 53.5567084, "lon": 9.9185744, "tags": {"amenity": "bicycle_rental", "bicycle_rental": "docking_station", "brand": "StadtRAD Hamburg", "capacity": "15", "capacity:cargo_bike": "1", "check_date": "2024-04-30", "name": "Hohenzollernring / Friedensallee", "network": "stadtradhamburg", "operator": "Deutsche Bahn Connect GmbH", "ref": "28700", "website": "https://stadtrad.hamburg.de"}}, {"type": "node", "id": 6014726853, "lat": 53.5648609, "lon": 10.0547169, "tags": {"amenity": "bicycle_rental", "bicycle_rental": "docking_station", "brand": "StadtRAD Hamburg", "capacity": "24", "check_date": "2024-03-30", "name": "S Hasselbrook / Papenstraße", "network": "stadtradhamburg", "operator": "Deutsche Bahn Connect GmbH", "ref": "22903", "website": "https://stadtrad.hamburg.de"}}, {"type": "node", "id": 6066219164, "lat": 53.523809, "lon": 10.0365141, "tags": {"amenity": "bicycle_rental", "bicycle_rental": "dropoff_point", "brand": "StadtRAD Hamburg", "check_date": "2024-01-06", "name": "Peutestraße / Hatraco", "network": "stadtradhamburg", "operator": "Deutsche Bahn Connect GmbH", "ref": "24802", "website": "https://stadtrad.hamburg.de"}}, {"type": "node", "id": 6232335440, "lat": 53.5486246, "lon": 9.9872591, "tags": {"amenity": "bicycle_rental", "bicycle_rental": "docking_station", "brand": "StadtRAD Hamburg", "capacity": "24", "check_date": "2024-06-07", "name": "U Rödingsmarkt / Großer Burstah", "network": "stadtradhamburg", "operator": "Deutsche Bahn Connect GmbH", "ref": "23407", "website": "https://stadtrad.hamburg.de"}}, {"type": "node", "id": 6303324389, "lat": 53.5574012, "lon": 9.9693135, "tags": {"amenity": "bicycle_rental", "bicycle_rental": "docking_station", "brand": "StadtRAD Hamburg", "capacity": "23", "capacity:cargo_bike": "1", "check_date": "2024-02-21", "name": "U Feldstraße / Marktstraße", "network": "stadtradhamburg", "operator": "Deutsche Bahn Connect GmbH", "ref": "23202", "website": "https://stadtrad.hamburg.de"}}, {"type": "node", "id": 6317819205, "lat": 53.5785982, "lon": 9.8829312, "tags": {"amenity": "bicycle_rental", "bicycle_rental": "dropoff_point", "brand": "StadtRAD Hamburg", "brand:wikidata": "Q1060525", "brand:wikipedia": "de:StadtRAD Hamburg", "check_date": "2024-06-06", "name": "Notkestraße / DESY Gebäude 25b", "network": "stadtradhamburg", "network:wikidata": "Q1060525", "network:wikipedia": "de:StadtRAD Hamburg", "operator": "Deutsche Bahn Connect GmbH", "operator:wikidata": "Q1152100", "operator:wikipedia": "de:Deutsche Bahn Connect", "ref": "28201", "website": "https://stadtrad.hamburg.de"}}, {"type": "node", "id": 6398543010, "lat": 53.6343053, "lon": 10.0060351, "tags": {"amenity": "bicycle_rental", "bicycle_rental": "docking_station", "brand": "StadtRAD Hamburg", "capacity": "12", "check_date": "2024-03-02", "covered": "yes", "level": "0", "name": "Hamburg Airport / Terminal 1", "network": "stadtradhamburg", "operator": "Deutsche Bahn Connect GmbH", "ref": "20200", "website": "https://stadtrad.hamburg.de"}}, {"type": "node", "id": 6398543593, "lat": 53.4615993, "lon": 10.0037299, "tags": {"amenity": "bicycle_rental", "bicycle_rental": "dropoff_point", "brand": "Stadtrad Hamburg", "capacity": "(unknown)", "check_date": "2024-02-10", "description": "besitzt kein Bedienterminal und keine Anschließsäulen ..", "name": "Neuländer Kamp / Eurofins", "network": "stadtradhamburg", "operator": "Deutsche Bahn Connect GmbH", "ref": "26900", "website": "https://stadtrad.hamburg.de"}}, {"type": "node", "id": 6551504764, "lat": 53.5350606, "lon": 10.0820289, "tags": {"amenity": "bicycle_rental", "bicycle_rental": "docking_station", "brand": "StadtRAD Hamburg", "capacity": "12", "check_date": "2024-05-04", "description": "StadtRAD-Station besitzt keine Bedienkonsole ..", "display": "no", "name": "Liebigstraße / Wöhlerstraße", "network": "stadtradhamburg", "operator": "Deutsche Bahn Connect GmbH", "ref": "24300", "website": "https://stadtrad.hamburg.de"}}, {"type": "node", "id": 6611781820, "lat": 53.5263826, "lon": 10.0925985, "tags": {"amenity": "bicycle_rental", "bicycle_rental": "docking_station", "brand": "StadtRAD Hamburg", "capacity": "12", "check_date": "2024-05-04", "description": "StadtRAD-Station besitzt keine Bedienkonsole ..", "display": "no", "name": "Moorfleeter Straße / Pinkertweg", "network": "stadtradhamburg", "operator": "Deutsche Bahn Connect GmbH", "ref": "24303", "website": "https://stadtrad.hamburg.de"}}, {"type": "node", "id": 6611786344, "lat": 53.5307627, "lon": 10.1062913, "tags": {"amenity": "bicycle_rental", "bicycle_rental": "docking_station", "brand": "StadtRAD Hamburg", "capacity": "12", "check_date": "2024-05-04", "description": "StadtRAD-Station besitzt keine Bedienkonsole ..", "display": "no", "name": "Liebigstraße / Berzeliusstraße", "network": "stadtradhamburg", "operator": "Deutsche Bahn Connect GmbH", "ref": "24301", "website": "https://stadtrad.hamburg.de"}}, {"type": "node", "id": 6636958052, "lat": 53.5449722, "lon": 10.0368414, "tags": {"amenity": "bicycle_rental", "bicycle_rental": "docking_station", "brand": "StadtRAD Hamburg", "brand:wikidata": "Q2326366", "brand:wikipedia": "de:Call a Bike", "capacity": "16", "check_date": "2024-04-27", "name": "Bullerdeich / Stadtreinigung Hamburg", "network": "stadtradhamburg", "network:wikidata": "Q2326366", "network:wikipedia": "de:Call a Bike", "operator": "Deutsche Bahn Connect GmbH", "operator:wikidata": "Q1152100", "operator:wikipedia": "de:Deutsche Bahn Connect", "ref": "24103", "website": "https://stadtrad.hamburg.de"}}, {"type": "node", "id": 6691352816, "lat": 53.4949306, "lon": 9.9905454, "tags": {"amenity": "bicycle_rental", "bicycle_rental": "dropoff_point", "brand": "StadtRAD Hamburg", "check_date": "2024-01-06", "name": "Georg-Wilhelm-Straße / Mankiewicz", "network": "stadtradhamburg", "operator": "Deutsche Bahn Connect GmbH", "ref": "24905"}}, {"type": "node", "id": 6844818789, "lat": 53.5507266, "lon": 9.9971667, "tags": {"amenity": "bicycle_rental", "bicycle_rental": "docking_station", "brand": "StadtRAD Hamburg", "brand:wikidata": "Q2326366", "capacity": "14", "check_date": "2023-06-22", "name": "U Rathaus / Mönckebergstraße", "network": "stadtradhamburg", "network:wikidata": "Q2326366", "operator": "Deutsche Bahn Connect GmbH", "operator:wikidata": "Q1152100", "ref": "23404", "website": "https://stadtrad.hamburg.de"}}, {"type": "node", "id": 6902250613, "lat": 53.5819601, "lon": 10.0681152, "tags": {"amenity": "bicycle_rental", "app_operated": "yes", "bicycle_rental": "docking_station", "brand": "StadtRAD Hamburg", "capacity": "12", "check_date": "2024-03-30", "display_operated": "no", "name": "U Straßburger Straße / Nordschleswiger Straße", "network": "stadtradhamburg", "note": "Es ist keine klassische Bedienkonsole vorhanden ...", "operator": "Deutsche Bahn Connect GmbH", "ref": "21202", "start_date": "2019-10", "website": "https://stadtrad.hamburg.de"}}, {"type": "node", "id": 7001040675, "lat": 53.6332965, "lon": 9.9064895, "tags": {"amenity": "bicycle_rental", "bicycle_rental": "docking_station", "brand": "StadtRAD Hamburg", "capacity": "12", "check_date": "2024-01-20", "display": "no", "name": "AKN Schnelsen / Pinneberger Straße", "network": "stadtradhamburg", "note": "Stadtradstation besitzt keine der anderswo üblichen Bedienkonsolen ..", "operator": "Deutsche Bahn Connect GmbH", "ref": "29203", "website": "https://stadtrad.hamburg.de"}}, {"type": "node", "id": 7007231651, "lat": 53.6205596, "lon": 9.9449209, "tags": {"amenity": "bicycle_rental", "bicycle_rental": "docking_station", "brand": "StadtRAD Hamburg", "capacity": "9", "check_date": "2024-01-20", "display": "no", "name": "Max-Zelck-Straße / Haus der Kirche", "network": "stadtradhamburg", "note": "Stadtradstation besitzt keine der anderswo üblichen Bedienkonsolen ..", "operator": "Deutsche Bahn Connect GmbH", "ref": "29202", "website": "https://stadtrad.hamburg.de"}}, {"type": "node", "id": 7044578385, "lat": 53.5598418, "lon": 9.9489917, "tags": {"addr:city": "Hamburg", "addr:housenumber": "167", "addr:postcode": "22765", "addr:street": "Holstenstraße", "amenity": "bicycle_rental", "bicycle_rental": "shop", "brand": "Swapfiets", "brand:wikidata": "Q62104374", "name": "Swapfiets", "network": "Swapfiets", "network:wikidata": "Q62104374", "opening_hours": "Mo-Fr 10:00-19:00; Sa 11:00-18:00", "operator": "Swapfiets", "operator:wikidata": "Q62104374", "shop": "rental", "wheelchair": "yes"}}, {"type": "node", "id": 7258416520, "lat": 53.5593708, "lon": 9.9375924, "tags": {"amenity": "bicycle_rental", "bicycle_rental": "docking_station", "brand": "StadtRAD Hamburg", "capacity": "16", "capacity:cargo_bike": "1", "capacity:description": "15 Standardfahrräder + 1 Lastenpedelec", "check_date": "2024-04-16", "name": "Felicitas-Kukuck-Straße / Lille Torv", "network": "stadtradhamburg", "opening_hours": "24/7", "operator": "Deutsche Bahn Connect GmbH", "ref": "28803", "website": "https://stadtrad.hamburg.de"}}, {"type": "node", "id": 7400938319, "lat": 53.5735007, "lon": 9.892888, "tags": {"amenity": "bicycle_rental", "bicycle_rental": "docking_station", "brand": "StadtRAD Hamburg", "brand:wikidata": "Q2326366", "brand:wikipedia": "de:StadtRAD Hamburg", "capacity": "12", "check_date": "2024-06-12", "name": "Luruper Chaussee / Ebertallee", "network": "stadtradhamburg", "network:wikidata": "Q2326366", "network:wikipedia": "de:StadtRAD Hamburg", "note": "Stadtrad-Station besitzt keine der sonst üblichen Bedienkonsolen ..", "operator": "Deutsche Bahn Connect GmbH", "operator:wikidata": "Q1152100", "operator:wikipedia": "de:Deutsche Bahn Connect", "ref": "28204", "website": "https://stadtrad.hamburg.de"}}, {"type": "node", "id": 7487253803, "lat": 53.6028918, "lon": 9.893393, "tags": {"amenity": "bicycle_rental", "bicycle_rental": "docking_station", "brand": "StadtRAD Hamburg", "capacity": "12", "check_date": "2024-05-31", "display": "no", "name": "S Elbgaustraße / Weidplan", "network": "stadtradhamburg", "note": "Stadtradstation besitzt keine der anderswo üblichen Bedienkonsolen ..", "operator": "Deutsche Bahn Connect GmbH", "ref": "27700", "website": "https://stadtrad.hamburg.de"}}, {"type": "node", "id": 7561054469, "lat": 53.6034697, "lon": 9.9449726, "tags": {"amenity": "bicycle_rental", "bicycle_rental": "docking_station", "brand": "StadtRAD Hamburg", "capacity": "12", "check_date": "2024-04-18", "display": "no", "name": "U Hagendeel / Hinter der Lieth", "network": "stadtradhamburg", "note": "Stadtradstation besitzt keine der anderswo üblichen Bedienkonsolen ..", "operator": "Deutsche Bahn Connect GmbH", "ref": "29505", "website": "https://stadtrad.hamburg.de"}}, {"type": "node", "id": 7566472908, "lat": 53.6094987, "lon": 9.9004975, "tags": {"amenity": "bicycle_rental", "bicycle_rental": "docking_station", "brand": "StadtRAD Hamburg", "capacity": "15", "check_date": "2024-05-31", "display": "no", "name": "AKN Eidelstedt Zentrum / Johann-Schmidt-Straße", "network": "stadtradhamburg", "note": "Stadtradstation besitzt keine der anderswo üblichen Bedienkonsolen ..", "operator": "Deutsche Bahn Connect GmbH", "ref": "29101", "website": "https://stadtrad.hamburg.de"}}, {"type": "node", "id": 7597478103, "lat": 53.5385744, "lon": 10.122345, "tags": {"amenity": "bicycle_rental", "bicycle_rental": "docking_station", "brand": "StadtRAD Hamburg", "brand:wikidata": "Q2326366", "capacity": "12", "check_date": "2024-05-04", "description": "Stadtradstation besitzt keine der anderswo üblichen Bedienkonsolen ..", "display": "no", "name": "U Merkenstraße / Möllner Landstraße", "network": "StadtRAD Hamburg", "network:wikidata": "Q2326366", "operator": "Deutsche Bahn Connect", "operator:wikidata": "Q1152100", "ref": "23901", "website": "https://stadtrad.hamburg.de"}}, {"type": "node", "id": 7597491327, "lat": 53.5283601, "lon": 10.150073, "tags": {"amenity": "bicycle_rental", "bicycle_rental": "docking_station", "brand": "StadtRAD Hamburg", "brand:wikidata": "Q2326366", "capacity": "12", "check_date": "2024-05-04", "description": "Stadtradstation besitzt keine der anderswo üblichen Bedienkonsolen ..", "display": "no", "name": "U Mümmelmannsberg / Kandinskyallee", "network": "StadtRAD Hamburg", "network:wikidata": "Q2326366", "operator": "Deutsche Bahn Connect", "operator:wikidata": "Q1152100", "ref": "23902", "website": "https://stadtrad.hamburg.de"}}, {"type": "node", "id": 7634084462, "lat": 53.6408902, "lon": 9.9500899, "tags": {"amenity": "bicycle_rental", "bicycle_rental": "docking_station", "brand": "StadtRAD Hamburg", "capacity": "16", "check_date": "2024-01-20", "description": "Die Abstellflächen befinden sich einige Meter östlich und westlich ..", "name": "U Niendorf-Nord / Nordalbingerweg", "network": "stadtradhamburg", "operator": "Deutsche Bahn Connect GmbH", "ref": "29200", "website": "https://stadtrad.hamburg.de"}}, {"type": "node", "id": 7638134743, "lat": 53.5223865, "lon": 10.0315696, "tags": {"amenity": "bicycle_rental", "bicycle_rental": "docking_station", "brand": "Stadtrad Hamburg", "brand:wikidata": "Q2326366", "brand:wikipedia": "de:StadtRAD Hamburg", "capacity": "6", "check_date": "2022-01-15", "name": "Hovestraße / Aurubis", "network": "stadtradhamburg", "network:wikidata": "Q2326366", "network:wikipedia": "de:StadtRAD Hamburg", "operator": "Deutsche Bahn Connect GmbH", "operator:wikidata": "Q1152100", "operator:wikipedia": "de:Deutsche Bahn Connect", "ref": "24803", "wheelchair": "yes"}}, {"type": "node", "id": 7647336031, "lat": 53.5351785, "lon": 10.0243952, "tags": {"amenity": "bicycle_rental", "bicycle_rental": "docking_station", "brand": "StadtRAD Hamburg", "brand:wikidata": "Q2326366", "brand:wikipedia": "de:StadtRAD Hamburg", "capacity": "20", "check_date": "2024-04-25", "name": "S+U Elbbrücken / Versmannstraße", "network": "stadtradhamburg", "network:wikidata": "Q2326366", "network:wikipedia": "de:StadtRAD Hamburg", "operator": "Deutsche Bahn Connect GmbH", "operator:wikidata": "Q1152100", "operator:wikipedia": "de:Deutsche Bahn Connect", "ref": "24006", "website": "https://stadtrad.hamburg.de"}}, {"type": "node", "id": 7714646000, "lat": 53.4846717, "lon": 10.0188245, "tags": {"amenity": "bicycle_rental", "bicycle_rental": "docking_station", "brand": "StadtRAD Hamburg", "capacity": "12", "check_date": "2024-01-06", "name": "Karl-Arnold-Ring / Dahlgrünring", "network": "stadtradhamburg", "operator": "Deutsche Bahn Connect GmbH", "ref": "24906", "website": "https://stadtrad.hamburg.de"}}, {"type": "node", "id": 7734189444, "lat": 53.5796246, "lon": 9.9323331, "tags": {"amenity": "bicycle_rental", "app_operated": "yes", "bicycle_rental": "docking_station", "brand": "StadtRAD Hamburg", "brand:wikidata": "Q2326366", "brand:wikipedia": "de:StadtRAD Hamburg", "capacity": "10", "check_date": "2024-04-03", "display_operated": "no", "name": "S Langenfelde / Försterweg", "network": "stadtradhamburg", "network:wikidata": "Q2326366", "network:wikipedia": "de:StadtRAD Hamburg", "operator": "Deutsche Bahn Connect GmbH", "operator:wikidata": "Q1152100", "operator:wikipedia": "de:Deutsche Bahn Connect", "ref": "29403", "website": "https://stadtrad.hamburg.de"}}, {"type": "node", "id": 7756513740, "lat": 53.7337261, "lon": 10.0063793, "tags": {"amenity": "bicycle_rental", "bicycle_rental": "docking_station", "brand": "nextbike", "capacity": "7", "check_date": "2023-08-19", "network": "nextbike", "operator": "nextbike", "ref": "4728"}}, {"type": "node", "id": 7794982058, "lat": 53.5441306, "lon": 10.0311224, "tags": {"amenity": "bicycle_rental", "app_operated": "yes", "bicycle_rental": "docking_station", "brand": "StadtRAD Hamburg", "brand:wikidata": "Q2326366", "brand:wikipedia": "de:StadtRAD Hamburg", "capacity": "6", "check_date": "2024-04-27", "display_operated": "no", "name": "Heidenkampsweg / R+V Versicherung", "network": "stadtradhamburg", "network:wikidata": "Q2326366", "network:wikipedia": "de:StadtRAD Hamburg", "note": "Stadtradstation besitzt kein klassisches Bedienterminal ..", "operator": "Deutsche Bahn Connect GmbH", "operator:wikidata": "Q1152100", "operator:wikipedia": "de:Deutsche Bahn Connect", "ref": "24104", "website": "https://stadtrad.hamburg.de"}}, {"type": "node", "id": 7877556609, "lat": 53.5269211, "lon": 10.0792433, "tags": {"amenity": "bicycle_rental", "bicycle_rental": "docking_station", "brand": "StadtRAD Hamburg", "capacity": "12", "check_date": "2024-05-04", "description": "StadtRAD-Station besitzt keine Bedienkonsole ..", "display": "no", "name": "Bredowstraße / Pinkertweg", "network": "stadtradhamburg", "operator": "Deutsche Bahn Connect GmbH", "ref": "24302", "website": "https://stadtrad.hamburg.de"}}, {"type": "node", "id": 7877556610, "lat": 53.5305806, "lon": 10.0652716, "tags": {"amenity": "bicycle_rental", "bicycle_rental": "docking_station", "brand": "StadtRAD Hamburg", "capacity": "6", "check_date": "2024-05-04", "description": "StadtRAD-Station besitzt keine Bedienkonsole ..", "display": "no", "name": "S Tiefstack / Ausschläger Allee", "network": "stadtradhamburg", "operator": "Deutsche Bahn Connect GmbH", "ref": "24202", "website": "https://stadtrad.hamburg.de"}}, {"type": "node", "id": 7884768262, "lat": 53.4539393, "lon": 9.982205, "tags": {"amenity": "bicycle_rental", "bicycle_rental": "docking_station", "brand": "StadtRAD Hamburg", "capacity": "16", "check_date": "2024-02-10", "display": "no", "name": "Maretstraße / Baererstraße", "network": "stadtradhamburg", "note": "Stadtradstation besitzt kein klassisches Bedienterminal ..", "operator": "Deutsche Bahn Connect GmbH", "ref": "26807", "website": "https://stadtrad.hamburg.de"}}, {"type": "node", "id": 7884768263, "lat": 53.4545534, "lon": 9.9653976, "tags": {"amenity": "bicycle_rental", "bicycle_rental": "docking_station", "brand": "StadtRAD Hamburg", "capacity": "16", "check_date": "2024-02-10", "display": "no", "name": "Göhlbachtal / Berufliche Schule Harburg", "network": "stadtradhamburg", "note": ".. besitzt kein klassisches Bedienterminal ..", "operator": "Deutsche Bahn Connect GmbH", "ref": "25801", "website": "https://stadtrad.hamburg.de"}}, {"type": "node", "id": 7914059820, "lat": 53.6205927, "lon": 9.9970114, "tags": {"amenity": "bicycle_rental", "bicycle_rental": "docking_station", "brand": "StadtRAD Hamburg", "capacity": "25", "check_date": "2024-05-23", "description": "Stadtradstation besitzt keine der anderswo üblichen Bedienkonsolen ..", "display": "no", "name": "Weg beim Jäger / Lufthansa 2", "network": "stadtradhamburg", "operator": "Deutsche Bahn Connect GmbH", "ref": "20201", "website": "https://stadtrad.hamburg.de"}}, {"type": "node", "id": 7914091818, "lat": 53.6066362, "lon": 9.9042667, "tags": {"amenity": "bicycle_rental", "bicycle_rental": "docking_station", "brand": "StadtRAD Hamburg", "capacity": "16", "check_date": "2024-05-31", "display": "no", "name": "Eidelstedt-Center / Elbgaustraße", "network": "stadtradhamburg", "note": "Stadtradstation besitzt keine der anderswo üblichen Bedienkonsolen .. Die Anzahl der Stellplätze ist nicht mehr klar zu ermitteln, die meisten der Säulen haben kein Haltekabel mehr ..", "operator": "Deutsche Bahn Connect GmbH", "ref": "27702", "website": "https://stadtrad.hamburg.de"}}, {"type": "node", "id": 7921426764, "lat": 53.6038241, "lon": 10.0196649, "tags": {"amenity": "bicycle_rental", "bicycle_rental": "docking_station", "brand": "StadtRAD Hamburg", "brand:wikidata": "Q2326366", "capacity": "21", "check_date": "2023-05-09", "description": "Station besitzt kein Bedienterminal ..", "name": "Überseering / New-York-Ring", "network": "StadtRAD Hamburg", "network:wikidata": "Q2326366", "operator": "Deutsche Bahn Connect", "operator:wikidata": "Q1152100", "ref": "20812", "website": "https://stadtrad.hamburg.de"}}, {"type": "node", "id": 7924279610, "lat": 53.60436, "lon": 10.1546019, "tags": {"amenity": "bicycle_rental", "bicycle_rental": "docking_station", "brand": "StadtRAD Hamburg", "capacity": "16", "check_date": "2024-04-20", "name": "Bahnhof Rahlstedt / Helmut-Steidl-Platz", "network": "stadtradhamburg", "operator": "Deutsche Bahn Connect GmbH", "ref": "21700", "website": "https://stadtrad.hamburg.de"}}, {"type": "node", "id": 7929068096, "lat": 53.5544344, "lon": 9.9007536, "tags": {"amenity": "bicycle_rental", "bicycle_rental": "dropoff_point", "brand": "StadtRAD Hamburg", "capacity": "unknown", "capacity:description": "keine expliziten Stellplatzsäulen vorhanden, außerdem ist keine klassische Bedienkonsole existent ..", "check_date": "2024-04-30", "name": "Paul-Ehrlich-Straße / Asklepios-Klinik Altona", "network": "stadtradhamburg", "operator": "Deutsche Bahn Connect GmbH", "ref": "28600", "website": "https://stadtrad.hamburg.de"}}, {"type": "node", "id": 7932637898, "lat": 53.6184362, "lon": 10.1261799, "tags": {"amenity": "bicycle_rental", "bicycle_rental": "docking_station", "brand": "StadtRAD Hamburg", "capacity": "16", "check_date": "2024-04-13", "display": "no", "name": "U Oldenfelde / Busbrookhöhe", "network": "stadtradhamburg", "note": "Station besitzt kein Bedienterminal ..", "operator": "Deutsche Bahn Connect GmbH", "ref": "22503", "website": "https://stadtrad.hamburg.de"}}, {"type": "node", "id": 7935331576, "lat": 53.6266838, "lon": 10.0852574, "tags": {"amenity": "bicycle_rental", "bicycle_rental": "docking_station", "brand": "StadtRAD Hamburg", "capacity": "12", "check_date": "2024-02-25", "display": "no", "name": "Bramfelder Chaussee / Maisredder", "network": "stadtradhamburg", "operator": "Deutsche Bahn Connect GmbH", "ref": "22403", "website": "https://stadtrad.hamburg.de"}}, {"type": "node", "id": 8048056968, "lat": 53.5443346, "lon": 10.0068637, "tags": {"amenity": "bicycle_rental", "bicycle_rental": "docking_station", "brand": "StadtRAD Hamburg", "capacity": "16", "capacity:cargo_bike": "1", "check_date": "2024-04-25", "name": "Oberhafenquartier Nord / Oberhafenbrücke", "network": "stadtradhamburg", "operator": "Deutsche Bahn Connect GmbH", "ref": "24010", "website": "https://stadtrad.hamburg.de"}}, {"type": "node", "id": 8048056969, "lat": 53.5439994, "lon": 10.0037483, "tags": {"amenity": "bicycle_rental", "app_operated": "yes", "bicycle_rental": "docking_station", "brand": "StadtRAD Hamburg", "capacity": "16", "check_date": "2024-04-25", "display_operated": "no", "name": "Stockmeyerstraße / Am Lohsepark", "network": "stadtradhamburg", "operator": "Deutsche Bahn Connect GmbH", "ref": "24009", "website": "https://stadtrad.hamburg.de"}}, {"type": "node", "id": 8064065950, "lat": 53.6855864, "lon": 10.0233033, "tags": {"amenity": "bicycle_rental", "bicycle_rental": "docking_station", "brand": "nextbike", "capacity": "4", "check_date": "2024-01-05", "network": "nextbike", "operator": "nextbike GmbH", "ref": "4737", "website": "https://www.nextbike.de"}}, {"type": "node", "id": 8064117416, "lat": 53.6823951, "lon": 9.998494, "tags": {"amenity": "bicycle_rental", "bicycle_rental": "docking_station", "brand": "nextbike", "capacity": "11", "capacity:cargo_bike": "1", "capacity:description": "10 feste Plätze für Standardbikes + 1 freier Platz für ein Lastenpedelec ..", "check_date": "2024-01-05", "network": "nextbike", "operator": "nextbike", "postal_code": "22848", "ref": "4731", "website": "https://www.nextbike.de"}}, {"type": "node", "id": 8082661715, "lat": 53.7320173, "lon": 9.9047756, "tags": {"amenity": "bicycle_rental", "bicycle_rental": "docking_station", "network": "nextbike"}}, {"type": "node", "id": 8117564446, "lat": 53.6051276, "lon": 9.9829769, "tags": {"amenity": "bicycle_rental", "bicycle_rental": "docking_station", "brand": "StadtRAD Hamburg", "capacity": "12", "check_date": "2024-05-23", "description": "Stadtradstation besitzt keine der anderswo üblichen Bedienkonsolen ..", "display": "no", "name": "Borsteler Chaussee / Alphapark", "network": "stadtradhamburg", "operator": "Deutsche Bahn Connect GmbH", "ref": "27900", "website": "https://stadtrad.hamburg.de"}}, {"type": "node", "id": 8120336256, "lat": 53.5399955, "lon": 10.0134942, "tags": {"amenity": "bicycle_rental", "app_operated": "yes", "bicycle_rental": "docking_station", "brand": "StadtRAD Hamburg", "capacity": "12", "check_date": "2024-04-25", "display_operated": "no", "name": "Versmannstraße / Gerda-Gmelin Platz", "network": "stadtradhamburg", "operator": "Deutsche Bahn Connect GmbH", "ref": "24011", "website": "https://stadtrad.hamburg.de"}}, {"type": "node", "id": 8122091315, "lat": 53.5457861, "lon": 10.003034, "tags": {"amenity": "bicycle_rental", "app_operated": "yes", "bicycle_rental": "docking_station", "brand": "StadtRAD Hamburg", "capacity": "16", "check_date": "2024-04-25", "display_operated": "no", "name": "Oberbaumbrücke / Ericusspitze", "network": "stadtradhamburg", "operator": "Deutsche Bahn Connect GmbH", "ref": "24008", "website": "https://stadtrad.hamburg.de"}}, {"type": "node", "id": 8151806474, "lat": 53.5868473, "lon": 10.0569194, "tags": {"amenity": "bicycle_rental", "bicycle_rental": "docking_station", "brand": "StadtRAD Hamburg", "capacity": "16", "check_date": "2024-03-30", "display": "no", "name": "Lämmersieth / Wachtelstraße", "network": "stadtradhamburg", "operator": "Deutsche Bahn Connect GmbH", "ref": "20905", "website": "https://stadtrad.hamburg.de"}}, {"type": "node", "id": 8151806475, "lat": 53.5827523, "lon": 10.0466016, "tags": {"amenity": "bicycle_rental", "app_operated": "yes", "bicycle_rental": "docking_station", "brand": "Stadtrad Hamburg", "capacity": "13", "check_date": "2024-03-30", "display_operated": "no", "name": "Bramfelder Straße / Pfennigsbusch", "network": "stadtradhamburg", "operator": "Deutsche Bahn Connect GmbH", "ref": "21109", "website": "https://stadtrad.hamburg.de", "wheelchair": "yes"}}, {"type": "node", "id": 8246019483, "lat": 53.586482, "lon": 10.1249863, "tags": {"amenity": "bicycle_rental", "bicycle_rental": "docking_station", "brand": "StadtRAD Hamburg", "capacity": "16", "check_date": "2024-04-20", "display": "no", "name": "Tonndorfer Hauptstraße / Sonnenweg", "network": "stadtradhamburg", "note": ".. es gibt kein klassisches Bedienterminal ..", "operator": "Deutsche Bahn Connect GmbH", "ref": "21801", "website": "https://stadtrad.hamburg.de"}}, {"type": "node", "id": 8246019484, "lat": 53.5705962, "lon": 10.1050374, "tags": {"amenity": "bicycle_rental", "bicycle_rental": "docking_station", "brand": "StadtRAD Hamburg", "capacity": "16", "check_date": "2024-03-24", "display": "no", "name": "Universität der Bundeswehr / Rodigallee", "network": "stadtradhamburg", "note": "Diese Station besitzt keine klassische Bedienkonsole, aber feste Anschließsäulen ..", "operator": "Deutsche Bahn Connect GmbH", "ref": "21900", "website": "https://stadtrad.hamburg.de"}}, {"type": "node", "id": 8246019485, "lat": 53.5707977, "lon": 10.1361752, "tags": {"amenity": "bicycle_rental", "bicycle_rental": "docking_station", "brand": "StadtRAD Hamburg", "capacity": "18", "check_date": "2024-03-24", "display": "no", "name": "Barsbütteler Straße / Öjendorfer Damm", "network": "stadtradhamburg", "note": "Station besitzt kein klassisches Bedienterminal ..", "operator": "Deutsche Bahn Connect GmbH", "ref": "22002", "website": "https://stadtrad.hamburg.de"}}, {"type": "node", "id": 8246047934, "lat": 53.5919389, "lon": 10.0751039, "tags": {"amenity": "bicycle_rental", "bicycle_rental": "docking_station", "brand": "StadtRAD Hamburg", "capacity": "24", "check_date": "2024-04-20", "display": "no", "name": "U Wandsbek-Gartenstadt / Ostpreußenplatz", "network": "stadtradhamburg", "note": ".. es gibt kein klassisches Bedienterminal ..", "operator": "Deutsche Bahn Connect GmbH", "ref": "22700", "website": "https://stadtrad.hamburg.de"}}, {"type": "node", "id": 8246047935, "lat": 53.6015334, "lon": 10.0627048, "tags": {"amenity": "bicycle_rental", "bicycle_rental": "docking_station", "brand": "StadtRAD Hamburg", "capacity": "16", "check_date": "2024-02-25", "display": "no", "name": "Fabriciusstraße / Buschrosenweg", "network": "stadtradhamburg", "note": ".. es gibt kein klassisches Bedienterminal ..", "operator": "Deutsche Bahn Connect GmbH", "ref": "22404", "website": "https://stadtrad.hamburg.de"}}, {"type": "node", "id": 8358925124, "lat": 53.5782912, "lon": 10.0460054, "tags": {"amenity": "bicycle_rental", "bicycle_rental": "docking_station", "brand": "StadtRAD Hamburg", "capacity": "20", "capacity:cargo_bike": "1", "check_date": "2024-03-30", "name": "Von-Essen-Straße / Dehnhaide", "network": "stadtradhamburg", "operator": "Deutsche Bahn Connect GmbH", "ref": "21108", "website": "https://stadtrad.hamburg.de"}}, {"type": "node", "id": 8406449889, "lat": 53.7030748, "lon": 9.9798614, "tags": {"amenity": "bicycle_rental", "bicycle_rental": "docking_station", "brand": "nextbike", "capacity": "11", "capacity:cargo_bike": "1", "capacity:description": "10 feste Plätze für Standardbikes + 1 freier Platz für ein Lastenpedelec ..", "check_date": "2024-01-05", "network": "nextbike", "operator": "nextbike GmbH", "ref": "4729", "website": "https://www.nextbike.de"}}, {"type": "node", "id": 8406449890, "lat": 53.7159267, "lon": 9.9999444, "tags": {"amenity": "bicycle_rental", "bicycle_rental": "docking_station", "brand": "nextbike", "capacity": "9", "capacity:cargo_bike": "1", "capacity:description": "8 feste Plätze für Standardbikes + 1 freier Platz für ein Lastenpedelec ..", "check_date": "2024-01-05", "network": "nextbike", "operator": "nextbike GmbH", "ref": "4730", "website": "https://www.nextbike.de"}}, {"type": "node", "id": 8406562957, "lat": 53.6816914, "lon": 9.9795878, "tags": {"amenity": "bicycle_rental", "bicycle_rental": "docking_station", "brand": "nextbike", "capacity": "9", "capacity:cargo_bike": "1", "capacity:description": "8 feste Plätze für Standardbikes + 1 freier Platz für ein Lastenpedelec ..", "check_date": "2024-01-05", "network": "nextbike", "operator": "nextbike GmbH", "ref": "4734", "service:bicycle:pump": "yes", "website": "https://www.nextbike.de"}}, {"type": "node", "id": 8485931898, "lat": 53.5625959, "lon": 9.9410519, "tags": {"addr:city": "Hamburg", "addr:housenumber": "18", "addr:postcode": "22765", "addr:street": "Glückel-von-Hameln-Straße", "amenity": "bicycle_rental", "bicycle_rental": "shop", "check_date": "2023-09-24", "description": "In Mitte Altona können E-Lastenräder und ein elektrisch angetriebener Anhänger rund um die Uhr ausgeliehen werden.", "name": "Mobilstation Mitte Altona", "opening_hours": "Mo,Su off; Tu,Th-Sa 10:00-14:00,15:00-19:00; We 10:00-14:00,15:00-16:00", "operator": "Quartiersmanagement Mitte Altona & cambio", "shop": "rental", "website": "https://mitte-altona.info/mobilstation-mitte-altona/", "wheelchair": "yes"}}, {"type": "node", "id": 8688629968, "lat": 53.5362423, "lon": 9.8776873, "tags": {"amenity": "bicycle_rental", "bicycle_rental": "docking_station", "brand": "Stadtrad Hamburg", "capacity": "24", "check_date": "2024-01-27", "display": "no", "name": "Fähranleger Finkenwerder / Butendeichsweg", "network": "stadtradhamburg", "note": ".. es gibt kein klassisches Bedienterminal ..", "operator": "Deutsche Bahn Connect GmbH", "ref": "27005", "website": "https://stadtrad.hamburg.de"}}, {"type": "node", "id": 8724669692, "lat": 53.6898027, "lon": 9.9997521, "tags": {"amenity": "bicycle_rental", "bicycle_rental": "docking_station", "capacity": "8", "check_date": "2024-01-05", "network": "nextbike", "operator": "nextbike GmbH", "ref": "4727", "website": "https://www.nextbike.de"}}, {"type": "node", "id": 8773675203, "lat": 53.60756, "lon": 9.9787516, "tags": {"amenity": "bicycle_rental", "bicycle_rental": "docking_station", "brand": "StadtRAD Hamburg", "capacity": "16", "check_date": "2024-05-23", "description": "Stadtradstation besitzt keine der anderswo üblichen Bedienkonsolen ..", "display": "no", "name": "Borsteler Chaussee / Köppenstraße", "network": "stadtradhamburg", "operator": "Deutsche Bahn Connect GmbH", "ref": "27901", "website": "https://stadtrad.hamburg.de"}}, {"type": "node", "id": 8916282408, "lat": 53.5778586, "lon": 10.1179254, "tags": {"amenity": "bicycle_rental", "bicycle_rental": "docking_station", "brand": "StadtRAD Hamburg", "capacity": "12", "check_date": "2024-03-24", "display": "no", "name": "Kuehnstraße / Albert-Schweitzer-Ring", "network": "stadtradhamburg", "note": "Station besitzt kein klassisches Bedienterminal ..", "operator": "Deutsche Bahn Connect GmbH", "ref": "21802", "website": "https://stadtrad.hamburg.de"}}, {"type": "node", "id": 8996254625, "lat": 53.6403095, "lon": 10.0838584, "tags": {"amenity": "bicycle_rental", "bicycle_rental": "docking_station", "brand": "StadtRAD Hamburg", "brand:wikidata": "Q2326366", "brand:wikipedia": "de:StadtRAD Hamburg", "capacity": "14", "check_date": "2024-02-17", "name": "S Wellingsbüttel / Rolfinckstraße", "network": "stadtradhamburg", "network:wikidata": "Q2326366", "network:wikipedia": "de:StadtRAD Hamburg", "operator": "Deutsche Bahn Connect GmbH", "operator:wikidata": "Q1152100", "operator:wikipedia": "de:Deutsche Bahn Connect", "ref": "23400", "website": "https://stadtrad.hamburg.de"}}, {"type": "node", "id": 9039034249, "lat": 53.5173842, "lon": 10.1686245, "tags": {"amenity": "bicycle_rental", "bicycle_rental": "docking_station", "brand": "StadtRAD Hamburg", "capacity": "12", "check_date": "2023-06-10", "name": "Heidhorst / Bockhorster Weg", "network": "stadtradhamburg", "note": "Stadtradstation besitzt keins der klassischen Bedienterminals, stattdessen nur ein ödes Schild ..", "operator": "Deutsche Bahn Connect GmbH", "ref": "25203", "website": "https://stadtrad.hamburg.de"}}, {"type": "node", "id": 9039034250, "lat": 53.5078842, "lon": 10.1800735, "tags": {"amenity": "bicycle_rental", "bicycle_rental": "docking_station", "brand": "StadtRAD Hamburg", "capacity": "12", "check_date": "2023-06-10", "name": "Lohbrügger Landstraße / BG Klinikum", "network": "stadtradhamburg", "note": "Stadtradstation besitzt keins der klassischen Bedienterminals, stattdessen nur ein ödes Schild ..", "operator": "Deutsche Bahn Connect GmbH", "ref": "25204", "website": "https://stadtrad.hamburg.de"}}, {"type": "node", "id": 9039034251, "lat": 53.5102816, "lon": 10.2075353, "tags": {"amenity": "bicycle_rental", "bicycle_rental": "docking_station", "brand": "StadtRAD Hamburg", "capacity": "12", "capacity:cargo_bike": "1", "check_date": "2023-06-10", "name": "Korachstraße / Helmuth-Hübener-Weg", "network": "stadtradhamburg", "operator": "Deutsche Bahn Connect GmbH", "ref": "25205", "website": "https://stadtrad.hamburg.de"}}, {"type": "node", "id": 9039034252, "lat": 53.4865374, "lon": 10.2343722, "tags": {"amenity": "bicycle_rental", "bicycle_rental": "docking_station", "brand": "StadtRAD Hamburg", "capacity": "12", "check_date": "2023-06-10", "display": "no", "name": "Glindersweg / Bethesda-Krankenhaus", "network": "stadtradhamburg", "operator": "Deutsche Bahn Connect GmbH", "ref": "25703", "website": "https://stadtrad.hamburg.de"}}, {"type": "node", "id": 9067050389, "lat": 53.6050374, "lon": 10.0299856, "tags": {"amenity": "bicycle_rental", "bicycle_rental": "docking_station", "brand": "StadtRAD Hamburg", "brand:wikidata": "Q2326366", "brand:wikipedia": "de:StadtRAD Hamburg", "capacity": "16", "capacity:cargo_bike": "1", "check_date": "2024-03-30", "name": "Winterlindenweg / Loki-Schmidt-Platz", "network": "StadtRAD Hamburg", "network:wikidata": "Q2326366", "network:wikipedia": "de:StadtRAD Hamburg", "operator": "Deutsche Bahn Connect", "operator:wikidata": "Q1152100", "operator:wikipedia": "de:Deutsche Bahn Connect", "ref": "20814", "website": "https://stadtrad.hamburg.de"}}, {"type": "node", "id": 9074431349, "lat": 53.6034274, "lon": 9.9728333, "tags": {"amenity": "bicycle_rental", "bicycle_rental": "docking_station", "brand": "StadtRAD Hamburg", "capacity": "12", "check_date": "2024-05-23", "description": "Stadtradstation besitzt keine der anderswo üblichen Bedienkonsolen ..", "display": "no", "name": "Gert-Marcus-Straße / Anni-Glissmann-Weg", "network": "stadtradhamburg", "operator": "Deutsche Bahn Connect GmbH", "ref": "27902", "website": "https://stadtrad.hamburg.de"}}, {"type": "node", "id": 9074474335, "lat": 53.573976, "lon": 10.0081406, "tags": {"amenity": "bicycle_rental", "bicycle_rental": "docking_station", "brand": "StadtRAD Hamburg", "capacity": "10", "check_date": "2024-06-01", "description": "Stadtradstation besitzt keine der anderswo üblichen Bedienkonsolen ..", "display": "no", "name": "Schöne Aussicht / Karlstraße", "network": "stadtradhamburg", "operator": "Deutsche Bahn Connect GmbH", "ref": "21006", "website": "https://stadtrad.hamburg.de"}}, {"type": "node", "id": 9106108141, "lat": 53.5673876, "lon": 10.0009387, "tags": {"amenity": "bicycle_rental", "bicycle_rental": "docking_station", "brand": "StadtRAD Hamburg", "capacity": "16", "check_date": "2024-05-16", "name": "Harvestehuder Weg / Alte Rabenstraße", "network": "stadtradhamburg", "operator": "Deutsche Bahn Connect GmbH", "ref": "29905", "website": "https://stadtrad.hamburg.de"}}, {"type": "node", "id": 9156266852, "lat": 53.5758186, "lon": 9.8151858, "tags": {"amenity": "bicycle_rental", "bicycle_rental": "docking_station", "brand": "StadtRAD Hamburg", "capacity": "16", "check_date": "2024-06-08", "display": "no", "name": "S Iserbrook / Heidrehmen", "network": "stadtradhamburg", "note": "Stadtrad-Station besitzt keine der sonst üblichen Bedienkonsolen ..", "operator": "Deutsche Bahn Connect GmbH", "ref": "29300", "website": "https://stadtrad.hamburg.de"}}, {"type": "node", "id": 9156285917, "lat": 53.5615411, "lon": 9.9390469, "tags": {"amenity": "bicycle_rental", "bicycle_rental": "docking_station", "brand": "StadtRAD Hamburg", "capacity": "11", "check_date": "2024-04-16", "name": "Mariannenruh-Platz / Eva-Rühmkorf-Straße", "network": "stadtradhamburg", "note": "Stadtrad-Station besitzt keine der sonst üblichen Bedienkonsolen ..", "operator": "Deutsche Bahn Connect GmbH", "ref": "28804", "website": "https://stadtrad.hamburg.de"}}, {"type": "node", "id": 9175489689, "lat": 53.5365715, "lon": 10.0222966, "tags": {"amenity": "bicycle_rental", "app_operated": "yes", "bicycle_rental": "docking_station", "brand": "StadtRAD Hamburg", "capacity": "14", "check_date": "2024-04-25", "display_operated": "no", "name": "Amerigo-Vespucci-Platz / Baakenwerder Straße", "network": "stadtradhamburg", "operator": "Deutsche Bahn Connect GmbH", "ref": "24012", "website": "https://stadtrad.hamburg.de"}}, {"type": "node", "id": 9327945763, "lat": 53.5874787, "lon": 9.903633, "tags": {"amenity": "bicycle_rental", "bicycle_rental": "docking_station", "brand": "StadtRAD Hamburg", "capacity": "20", "check_date": "2024-04-18", "name": "Volksparkstadion / Sylvesterallee", "network": "stadtradhamburg", "note": "Stadtradstation besitzt keine der anderswo üblichen Bedienkonsolen ..", "operator": "Deutsche Bahn Connect GmbH", "ref": "28205", "website": "https://stadtrad.hamburg.de"}}, {"type": "node", "id": 9395391225, "lat": 53.6345593, "lon": 9.9526068, "tags": {"amenity": "bicycle_rental", "bicycle_rental": "docking_station", "brand": "StadtRAD Hamburg", "capacity": "12", "check_date": "2024-01-20", "name": "U Schippelsweg / Paul-Sorge-Straße", "network": "stadtradhamburg", "operator": "Deutsche Bahn Connect GmbH", "ref": "29204", "website": "https://stadtrad.hamburg.de"}}, {"type": "node", "id": 9401034817, "lat": 53.5395351, "lon": 9.8630123, "tags": {"amenity": "bicycle_rental", "bicycle_rental": "docking_station", "brand": "Stadtrad Hamburg", "capacity": "16", "check_date": "2024-01-27", "display": "no", "name": "Fähre Rüschpark / Heinrich-Saß-Weg", "network": "stadtradhamburg", "note": ".. es gibt kein klassisches Bedienterminal ..", "operator": "Deutsche Bahn Connect GmbH", "ref": "27006", "website": "https://stadtrad.hamburg.de"}}, {"type": "node", "id": 9452366369, "lat": 53.5639362, "lon": 10.04602, "tags": {"amenity": "bicycle_rental", "bicycle_rental": "docking_station", "brand": "StadtRAD Hamburg", "brand:wikidata": "Q2326366", "brand:wikipedia": "de:StadtRAD Hamburg", "capacity": "12", "check_date": "2024-03-30", "name": "Hasselbrookstraße / Ritterstraße", "network": "stadtradhamburg", "network:wikidata": "Q2326366", "network:wikipedia": "de:StadtRAD Hamburg", "operator": "Deutsche Bahn Connect", "operator:wikidata": "Q1152100", "operator:wikipedia": "de:Deutsche Bahn Connect", "ref": "22902", "website": "https://stadtrad.hamburg.de"}}, {"type": "node", "id": 9471121578, "lat": 53.473788, "lon": 9.8537497, "tags": {"amenity": "bicycle_rental", "bicycle_rental": "docking_station", "brand": "StadtRAD Hamburg", "brand:wikidata": "Q2326366", "brand:wikipedia": "de:StadtRAD Hamburg", "capacity": "26", "check_date": "2024-02-03", "display": "no", "name": "S Neugraben / Am Neugrabener Bahnhof", "network": "stadtradhamburg", "network:wikidata": "Q2326366", "network:wikipedia": "de:StadtRAD Hamburg", "operator": "Deutsche Bahn Connect GmbH", "operator:wikidata": "Q1152100", "operator:wikipedia": "de:Deutsche Bahn Connect", "ref": "26402"}}, {"type": "node", "id": 9553115403, "lat": 53.5791143, "lon": 10.0643712, "tags": {"amenity": "bicycle_rental", "bicycle_rental": "docking_station", "brand": "StadtRAD Hamburg", "capacity": "15", "capacity:cargo_bike": "1", "check_date": "2024-04-20", "name": "Elsässer Straße / Stormarner Straße", "network": "stadtradhamburg", "operator": "Deutsche Bahn Connect GmbH", "ref": "21203", "website": "https://stadtrad.hamburg.de"}}, {"type": "node", "id": 9573671705, "lat": 53.5586352, "lon": 9.9486708, "tags": {"amenity": "bicycle_rental", "bicycle_rental": "docking_station", "brand": "StadtRAD Hamburg", "capacity": "16", "check_date": "2024-04-16", "name": "Holstenstraße / Max-Brauer-Allee", "network": "stadtradhamburg", "operator": "Deutsche Bahn Connect GmbH", "ref": "28805", "website": "https://stadtrad.hamburg.de"}}, {"type": "node", "id": 9576528225, "lat": 53.6611437, "lon": 10.0172817, "tags": {"amenity": "bicycle_rental", "bicycle_rental": "docking_station", "brand": "StadtRAD Hamburg", "capacity": "12", "check_date": "2024-03-02", "name": "U Langenhorn Nord / Foorthkamp", "network": "stadtradhamburg", "operator": "Deutsche Bahn Connect GmbH", "ref": "20103", "website": "https://stadtrad.hamburg.de"}}, {"type": "node", "id": 9590413497, "lat": 53.4828816, "lon": 10.1765398, "tags": {"amenity": "bicycle_rental", "bicycle_rental": "docking_station", "brand": "StadtRAD Hamburg", "capacity": "12", "capacity:cargo_bike": "1", "check_date": "2023-06-10", "name": "Henriette-Herz-Ring / Grachtenplatz", "network": "stadtradhamburg", "note": "Stadtradstation trägt derzeit noch keine Referenznummer ..", "operator": "Deutsche Bahn Connect GmbH", "website": "https://stadtrad.hamburg.de"}}, {"type": "node", "id": 9678572782, "lat": 53.4788921, "lon": 10.1691529, "tags": {"amenity": "bicycle_rental", "bicycle_rental": "docking_station", "brand": "StadtRAD Hamburg", "capacity": "12", "check_date": "2023-06-10", "display": "no", "name": "Fanny-Lewald-Ring", "network": "stadtradhamburg", "note": "Stadtradstation besitzt keins der klassischen Bedienterminals, stattdessen nur ein Schild ..", "operator": "Deutsche Bahn Connect GmbH", "ref": "25501", "website": "https://stadtrad.hamburg.de"}}, {"type": "node", "id": 9732949482, "lat": 53.6039972, "lon": 10.0312192, "tags": {"access": "private", "amenity": "bicycle_rental", "brand": "mobilport", "indoor": "yes", "operator": "Quartiersmanagement Pergolenviertel", "operator:type": "government", "ref:addr": "Winterlindenweg 32, 22297 Hamburg"}}, {"type": "node", "id": 9883713757, "lat": 53.620848, "lon": 10.0308562, "tags": {"amenity": "bicycle_rental", "bicycle_rental": "docking_station", "brand": "StadtRAD Hamburg", "capacity": "12", "check_date": "2024-02-17", "name": "S+U Ohlsdorf / Im Grünen Grunde", "network": "stadtradhamburg", "operator": "Deutsche Bahn Connect GmbH", "ref": "20502", "website": "https://stadtrad.hamburg.de"}}, {"type": "node", "id": 9925575297, "lat": 53.6372779, "lon": 9.9220075, "tags": {"amenity": "bicycle_rental", "bicycle_rental": "docking_station", "brand": "StadtRAD Hamburg", "capacity": "12", "check_date": "2024-01-20", "display": "no", "name": "Modering / Oldesloer Straße", "network": "stadtradhamburg", "note": "Stadtradstation besitzt keine der anderswo üblichen Bedienkonsolen ..", "operator": "Deutsche Bahn Connect GmbH", "ref": "29205", "website": "https://stadtrad.hamburg.de"}}, {"type": "node", "id": 9925580559, "lat": 53.6788572, "lon": 10.00067, "tags": {"amenity": "bicycle_rental", "bicycle_rental": "docking_station", "brand": "StadtRAD Hamburg", "capacity": "12", "check_date": "2024-03-02", "description": "Stadtradstation besitzt keine der anderswo üblichen Bedienkonsolen ..", "display": "no", "name": "U Ochsenzoll / Langenhorner Chaussee", "network": "stadtradhamburg", "operator": "Deutsche Bahn Connect GmbH", "ref": "20102", "website": "https://stadtrad.hamburg.de"}}, {"type": "node", "id": 10049582235, "lat": 53.4963784, "lon": 10.1830441, "tags": {"amenity": "bicycle_rental", "brand": "StadtRAD Hamburg", "capacity": "12", "check_date": "2023-06-10", "name": "Billwerder Billdeich / TSG Sportforum", "network": "stadtradhamburg", "operator": "Deutsche Bahn Connect GmbH", "ref": "25704", "website": "https://stadtrad.hamburg.de"}}, {"type": "node", "id": 10275673228, "lat": 53.7126584, "lon": 9.9902615, "tags": {"amenity": "bicycle_rental", "bicycle_rental": "docking_station", "capacity": "6", "check_date": "2024-01-05", "fee": "yes", "operator": "nextbike", "operator:type": "community", "payment:app": "yes", "ref": "4718"}}, {"type": "node", "id": 10302846798, "lat": 53.5973197, "lon": 10.0359872, "tags": {"amenity": "bicycle_rental", "bicycle_rental": "docking_station", "brand": "StadtRAD Hamburg", "brand:wikidata": "Q2326366", "brand:wikipedia": "de:StadtRAD Hamburg", "capacity": "22", "check_date": "2023-05-09", "name": "S Alte Wöhr / Rübenkamp", "network": "StadtRAD Hamburg", "network:wikidata": "Q2326366", "network:wikipedia": "de:StadtRAD Hamburg", "note": ".. es gibt keine klassische Bedienkonsole ..", "operator": "Deutsche Bahn Connect", "operator:wikidata": "Q1152100", "operator:wikipedia": "de:Deutsche Bahn Connect", "ref": "20906", "website": "https://stadtrad.hamburg.de"}}, {"type": "node", "id": 10681533873, "lat": 53.5377583, "lon": 10.0120049, "tags": {"amenity": "bicycle_rental", "app_operated": "yes", "bicycle_rental": "docking_station", "brand": "StadtRAD Hamburg", "capacity": "12", "check_date": "2024-04-25", "display_operated": "no", "name": "Baakenallee / Lola-Rogge-Platz", "network": "stadtradhamburg", "operator": "Deutsche Bahn Connect GmbH", "ref": "24013", "website": "https://stadtrad.hamburg.de"}}, {"type": "node", "id": 10698228009, "lat": 53.4658728, "lon": 9.9892196, "tags": {"amenity": "bicycle_rental", "bicycle_rental": "docking_station", "brand": "StadtRAD Hamburg", "capacity": "16", "check_date": "2024-02-10", "name": "Veritaskai / Theodor-Yorck-Straße", "network": "stadtradhamburg", "operator": "Deutsche Bahn Connect GmbH", "ref": "26801", "website": "https://stadtrad.hamburg.de"}}, {"type": "node", "id": 10733701194, "lat": 53.6288363, "lon": 9.9500198, "tags": {"amenity": "bicycle_rental", "bicycle_rental": "docking_station", "brand": "StadtRAD Hamburg", "capacity": "12", "check_date": "2024-01-20", "name": "U Joachim-Mähl-Straße / Paul-Sorge-Straße", "network": "stadtradhamburg", "operator": "Deutsche Bahn Connect GmbH", "ref": "29206", "website": "https://stadtrad.hamburg.de"}}, {"type": "node", "id": 10749545839, "lat": 53.6867365, "lon": 10.046057, "tags": {"amenity": "bicycle_rental", "bicycle_rental": "docking_station", "brand": "nextbike", "capacity": "11", "capacity:cargo_bike": "1", "capacity:description": "10 feste Plätze für Standardbikes + 1 freier Platz für ein Lastenpedelec ..", "check_date": "2024-01-05", "network": "nextbike", "operator": "nextbike GmbH", "ref": "4735", "website": "https://www.nextbike.de"}}, {"type": "node", "id": 10782730571, "lat": 53.6324913, "lon": 10.0548794, "tags": {"amenity": "bicycle_rental", "bicycle_rental": "docking_station", "brand": "StadtRAD Hamburg", "capacity": "20", "check_date": "2024-02-17", "name": "S Kornweg / Tornberg", "network": "stadtradhamburg", "operator": "Deutsche Bahn Connect GmbH", "ref": "20503", "website": "https://stadtrad.hamburg.de", "wheelchair": "yes"}}, {"type": "node", "id": 10805804295, "lat": 53.5413628, "lon": 9.9666886, "tags": {"amenity": "bicycle_rental", "bicycle_rental": "docking_station", "brand": "StadtRAD Hamburg", "capacity": "24", "check_date": "2024-01-06", "name": "Hermann-Blohm-Straße / Am Elbtunnel", "network": "StadtRAD Hamburg", "operator": "Deutsche Bahn Connect GmbH", "ref": "24600", "website": "https://stadtrad.hamburg.de"}}, {"type": "node", "id": 10820348482, "lat": 53.6713214, "lon": 10.124061, "tags": {"amenity": "bicycle_rental", "bicycle_rental": "docking_station", "brand": "StadtRAD Hamburg", "capacity": "10", "check_date": "2024-03-16", "name": "Wohldorfer Damm / Bergstedter Markt", "network": "stadtradhamburg", "operator": "Deutsche Bahn Connect GmbH", "ref": "21600", "website": "https://stadtrad.hamburg.de"}}, {"type": "node", "id": 10866690469, "lat": 53.5828254, "lon": 9.9937432, "tags": {"amenity": "bicycle_rental", "bicycle_rental": "docking_station", "brand": "StadtRAD Hamburg", "capacity": "12", "check_date": "2024-05-16", "name": "Helwigstraße / St. Benedictstraße", "network": "stadtradhamburg", "operator": "Deutsche Bahn Connect GmbH", "ref": "29807", "website": "https://stadtrad.hamburg.de"}}, {"type": "node", "id": 10956663868, "lat": 53.6537109, "lon": 10.1107854, "tags": {"amenity": "bicycle_rental", "bicycle_rental": "docking_station", "brand": "StadtRAD Hamburg", "capacity": "16", "check_date": "2024-04-13", "display": "no", "name": "Saseler Markt / Stadtbahnstraße", "network": "stadtradhamburg", "operator": "Deutsche Bahn Connect GmbH", "ref": "27600", "website": "https://stadtrad.hamburg.de"}}, {"type": "node", "id": 10964338995, "lat": 53.5570088, "lon": 9.8037402, "tags": {"amenity": "bicycle_rental", "bicycle_rental": "docking_station", "brand": "StadtRAD Hamburg", "capacity": "12", "check_date": "2023-06-07", "display": "no", "name": "Strandweg / Fähre Blankenese", "network": "stadtradhamburg", "note": ".. diese StadtRAD-Station besitzt kein klassisches Bedienterminal ..", "operator": "Deutsche Bahn Connect GmbH", "ref": "21500", "website": "https://stadtrad.hamburg.de"}}, {"type": "node", "id": 10964339417, "lat": 53.5823501, "lon": 9.758437, "tags": {"amenity": "bicycle_rental", "bicycle_rental": "docking_station", "brand": "StadtRAD Hamburg", "capacity": "16", "check_date": "2024-06-08", "display": "no", "name": "S Rissen / Gudrunstraße", "network": "stadtradhamburg", "note": ".. diese StadtRAD-Station besitzt kein klassisches Bedienterminal ..", "operator": "Deutsche Bahn Connect GmbH", "ref": "27800", "website": "https://stadtrad.hamburg.de"}}, {"type": "node", "id": 10972716629, "lat": 53.4824747, "lon": 10.2217725, "tags": {"amenity": "bicycle_rental", "bicycle_rental": "docking_station", "brand": "StadtRAD Hamburg", "capacity": "9", "check_date": "2023-06-10", "display": "no", "name": "Soltaustieg / Arnoldistieg", "network": "stadtradhamburg", "operator": "Deutsche Bahn Connect GmbH", "ref": "25705", "website": "https://stadtrad.hamburg.de"}}, {"type": "node", "id": 11003409840, "lat": 53.5501539, "lon": 9.99373, "tags": {"amenity": "bicycle_rental", "bicycle_rental": "dropoff_point", "brand": "StadtRAD Hamburg", "check_date": "2023-06-22", "name": "Rathausmarkt / Mönckebergstraße", "network": "stadtradhamburg", "operator": "Deutsche Bahn Connect GmbH", "ref": "23403", "website": "https://stadtrad.hamburg.de"}}, {"type": "node", "id": 11038001567, "lat": 53.5994161, "lon": 9.9586995, "tags": {"amenity": "bicycle_rental", "bicycle_rental": "docking_station", "brand": "StadtRAD Hamburg", "capacity": "12", "check_date": "2024-04-18", "display": "no", "name": "Behrmannplatz / Grelckstraße", "network": "stadtradhamburg", "note": "StadtRAD-Station besitzt keine klassische Bedienkonsole ..", "operator": "Deutsche Bahn Connect GmbH", "ref": "29506", "website": "https://stadtrad.hamburg.de"}}, {"type": "node", "id": 11047319938, "lat": 53.5385505, "lon": 10.0082217, "tags": {"amenity": "bicycle_rental", "app_operated": "yes", "bicycle_rental": "docking_station", "brand": "StadtRAD Hamburg", "capacity": "12", "check_date": "2024-04-25", "display_operated": "no", "name": "Baakenhöft / Baakenhafenbrücke", "network": "stadtradhamburg", "operator": "Deutsche Bahn Connect GmbH", "ref": "24014", "website": "https://stadtrad.hamburg.de"}}, {"type": "node", "id": 11047332533, "lat": 53.5681767, "lon": 9.988533, "tags": {"amenity": "bicycle_rental", "app_operated": "yes", "bicycle_rental": "docking_station", "brand": "StadtRAD Hamburg", "capacity": "12", "check_date": "2024-05-16", "display_operated": "no", "name": "Rothenbaumchaussee / Binderstraße", "network": "stadtradhamburg", "operator": "Deutsche Bahn Connect GmbH", "ref": "29908", "website": "https://stadtrad.hamburg.de"}}, {"type": "node", "id": 11246972521, "lat": 53.5819894, "lon": 10.015009, "tags": {"amenity": "bicycle_rental", "bicycle_rental": "docking_station", "brand": "StadtRAD Hamburg", "capacity": "20", "check_date": "2024-03-30", "display": "no", "name": "Gertigstraße / Forsmannstraße", "network": "stadtradhamburg", "operator": "Deutsche Bahn Connect GmbH", "ref": "20813", "website": "https://stadtrad.hamburg.de"}}, {"type": "node", "id": 11327771017, "lat": 53.4662942, "lon": 9.8106169, "tags": {"amenity": "bicycle_rental", "bicycle_rental": "docking_station", "brand": "StadtRAD Hamburg", "capacity": "13", "capacity:cargo_bike": "1", "check_date": "2024-02-03", "display": "no", "name": "Im Fischbeker Heidbrook / Apfelbeerenring", "network": "stadtradhamburg", "operator": "Deutsche Bahn Connect GmbH", "ref": "26403"}}, {"type": "node", "id": 11362380439, "lat": 53.6600422, "lon": 10.0030599, "tags": {"amenity": "bicycle_rental", "bicycle_rental": "docking_station", "brand": "StadtRAD Hamburg", "brand:wikidata": "Q2326366", "capacity": "12", "check_date": "2024-03-02", "name": "Langenhorner Chaussee / Oehleckerring", "network": "stadtradhamburg", "network:wikidata": "Q2326366", "operator": "Deutsche Bahn Connect GmbH", "operator:wikidata": "Q1152100", "ref": "20108"}}, {"type": "node", "id": 11362399876, "lat": 53.6728023, "lon": 10.0038633, "tags": {"amenity": "bicycle_rental", "bicycle_rental": "dropoff_point", "brand": "StadtRAD Hamburg", "brand:wikidata": "Q2326366", "capacity": "unknown", "capacity:note": "keine festen Stellplätze vorhanden ..", "check_date": "2024-03-02", "name": "Jütlandring / Asklepios Klinik Nord-Ochsenzoll", "network": "stadtradhamburg", "network:wikidata": "Q2326366", "operator": "Deutsche Bahn Connect GmbH", "operator:wikidata": "Q1152100", "ref": "20105"}}, {"type": "node", "id": 11362453508, "lat": 53.653995, "lon": 10.09215, "tags": {"amenity": "bicycle_rental", "bicycle_rental": "docking_station", "brand": "StadtRAD Hamburg", "capacity": "13", "capacity:cargo_bike": "1", "check_date": "2024-02-17", "name": "Heegbarg / Alstertal-Einkaufszentrum", "network": "stadtradhamburg", "operator": "Deutsche Bahn Connect GmbH", "ref": "27500", "website": "https://stadtrad.hamburg.de", "wheelchair": "yes"}}, {"type": "node", "id": 11403583437, "lat": 53.5698799, "lon": 10.0905501, "tags": {"amenity": "bicycle_rental", "bicycle_rental": "dropoff_point", "brand": "StadtRAD Hamburg", "brand:wikidata": "Q2326366", "check_date": "2024-03-24", "display": "no", "name": "Alphonsstraße / Asklepios Klinik Wandsbek", "network": "stadtradhamburg", "network:wikidata": "Q2326366", "operator": "Deutsche Bahn Connect GmbH", "operator:wikidata": "Q1152100", "ref": "21901"}}, {"type": "node", "id": 11407374731, "lat": 53.4764143, "lon": 10.1962347, "tags": {"amenity": "bicycle_rental", "brand": "StadtRAD Hamburg", "brand:wikidata": "Q2326366", "name": "Randersweide / Kampweg", "network": "StadtRAD Hamburg", "network:wikidata": "Q2326366", "operator": "Deutsche Bahn Connect", "operator:wikidata": "Q1152100"}}, {"type": "node", "id": 11584394225, "lat": 53.5613946, "lon": 9.8430743, "tags": {"amenity": "bicycle_rental", "bicycle_rental": "docking_station", "brand": "StadtRAD Hamburg", "brand:wikidata": "Q2326366", "capacity": "12", "check_date": "2024-06-12", "display": "no", "name": "S Hochkamp / Reichskanzlerstraße", "network": "stadtradhamburg", "network:wikidata": "Q2326366", "operator": "Deutsche Bahn Connect GmbH", "operator:wikidata": "Q1152100", "ref": "28102", "website": "https://stadtrad.hamburg.de"}}, {"type": "node", "id": 11584465922, "lat": 53.4414526, "lon": 9.9586619, "tags": {"amenity": "bicycle_rental", "bicycle_rental": "docking_station", "brand": "StadtRAD Hamburg", "capacity": "12", "capacity:cargo_bike": "1", "check_date": "2024-02-10", "name": "Ernst-Bergeest-Weg / Binnenfeld", "network": "stadtradhamburg", "operator": "Deutsche Bahn Connect GmbH", "ref": "25901", "website": "https://stadtrad.hamburg.de"}}, {"type": "node", "id": 11584548980, "lat": 53.4737065, "lon": 9.8771113, "tags": {"amenity": "bicycle_rental", "bicycle_rental": "docking_station", "brand": "StadtRAD Hamburg", "capacity": "16", "check_date": "2024-02-03", "display": "no", "name": "S Neuwiedenthal / Striepenweg", "network": "stadtradhamburg", "operator": "Deutsche Bahn Connect GmbH", "ref": "23100"}}, {"type": "node", "id": 11663119730, "lat": 53.566925, "lon": 9.9347649, "tags": {"amenity": "bicycle_rental", "bicycle_rental": "dropoff_point", "brand": "StadtRAD Hamburg", "brand:wikidata": "Q2326366", "check_date": "2024-02-28", "name": "S Diebsteich / Plöner Straße", "network": "StadtRAD Hamburg", "network:wikidata": "Q2326366", "operator": "Deutsche Bahn Connect", "operator:wikidata": "Q1152100", "ref": "28809"}}, {"type": "node", "id": 11737198854, "lat": 53.5670201, "lon": 9.9771783, "tags": {"amenity": "bicycle_rental", "app_operated": "yes", "bicycle_rental": "docking_station", "brand": "StadtRAD Hamburg", "brand:wikidata": "Q2326366", "capacity": "19", "capacity:cargo_bike": "1", "check_date": "2024-05-16", "display_operated": "no", "name": "Bundesstraße / Universität", "network": "stadtradhamburg", "network:wikidata": "Q2326366", "operator": "Deutsche Bahn Connect GmbH", "operator:wikidata": "Q1152100", "ref": "29909", "website": "https://stadtrad.hamburg.de"}}, {"type": "node", "id": 11759292481, "lat": 53.5835443, "lon": 10.0717136, "tags": {"amenity": "bicycle_rental", "bicycle_rental": "docking_station", "brand": "StadtRAD Hamburg", "capacity": "12", "check_date": "2024-03-24", "display": "no", "name": "Eulenkamp / Straßburger Stieg", "network": "stadtradhamburg", "note": "Station besitzt kein klassisches Bedienterminal ..", "operator": "Deutsche Bahn Connect GmbH", "ref": "21204", "website": "https://stadtrad.hamburg.de"}}, {"type": "node", "id": 11955709874, "lat": 53.4853729, "lon": 10.1469112, "tags": {"amenity": "bicycle_rental", "bicycle_rental": "docking_station", "brand": "StadtRAD Hamburg", "brand:wikidata": "Q2326366", "capacity": "12", "check_date": "2024-06-04", "name": "Adolf-Köster-Damm / Felix-Jud-Ring", "network": "StadtRAD Hamburg", "network:wikidata": "Q2326366", "operator": "Deutsche Bahn Connect", "operator:wikidata": "Q1152100", "ref": "25503", "website": "https://stadtrad.hamburg.de"}}, {"type": "node", "id": 11978800605, "lat": 53.5841697, "lon": 9.9020867, "tags": {"amenity": "bicycle_rental", "bicycle_rental": "dropoff_point", "brand": "StadtRAD Hamburg", "check_date": "2024-06-13", "name": "August-Kirch-Straße Süd / Max-Schmeling-Straße", "network": "stadtradhamburg", "operator": "Deutsche Bahn Connect GmbH", "ref": "28208", "website": "https://stadtrad.hamburg.de"}}]}