{"version": 0.6, "generator": "Overpass API 0.7.62.1 084b4234", "osm3s": {"timestamp_osm_base": "2024-06-14T12:07:11Z", "copyright": "The data included in this document is from www.openstreetmap.org. The data is made available under ODbL."}, "elements": [{"type": "node", "id": 295677295, "lat": 53.5680968, "lon": 9.9780535, "tags": {"addr:city": "Hamburg", "addr:housenumber": "6", "addr:postcode": "20146", "addr:street": "Martin-Luther-King-Platz", "amenity": "university", "name": "Fachbereich Chemie", "toilets:wheelchair": "no", "wheelchair": "yes"}}, {"type": "node", "id": 339979039, "lat": 53.5682592, "lon": 9.9740426, "tags": {"addr:city": "Hamburg", "addr:street": "Bundesstraße", "amenity": "university", "name": "Fachbereich Geowissenschaften", "website": "https://www.uni-hamburg.de/geowissenschaften/", "wheelchair": "yes"}}, {"type": "node", "id": 339979101, "lat": 53.5679125, "lon": 9.9741505, "tags": {"addr:city": "Hamburg", "addr:street": "Bundesstraße", "amenity": "university", "name": "Fachbereich Mathematik", "website": "https://www.math.uni-hamburg.de/", "wheelchair": "yes"}}, {"type": "node", "id": 409587431, "lat": 53.5673763, "lon": 9.9823472, "tags": {"amenity": "university", "name": "Fachbereich Sozialwissenschaften", "university": "faculty", "wheelchair": "yes"}}, {"type": "node", "id": 427951735, "lat": 53.5679326, "lon": 9.9753908, "tags": {"addr:city": "Hamburg", "addr:housenumber": "53", "addr:postcode": "20146", "addr:street": "Bundesstraße", "amenity": "university", "name": "Centrum für Erdsystemforschung und Nachhaltigkeit", "short_name": "CEN", "website": "https://www.cen.uni-hamburg.de/", "wheelchair": "yes"}}, {"type": "node", "id": 427951950, "lat": 53.5678537, "lon": 9.9742063, "tags": {"addr:city": "Hamburg", "addr:street": "Bundesstraße", "amenity": "university", "name": "Erhaltungsprinzipien in der Modellierung", "website": "https://www.math.uni-hamburg.de/spag/gradkoll/"}}, {"type": "node", "id": 512099064, "lat": 53.5680052, "lon": 9.9772812, "tags": {"amenity": "university", "name": "Institut für Anorganische Chemie", "toilets:wheelchair": "no", "wheelchair": "limited"}}, {"type": "node", "id": 512099066, "lat": 53.56852, "lon": 9.9784657, "tags": {"amenity": "university", "name": "Institut für organische Chemie", "toilets:wheelchair": "no", "wheelchair": "limited"}}, {"type": "node", "id": 512101602, "lat": 53.5688143, "lon": 9.9779807, "tags": {"amenity": "university", "name": "Institut für Biochemie und Molekularbiologie", "toilets:wheelchair": "no", "wheelchair": "limited"}}, {"type": "node", "id": 1947895943, "lat": 53.5412961, "lon": 9.9929659, "tags": {"amenity": "university", "contact:email": "info@medicalschool-hamburg.de", "contact:fax": "+49 40 361226430", "contact:phone": "+49 40 36122640", "full_name": "MSH Medical School Hamburg - Fachhochschule für Gesundheit und Medizin", "name": "Medical School Hamburg", "short_name": "MSH", "website": "https://www.medicalschool-hamburg.de/"}}, {"type": "node", "id": 2426733883, "lat": 53.5583472, "lon": 9.9905191, "tags": {"addr:city": "Hamburg", "addr:country": "DE", "addr:housenumber": "36", "addr:postcode": "20354", "addr:street": "Esplanade", "amenity": "university", "name": "Hamburg Center for Health Economics"}}, {"type": "node", "id": 2734604609, "lat": 53.5677796, "lon": 9.9736013, "tags": {"addr:city": "Hamburg", "addr:housenumber": "55", "addr:postcode": "20146", "addr:street": "Bundesstraße", "amenity": "university", "name": "Environmental Wind Tunnel Laboratory", "operator": "Meteorologisches Institut der Universität Hamburg", "short_name": "EWTL", "website": "https://www.mi.uni-hamburg.de/arbeitsgruppen/windkanallabor.html"}}, {"type": "node", "id": 4090482071, "lat": 53.4631925, "lon": 9.9683429, "tags": {"addr:city": "Hamburg", "addr:housenumber": "3", "addr:postcode": "21073", "addr:street": "Am Schwarzenberg-Campus", "amenity": "university", "contact:email": "annette.hagel-ruscher@tuhh.de", "elevator": "yes", "level": "1", "name": "Institut für Verkehrsplanung und Logistik", "name:de": "Institut für Verkehrsplanung und Logistik", "name:en": "Institute for Transport Planning and Logistics - W8", "office": "research", "opening_hours": "Mo-Fr 09:00-17:00 || \"nach Absprache\"", "phone": "+49 40 42878-3519", "short_name": "W-8", "university": "institute", "website": "https://www.tuhh.de/vpl/start.html", "wheelchair": "yes"}}, {"type": "node", "id": 5619873886, "lat": 53.5679133, "lon": 9.9860477, "tags": {"addr:housenumber": "51", "addr:street": "Schlüterstraße", "amenity": "university", "name": "Zentrum für Weiterbildung Universität Hamburg", "website": "https://www.zfw.uni-hamburg.de/"}}, {"type": "node", "id": 6278989057, "lat": 53.5679264, "lon": 9.9753699, "tags": {"addr:city": "Hamburg", "addr:housenumber": "55", "addr:postcode": "20146", "addr:street": "Bundesstraße", "amenity": "university", "name": "Institut für Meereskunde", "operator": "Universität Hamburg", "website": "https://www.ifm.uni-hamburg.de/", "wikidata": "Q1664922"}}, {"type": "node", "id": 6278989058, "lat": 53.5683258, "lon": 9.973944, "tags": {"addr:city": "Hamburg", "addr:housenumber": "55", "addr:postcode": "20146", "addr:street": "Bundesstraße", "amenity": "university", "ele": "16", "name": "Meteorologisches Institut", "operator": "Universität Hamburg", "website": "https://www.mi.uni-hamburg.de"}}, {"type": "node", "id": 6309333158, "lat": 53.5699983, "lon": 9.9766531, "tags": {"addr:city": "Hamburg", "addr:country": "DE", "addr:housenumber": "4", "addr:postcode": "20146", "addr:street": "Monetastraße", "amenity": "university", "name": "Career Center Universität Hamburg", "website": "https://www.uni-hamburg.de/career-center.html"}}, {"type": "node", "id": 6343310177, "lat": 53.5407241, "lon": 9.9948158, "tags": {"amenity": "university", "name": "Medical School Hamburg", "website": "https://www.medicalschool-hamburg.de/"}}, {"type": "node", "id": 7253599388, "lat": 53.557663, "lon": 9.9847674, "tags": {"addr:city": "Hamburg", "addr:country": "DE", "addr:housenumber": "7", "addr:postcode": "20354", "addr:street": "Gorch-Fock-Wall", "amenity": "university", "email": "office@hra-hamburg.de", "isced:level": "8", "level": "1", "name": "Hamburg Research Academy", "operator": "Universität Hamburg", "phone": "+49 40 42838 6473", "website": "https://www.hra-hamburg.de", "wheelchair": "yes"}}, {"type": "node", "id": 8281858159, "lat": 53.5474143, "lon": 9.9868327, "tags": {"amenity": "university", "check_date": "2024-05-09", "name": "Hamburg School of Business Administration / HK BiS"}}, {"type": "node", "id": 8815426582, "lat": 53.5879208, "lon": 10.0376021, "tags": {"amenity": "university", "check_date": "2024-04-06", "name": "Hochschule für Musik und Theater"}}, {"type": "node", "id": 8815426583, "lat": 53.5880163, "lon": 10.0367599, "tags": {"amenity": "university", "check_date": "2024-04-06", "name": "Junges SchauSpielHaus", "website": "https://schauspielhaus.de/"}}, {"type": "node", "id": 10778350309, "lat": 53.5667177, "lon": 9.9831671, "tags": {"amenity": "university", "name": "Fakultät für Psychologie und Bewegungswissenschaft", "university": "faculty"}}, {"type": "node", "id": 10778367431, "lat": 53.5920265, "lon": 10.1068604, "tags": {"amenity": "university", "name": "Helmut-Schmidt-Universität - Campus Nord", "operator": "Bundeswehr"}}, {"type": "node", "id": 10786833270, "lat": 53.5446976, "lon": 10.019701, "tags": {"amenity": "university", "contact:website": "https://www.fernuni-hagen.de/stz/hamburg/", "name": "FernUniversität in Hagen - Campus Hamburg", "operator:wikidata": "Q687017"}}, {"type": "node", "id": 11816557058, "lat": 53.5571135, "lon": 9.9869107, "tags": {"amenity": "university", "name": "Universität Hamburg"}}, {"type": "node", "id": 11816571011, "lat": 53.5571087, "lon": 9.9869456, "tags": {"addr:housenumber": "8", "addr:street": "Welckerstraße", "amenity": "university", "description": "UHH, WiSo, FB SozÖk, FG Soziologie und FG VWL, Fak BWL", "name": "Universität Hamburg"}}]}