{"version": 0.6, "generator": "Overpass API 0.7.62.1 084b4234", "osm3s": {"timestamp_osm_base": "2024-06-14T12:07:11Z", "copyright": "The data included in this document is from www.openstreetmap.org. The data is made available under ODbL."}, "elements": [{"type": "node", "id": 293952998, "lat": 53.6250418, "lon": 10.1140932, "tags": {"amenity": "childcare", "name": "Lieblings-Kita", "note": "Bank Ende September 2020 geschlossen"}}, {"type": "node", "id": 561424388, "lat": 53.580448, "lon": 9.9681258, "tags": {"addr:city": "Hamburg", "addr:housenumber": "187", "addr:postcode": "20253", "addr:street": "Eppendorfer Weg", "amenity": "childcare", "level": "0", "min_age": "1", "name": "Bunte Blumen", "operator": "100 Blumen e.V.", "operator:type": "private_non_profit", "website": "http://www.100blumen.de/"}}, {"type": "node", "id": 963061119, "lat": 53.5790343, "lon": 10.0674176, "tags": {"amenity": "childcare", "name": "Kita Piggeldy"}}, {"type": "node", "id": 1237408325, "lat": 53.6003685, "lon": 10.1388168, "tags": {"addr:city": "Hamburg", "addr:country": "DE", "addr:housenumber": "76", "addr:postcode": "22147", "addr:street": "Scharbeutzer Straße", "amenity": "childcare", "level": "0", "name": "kinderzimmer Rodelberg", "opening_hours": "Mo-Fr 07:00-19:00", "operator": "KMK kinderzimmer GmbH & Co. KG", "website": "https://www.kita-kinderzimmer.de", "wheelchair": "yes"}}, {"type": "node", "id": 1261392357, "lat": 53.572955, "lon": 10.0177932, "tags": {"addr:city": "Hamburg", "addr:country": "DE", "addr:housenumber": "16", "addr:postcode": "22085", "addr:street": "Kanalstraße", "amenity": "childcare", "name": "Kita Bullerbü", "operator": "Kita Bullerbü e. V.", "website": "http://kitabullerbue.de/"}}, {"type": "node", "id": 1314554131, "lat": 53.5524617, "lon": 10.250728, "tags": {"addr:city": "Reinbek", "addr:country": "DE", "addr:housenumber": "6a", "addr:postcode": "21465", "addr:street": "Möllner Landstraße", "amenity": "childcare", "name": "Nesthäkchen"}}, {"type": "node", "id": 1339275610, "lat": 53.5415432, "lon": 10.2388766, "tags": {"addr:city": "Reinbek", "addr:country": "DE", "addr:housenumber": "55", "addr:postcode": "21465", "addr:street": "Carl-Herrmann-Straße", "amenity": "childcare", "brand": "Deutsches Rotes Kreuz", "brand:short": "DRK", "brand:wikidata": "Q694104", "name": "Kindertagesstätte Sonnenhüpfer", "operator": "DRK Kreisverband Stormarn e. V.", "source": "Bing Sat mit GPX-Track Shift", "website": "https://www.drk-stormarn.de/angebote/kindertagesstaetten/kita-sonnenhuepfer-reinbek.html"}}, {"type": "node", "id": 1541902851, "lat": 53.7070125, "lon": 10.2527953, "tags": {"amenity": "childcare", "name": "Kindergarten Delingsdorf"}}, {"type": "node", "id": 2177174444, "lat": 53.4371692, "lon": 10.0051527, "tags": {"addr:city": "Hamburg", "addr:housenumber": "23", "addr:postcode": "21079", "addr:street": "Vogteistraße", "amenity": "childcare", "name": "Kita Heinrich-Buchholz-Haus", "phone": "+49-40-769760010", "website": "https://www.kita-hamburg-roenneburg.de/"}}, {"type": "node", "id": 2398727674, "lat": 53.5938591, "lon": 9.9999513, "tags": {"amenity": "childcare", "name": "Apoidea favo bambini"}}, {"type": "node", "id": 2747900991, "lat": 53.4414861, "lon": 10.0029354, "tags": {"addr:city": "Hamburg", "addr:housenumber": "178b", "addr:postcode": "21079", "addr:street": "Reeseberg", "amenity": "childcare", "name": "Kita Lillehus", "website": "https://kita-lillehus.de/"}}, {"type": "node", "id": 3664754351, "lat": 53.5784389, "lon": 9.9412397, "tags": {"addr:city": "Hamburg", "addr:housenumber": "12", "addr:postcode": "20257", "addr:street": "Langenfelder Damm", "amenity": "childcare", "name": "Spielraum Eimsbüttel"}}, {"type": "node", "id": 3809086805, "lat": 53.5727234, "lon": 9.9506999, "tags": {"amenity": "childcare", "name": "Krippe Minimeter", "wheelchair": "no"}}, {"type": "node", "id": 4240990373, "lat": 53.6507975, "lon": 9.7774909, "tags": {"addr:city": "Pinneberg", "addr:housenumber": "13", "addr:postcode": "25421", "addr:street": "Blauer Kamp", "amenity": "childcare", "check_date": "2023-07-24", "name": "Ev. Kindertagesstätte der Lutherkirchengemeinde \"Blauer Kamp\"", "opening_hours": "Mo-Th 07:00-17:00; Fr 07:00-15:30", "operator": "Kita - Werk Pinneberg"}}, {"type": "node", "id": 4475016404, "lat": 53.6694479, "lon": 9.7836276, "tags": {"addr:housenumber": "19", "addr:street": "Reichenberger Straße", "amenity": "childcare", "name": "AWO Kindertagesstätte Pfiffikus"}}, {"type": "node", "id": 5020850208, "lat": 53.5422992, "lon": 10.0038966, "tags": {"amenity": "childcare", "name": "CompanyKids HafenCity - pme Familienservice", "name:en": "CompanyKids HafenCity - pme Family Sercive", "opening_hours": "Mo-Fr 07:30-18:00", "phone": "+49 40 350042910", "website": "https://www.familienservice.de/"}}, {"type": "node", "id": 5020850209, "lat": 53.5420727, "lon": 10.0040409, "tags": {"addr:city": "Hamburg", "addr:country": "DE", "addr:housenumber": "4", "addr:postcode": "20457", "addr:street": "Yokohamastraße", "amenity": "childcare", "check_date": "2023-04-27", "name": "Kinderzimmer"}}, {"type": "node", "id": 5020850211, "lat": 53.5428514, "lon": 10.0059468, "tags": {"amenity": "childcare", "name": "SterniPark Kita HafenCity"}}, {"type": "node", "id": 5098243739, "lat": 53.4805333, "lon": 10.2459669, "tags": {"addr:city": "Hamburg", "addr:housenumber": "200", "addr:postcode": "21029", "addr:street": "August-Bebel-Straße", "amenity": "childcare", "name": "Montessori Kinderhaus Bergedorf e.V.", "phone": "+49 40 7214620", "website": "https://www.montessorikinderhaus-bergedorf.de/"}}, {"type": "node", "id": 5275288414, "lat": 53.522203, "lon": 10.3158033, "tags": {"addr:city": "Aumühle", "addr:country": "DE", "addr:housenumber": "27B", "addr:postcode": "21521", "addr:street": "Ernst-Anton-Straße", "amenity": "childcare", "name": "Kinderkrippe Krippelkrabbel", "phone": "+49 4104 695717", "website": "https://www.agilo-kitas.de/"}}, {"type": "node", "id": 5403554790, "lat": 53.5843874, "lon": 10.0468227, "tags": {"amenity": "childcare", "check_date": "2023-05-01", "name": "Kita Alsterstümer", "website": "https://kita-alsterstuermer.de/fuhlsbuettler-strasse/"}}, {"type": "node", "id": 5801429503, "lat": 53.5765752, "lon": 10.0256904, "tags": {"amenity": "childcare", "check_date": "2023-10-02", "contact:email": "kinderbetreuung-calimero@web.de", "contact:website": "https://kindertagespflege-calimero.de.tl/", "name": "Calimero Kindertagespflegestätte", "nursery": "yes", "operator": "Ana Maria Garcia", "phone": "+49 40 87876630"}}, {"type": "node", "id": 5853734204, "lat": 53.5497414, "lon": 9.93414, "tags": {"addr:city": "Hamburg", "addr:housenumber": "11", "addr:postcode": "22765", "addr:street": "Winterstraße", "amenity": "childcare", "check_date": "2023-08-05", "email": "Kinderhaus@chocoladenfabrik.de", "name": "Kinderhaus in der Chocoladenfabrik", "operator": "Kinderhaus e.V. in der Chocoladenfabrik", "phone": "+49 40 396888", "website": "https://chocoladenfabrik.de/"}}, {"type": "node", "id": 6099411705, "lat": 53.5807257, "lon": 9.7927216, "tags": {"amenity": "childcare", "name": "Elbracker"}}, {"type": "node", "id": 6278989056, "lat": 53.5685701, "lon": 9.9795981, "tags": {"addr:city": "Hamburg", "addr:housenumber": "95-101", "addr:postcode": "20146", "addr:street": "Grindelallee", "amenity": "childcare", "check_date:opening_hours": "2021-06-08", "name": "Halas Rasselbande", "opening_hours": "Mo-Fr 08:00-15:00"}}, {"type": "node", "id": 6489967432, "lat": 53.5796112, "lon": 9.8243827, "tags": {"amenity": "childcare", "name": "Das Lüttenhaus"}}, {"type": "node", "id": 6618315616, "lat": 53.5373414, "lon": 10.1196297, "tags": {"addr:city": "Hamburg", "addr:housenumber": "9", "addr:postcode": "22117", "addr:street": "Oberschleems", "amenity": "childcare", "check_date:opening_hours": "2021-09-27", "description": "GBS für Kinder der Schule Am Schleemer Park", "name": "GBS - Am Schleemer Park", "opening_hours": "Mo-Fr 13:00-16:00", "operator": "Elbkinder Vereinigung Hamburger Kitas gGmbH", "phone": "+49 40 68998217", "website": "https://schuleamschleemerpark.hamburg.de/standort-moellner-landstrasse/ganztag-als-gbs/"}}, {"type": "node", "id": 6662240039, "lat": 53.5526152, "lon": 9.9446268, "tags": {"addr:city": "Hamburg", "addr:country": "DE", "addr:housenumber": "87", "addr:postcode": "22767", "addr:street": "Schomburgstraße", "amenity": "childcare", "name": "Die Werkkiste", "opening_hours": "Tu,We 10:00-17:00;Th-Sa 10:00-18:00", "phone": "+49 40 609 440 78", "shop": "doityourself", "website": "https://www.die-werkkiste.de/", "wheelchair": "no"}}, {"type": "node", "id": 6699036770, "lat": 53.6351383, "lon": 9.9427966, "tags": {"addr:city": "Hamburg", "addr:country": "DE", "addr:housenumber": "68", "addr:postcode": "22455", "addr:street": "Quedlinburger Weg", "addr:suburb": "Niendorf", "amenity": "childcare", "check_date": "2023-04-16", "name": "Kindergarten Happy Land", "opening_hours": "Mo-Fr 07:30-16:00", "operator": "Der Paritätische Wohlfahrtsverband Hamburg e.V.", "phone": "+49 40 55240897", "source": "website", "website": "https://www.kita-happyland.de/"}}, {"type": "node", "id": 6699036772, "lat": 53.632829, "lon": 9.940465, "tags": {"addr:city": "Hamburg", "addr:country": "DE", "addr:housenumber": "34", "addr:postcode": "22455", "addr:street": "Quedlinburger Weg", "addr:suburb": "Niendorf", "amenity": "childcare", "name": "Kita Käptn Kaninchen", "opening_hours": "Mo-Fr 07:30-16:30", "source": "website", "website": "https://kikaka.de/haeuser/kita-quedlinburger-weg/"}}, {"type": "node", "id": 7440598302, "lat": 53.5504882, "lon": 9.9455889, "tags": {"addr:city": "Hamburg", "addr:housenumber": "21", "addr:postcode": "22767", "addr:street": "Eschelsweg", "amenity": "childcare", "name": "KiTa Kobolde", "operator": "Kindertagesstätte “Die Kobolde” e. V.", "website": "https://kita-kobolde.de/"}}, {"type": "node", "id": 7466003006, "lat": 53.5580282, "lon": 10.0175074, "tags": {"addr:city": "Hamburg", "addr:housenumber": "74", "addr:postcode": "20099", "addr:street": "Rostocker Straße", "amenity": "childcare", "email": "info@koppelkinder.de", "name": "KiTa Koppelkinder", "opening_hours": "Mo-Th 06:30-17:30; Fr06:30-17:00", "phone": "+49 40 24 35 01", "website": "http://www.koppelkinder.de/"}}, {"type": "node", "id": 8264915293, "lat": 53.5547757, "lon": 9.8726917, "tags": {"addr:city": "Hamburg", "addr:country": "DE", "addr:housenumber": "29", "addr:postcode": "22605", "addr:street": "Hochrad", "amenity": "childcare", "check_date": "2023-04-09", "name": "Kita Tante D", "website": "http://www.tante-d.com/"}}, {"type": "node", "id": 8292880143, "lat": 53.5743176, "lon": 9.9530783, "tags": {"addr:city": "Hamburg", "addr:housenumber": "60", "addr:street": "Tornquiststraße", "addr:unit": "Haus C", "amenity": "childcare", "check_date": "2023-07-03", "name": "Kita Emilienstraße Dependance Tornquiststraße 60", "operator": "Elbkinder", "phone": "+4940402749", "website": "https://www.elbkinder-kitas.de/de/kita_finder/kita/203"}}, {"type": "node", "id": 8420766897, "lat": 53.6570582, "lon": 10.110063, "tags": {"addr:housenumber": "239", "addr:street": "Saseler Chaussee", "amenity": "childcare", "name": "Kita Mikuteit", "website": "https://www.kita-mikuteit.de"}}, {"type": "node", "id": 8859685513, "lat": 53.5543016, "lon": 9.9269195, "tags": {"addr:city": "Hamburg", "addr:housenumber": "7-9", "addr:postcode": "22765", "addr:street": "Friedensallee", "amenity": "childcare", "check_date": "2024-01-28", "name": "Kinderhaus Kunterbunt e.V.", "opening_hours": "Mo-Fr 07:00-17:00", "operator": "Verein Kinderhaus Kunterbunt e.V:", "operator:type": "private", "website": "https://www.ki-ku.de"}}, {"type": "node", "id": 8896218751, "lat": 53.6273188, "lon": 10.1699084, "tags": {"amenity": "childcare", "name": "Kita Wildschwanbrook"}}, {"type": "node", "id": 9001542972, "lat": 53.6660332, "lon": 9.9151338, "tags": {"amenity": "childcare", "fixme": "POI erstellt weil ich gestern daran vorbeigelaufen bin\nVermutlich eine Kita aber bitte erneut prüfen vor Ort.\nWebsite nicht zu finden", "name": "Rotznasen"}}, {"type": "node", "id": 9082327023, "lat": 53.6495723, "lon": 10.1668231, "tags": {"amenity": "childcare", "name": "Lille Hüs Kinderkrippe", "website": "http://www.lille-hues.de/"}}, {"type": "node", "id": 9360911448, "lat": 53.5481995, "lon": 9.9297701, "tags": {"amenity": "childcare", "check_date": "2024-03-17", "name": "Die Känguru Kinder"}}, {"type": "node", "id": 9680047701, "lat": 53.5995308, "lon": 10.041585, "tags": {"addr:city": "Hamburg", "addr:housenumber": "312", "addr:postcode": "22307", "addr:street": "Fuhlsbüttler Straße", "amenity": "childcare", "name": "Akademie für Kinder", "phone": "+49 (0)40 6889 50060", "website": "https://akademiefuerkinder.de/"}}, {"type": "node", "id": 9798937427, "lat": 53.5727265, "lon": 10.0475365, "tags": {"amenity": "childcare", "name": "Kindertagespflege Die Kinderarche Eilbek"}}, {"type": "node", "id": 9959614081, "lat": 53.6674714, "lon": 9.903766, "tags": {"addr:city": "Bönningstedt", "addr:postcode": "25474", "alt_name": "Offene Ganztagsschule Bönningstedt", "amenity": "childcare", "description": "Das Kind kann ab 7Uhr bis Schulbeginn und nach Schulende bis 16Uhr bei uns in der OGTS bleiben. \nHier bekommt es ein Mittagessen, geht in die Hausaufgabenbetreuung und verbringt bis 14:30Uhr die Mittagsfreispielzeit. \nAb 14:30Uhr starten dann die Projekte", "email": "OG-Grundschule.Boenningstedt@schule.landsh.de", "full_name": "Offene Ganztagsschule Bönningstedt", "name": "OGTS Bönningstedt", "phone": "+49 40 57144369", "website": "https://www.gs-boenningstedt.de/seite/561085/ogts.html"}}, {"type": "node", "id": 10048120986, "lat": 53.6798377, "lon": 10.0007486, "tags": {"addr:city": "Hamburg", "addr:housenumber": "680b", "addr:postcode": "22419", "addr:street": "Langenhorner Chaussee", "amenity": "childcare", "contact:phone": "+49 40 30853161 / 30853162", "name": "KinderZeit", "operator": "Kinderzeit GmbH", "website": "https://www.kita-kinderzeit.de/"}}, {"type": "node", "id": 10128640769, "lat": 53.5108497, "lon": 10.25175, "tags": {"addr:city": "Reinbek", "addr:housenumber": "4", "addr:postcode": "21465", "addr:street": "Bergstraße", "amenity": "childcare", "email": "wichtel.ev@freenet.de", "level": "1", "name": "Wichtelclub Reinbek", "opening_hours": "Mo-Th 07:30-16:00; Fr 07:30-15:30", "operator": "Wichtelclub e.V.", "operator:type": "private", "phone": "+49 40 65045350", "website": "https://www.wichtelclub-reinbek.de/"}}, {"type": "node", "id": 10135228216, "lat": 53.5719458, "lon": 9.9522968, "tags": {"amenity": "childcare", "name": "Sonnenkinder"}}, {"type": "node", "id": 10276383209, "lat": 53.5877861, "lon": 10.0504545, "tags": {"addr:housenumber": "2e", "addr:postcode": "22305", "addr:street": "Drosselstraße", "amenity": "childcare", "email": "drosselstrasse@kinderwelt-hamburg.de", "level": "0", "name": "Kinderwelt Drosselstraße", "phone": "+494088363525", "website": "https://kinderwelt-hamburg.de/standorte/drosselstrasse/"}}, {"type": "node", "id": 10276388209, "lat": 53.5904295, "lon": 10.0452028, "tags": {"addr:housenumber": "132", "addr:postcode": "22305", "addr:street": "Fuhlsbüttler Straße", "amenity": "childcare", "name": "Villa Vivendi Barmbek", "phone": "+494037508013", "website": "https://kita-villavivendi.com/home-2/villa-vivendi-barmbek/"}}, {"type": "node", "id": 10824806052, "lat": 53.5700336, "lon": 9.9086895, "tags": {"amenity": "childcare", "name": "Kinder Tagespflege Loebel"}}, {"type": "node", "id": 10830015388, "lat": 53.5700092, "lon": 9.8756195, "tags": {"amenity": "childcare", "name": "Kinderstadt KITA Flottbek"}}, {"type": "node", "id": 10915415991, "lat": 53.7301645, "lon": 9.9874198, "tags": {"addr:housenumber": "3", "addr:street": "Lawaetzstraße", "amenity": "childcare", "name": "Kita Fuchsbau", "operator": "verein der Kinder wegen", "website": "https://derkinderwegen.de/486"}}, {"type": "node", "id": 11001805070, "lat": 53.6256429, "lon": 10.2997776, "tags": {"amenity": "childcare", "contact:website": "https://nanus.online/", "name": "Waldkindergarten nanus"}}, {"type": "node", "id": 11049672334, "lat": 53.5652737, "lon": 10.0433788, "tags": {"amenity": "childcare", "name": "Evangelische Kindertagesstätten"}}, {"type": "node", "id": 11056896058, "lat": 53.591943, "lon": 10.1099328, "tags": {"amenity": "childcare", "name": "Kita Kleine Sterne", "website": "https://www.kita-kleine-sterne.de/"}}, {"type": "node", "id": 11063580652, "lat": 53.5687818, "lon": 10.0525111, "tags": {"amenity": "childcare", "name": "De Lütten Hütt"}}, {"type": "node", "id": 11166253955, "lat": 53.6786565, "lon": 9.9707996, "tags": {"addr:city": "Norderstedt", "addr:housenumber": "12a", "addr:postcode": "22848", "addr:street": "Kirchenstraße", "amenity": "childcare", "name": "Integrative Kindertagesstätte Unter der Eiche", "operator": "Diakonie HH"}}, {"type": "node", "id": 11216148555, "lat": 53.6072732, "lon": 9.9037264, "tags": {"addr:city": "Hamburg", "addr:housenumber": "10", "addr:postcode": "22523", "addr:street": "Alte Elbgaustraße", "amenity": "childcare", "check_date": "2024-06-02", "email": "eidelstedt@kitaweltentdecker.de", "name": "Kita Weltentdecker", "phone": "+49 40 52108843", "website": "https://kitaweltentdecker.de"}}, {"type": "node", "id": 11479418107, "lat": 53.5493013, "lon": 9.9275567, "tags": {"addr:city": "Hamburg", "addr:housenumber": "36", "addr:postcode": "22765", "addr:street": "Rothestraße", "amenity": "childcare", "email": "bala@kita-ringelsocke.de", "name": "Ringelsocke", "note": "Krippeneinrichtung", "operator": "Ringelsocke Ottensen e.V.", "phone": "+49 40 390 20 80", "website": "https://kita-ringelsocke.de/"}}, {"type": "node", "id": 11674323769, "lat": 53.5662339, "lon": 10.0395796, "tags": {"addr:postcode": "22089", "amenity": "childcare", "email": "wandsbekerchaussee@sternipark.de", "name": "SterniPark Wandsbeker Chaussee", "opening_hours": "Mo-Fr 07:00-19:00", "operator": "SterniPark GmbH", "phone": "04030396444", "website": "https://sternipark.de"}}, {"type": "node", "id": 11687643276, "lat": 53.5758145, "lon": 10.015012, "tags": {"addr:city": "Hamburg", "addr:housenumber": "78", "addr:postcode": "22085", "addr:street": "Hofweg", "amenity": "childcare", "country": "DE", "name": "Kinderinsel auf der Uhlenhorst", "operator": "Kinderinsel auf der Uhlenhorst e.V."}}, {"type": "node", "id": 11687652970, "lat": 53.5743753, "lon": 10.0153141, "tags": {"addr:city": "Hamburg", "addr:country": "DE", "addr:housenumber": "70", "addr:postcode": "22085", "addr:street": "Hofweg", "amenity": "childcare", "name": "Kita Lillys Spuren"}}, {"type": "node", "id": 11775147601, "lat": 53.5739316, "lon": 9.9865687, "tags": {"addr:housenumber": "18", "addr:street": "Hochallee", "amenity": "childcare", "name": "Enfantine", "operator": "Enfantine GmbH", "website": "https://www.enfantine.de/"}}, {"type": "node", "id": 11789634530, "lat": 53.570746, "lon": 9.9649024, "tags": {"addr:city": "Hamburg", "addr:housenumber": "17b", "addr:postcode": "20259", "addr:street": "Hohe Weide", "amenity": "childcare", "name": "Ev. Kindertagesstätte Hohe Weide", "operator": "Diakonie Alten Eichen", "source": "local knowledge", "website": "https://www.diakonie-alten-eichen.de/kita-hohe-weide00"}}, {"type": "node", "id": 11883904891, "lat": 53.5633101, "lon": 10.0331442, "tags": {"amenity": "childcare", "name": "Glücksnoten"}}, {"type": "node", "id": 11964368220, "lat": 53.5600783, "lon": 10.0421999, "tags": {"amenity": "childcare", "name": "Kita Jordanstraße"}}, {"type": "node", "id": 11964607347, "lat": 53.5792581, "lon": 9.9653532, "tags": {"addr:city": "Hamburg", "addr:housenumber": "163", "addr:postcode": "20253", "addr:street": "Eppendorfer Weg", "amenity": "childcare", "name": "Kinderperle Hamburg", "operator": "Glücklichkinder e.V.", "operator:type": "ngo", "website": "https://kinderperle.jimdo.com/"}}]}