{"version": 0.6, "generator": "Overpass API 0.7.62.1 084b4234", "osm3s": {"timestamp_osm_base": "2024-06-14T12:07:11Z", "copyright": "The data included in this document is from www.openstreetmap.org. The data is made available under ODbL."}, "elements": [{"type": "node", "id": 247765304, "lat": 53.565983, "lon": 9.7640317, "tags": {"addr:city": "Hamburg", "addr:housenumber": "79", "addr:postcode": "22587", "addr:street": "Grotiusweg", "contact:website": "http://www.elke-droescher.de", "name": "Puppenmuseum Falkenstein & Galarie Elke Dröscher", "name:en": "Doll Museum Falkenstein", "opening_hours": "PH,Tu-Su 11:00-17:00", "phone": "+49 40 810582", "toilets:wheelchair": "no", "tourism": "museum", "website": "https://www.elke-droescher.de/pages/museu1.html", "wheelchair": "yes", "wikidata": "Q76633486"}}, {"type": "node", "id": 265761266, "lat": 53.546213, "lon": 10.0016843, "tags": {"addr:city": "Hamburg", "addr:country": "DE", "addr:housenumber": "4", "addr:postcode": "20457", "addr:street": "Alter Wandrahm", "check_date": "2023-04-04", "contact:website": "http://www.dialog-im-dunkeln.de", "description:hu": "Párbeszéd a sötétben", "fee": "yes", "name": "Dialog im Dunkeln", "opening_hours": "Mo-Su 10:00-17:00", "phone": "+49 40 3096340", "toilets:wheelchair": "yes", "tourism": "museum", "website": "https://dialog-in-hamburg.de", "wheelchair": "yes", "wikidata": "Q457196", "wikipedia": "de:Dialog im Dunkeln"}}, {"type": "node", "id": 274954444, "lat": 53.5420468, "lon": 10.0475484, "tags": {"addr:city": "Hamburg", "addr:housenumber": "92", "addr:postcode": "20539", "addr:street": "Bullenhuser Damm", "contact:website": "http://www.kz-gedenkstaette-neuengamme.de/index.php?id=655", "historic": "memorial", "name": "Gedenkstätte Bullenhuser Damm", "opening_hours": "Su 10:00-17:00", "tourism": "museum", "website": "https://www.kz-gedenkstaette-neuengamme.de/?id=655", "wheelchair": "limited", "wheelchair:description": "Eigener rollstuhlgerechter Eingang und Toilette. Kein Zugang in den Seminarraum im 1. Stock. Problem: Klopfen um herein zu kommen", "wikidata": "Q1004271", "wikipedia": "de:Bullenhuser Damm"}}, {"type": "node", "id": 277296724, "lat": 53.5459413, "lon": 9.9980125, "tags": {"addr:city": "Hamburg", "addr:country": "DE", "addr:housenumber": "15-16", "addr:postcode": "20457", "addr:street": "Alter Wandrahm", "check_date:opening_hours": "2024-03-16", "email": "museum@zoll.de", "fax": "+49-40-428203920", "fee": "yes", "name": "Deutsches Zollmuseum", "name:en": "German Customs Museum", "name:hu": "Német Vámmúzeum", "opening_hours": "Tu-Su 10:00-17:00", "operator": "Bundesministerium der Finanzen", "phone": "+49 40 428203911", "toilets:wheelchair": "yes", "tourism": "museum", "website": "http://www.museum.zoll.de/", "wheelchair": "yes", "wikidata": "Q1206138", "wikipedia": "de:Deutsches Zollmuseum"}}, {"type": "node", "id": 282661908, "lat": 53.5530163, "lon": 10.0634403, "tags": {"addr:city": "Hamburg", "addr:country": "DE", "addr:housenumber": "16", "addr:postcode": "20537", "addr:street": "Wichernsweg", "building": "bunker", "description": "1940/41 erbauter Röhrenbunker", "entrance": "yes", "fee": "yes", "heritage": "4", "heritage:operator": "dsa", "historic": "yes", "name": "Bunkermuseum Hamburg", "opening_hours": "Th 10:00-12:00,15:00-18:00", "phone": "+49 40 18151493", "ref:dsa": "1356", "tourism": "museum", "website": "https://hh-hamm.de/bunkermuseum/", "wheelchair": "no", "wikidata": "Q76633436"}}, {"type": "node", "id": 301998423, "lat": 53.5431509, "lon": 9.9883872, "tags": {"addr:city": "Hamburg", "addr:country": "DE", "addr:housenumber": "34", "addr:postcode": "20457", "addr:street": "Am Sandtorkai", "check_date": "2023-06-07", "description:hu": "Fűszermúzeum", "fee": "yes", "name": "Spicys Gewürzmuseum", "opening_hours": "Nov-Jun Tu-Su 10:00-17:00;Jul-Oct Mo-Su 10:00-17:00", "phone": "+49 40 367989", "toilets:wheelchair": "no", "tourism": "museum", "website": "https://www.spicys.de", "wheelchair": "no", "wheelchair:description": "Speicher nur über Treppe erreichbar. Innerhalb des Museums ist alles großzügig aufgebaut und eben, sodass das Nutzen eines Kinderwagens oder Rollstuhls kein Problem darstellt. Keine Behindertentoilette.", "wikidata": "Q1521070", "wikipedia": "de:Spicy’s Gewürzmuseum"}}, {"type": "node", "id": 302710293, "lat": 53.543075, "lon": 9.9875264, "tags": {"check_date": "2023-06-07", "contact:email": "info@speicherstadtmuseum.de", "contact:fax": "+49 40 321350", "contact:phone": "+49 40 321191", "contact:website": "http://www.speicherstadtmuseum.de/", "fee": "yes", "name": "Speicherstadtmuseum", "opening_hours": "Mar-Nov Mo-Fr 10:00-17:00, Mar-Nov Sa,Su 10:00-18:00; Dec-Feb Th-Su 10:00-17:00", "operator": "Speicherstadtmuseum e.V.", "payment:cash": "yes", "payment:cryptocurrencies": "no", "payment:electronic_purses": "no", "tourism": "museum", "wheelchair": "no", "wikidata": "Q2308634", "wikipedia": "de:Speicherstadtmuseum"}}, {"type": "node", "id": 308913214, "lat": 53.4586855, "lon": 9.9792684, "tags": {"addr:city": "Hamburg", "addr:housenumber": "5", "addr:postcode": "21073", "addr:street": "Harburger Rathausplatz", "check_date:opening_hours": "2023-06-24", "description": "permanent exhibition", "fee": "yes", "name": "Archäologisches Museum Hamburg", "old_name": "Helms-Museum", "opening_hours": "Tu-Su 10:00-17:00", "tourism": "museum", "website": "https://amh.de/", "wheelchair": "yes"}}, {"type": "node", "id": 382989241, "lat": 53.5070861, "lon": 10.2521338, "tags": {"addr:city": "Reinbek", "addr:housenumber": "4", "addr:street": "Schloßstraße", "image": "http://commons.wikimedia.org/wiki/File%3AMuseum_Rade.JPG", "name": "Museum Rade", "tourism": "museum"}}, {"type": "node", "id": 392239899, "lat": 53.5877326, "lon": 9.9002659, "tags": {"addr:city": "Hamburg", "addr:country": "DE", "addr:housenumber": "7", "addr:postcode": "22525", "addr:street": "Sylvesterallee", "description:de": "Geschichte und Trophäen des HSV.", "fee": "no", "name": "HSV-Museum", "opening_hours": "Mo-Su 10:00-18:00", "phone": "+49 40 41551550", "tourism": "museum", "website": "https://www.hsv.de/", "wheelchair": "yes", "wikidata": "Q1109672"}}, {"type": "node", "id": 441296835, "lat": 53.7025423, "lon": 9.9799868, "tags": {"fee": "yes", "museum": "firefighter", "name": "Feuerwehrmuseum", "opening_hours": "We-Sa 15:00-18:00; Su 11:00-18:00; PH off; Dec 22-Jan 01 off", "tourism": "museum", "website": "https://www.feuerwehrmuseum-sh.de", "wikidata": "Q76638881"}}, {"type": "node", "id": 441296940, "lat": 53.7021511, "lon": 9.9801842, "tags": {"check_date": "2024-05-19", "fee": "yes", "name": "Stadtmuseum Norderstedt", "opening_hours": "We-Sa 15:00-18:00, Su 11:00-18:00; PH off; Dec 24-Jan 01 off", "tourism": "museum", "wheelchair": "limited", "wikidata": "Q76638886"}}, {"type": "node", "id": 443066969, "lat": 53.5484705, "lon": 10.2111681, "tags": {"name": "Glinder Kupfermühle", "tourism": "museum", "wheelchair": "limited"}}, {"type": "node", "id": 643518430, "lat": 53.4876925, "lon": 10.0179607, "tags": {"addr:city": "Hamburg", "addr:country": "DE", "addr:housenumber": "163", "addr:postcode": "21109", "addr:street": "Kirchdorfer Straße", "contact:phone": "+49 40 31182928", "contact:website": "http://www.museum-elbinsel-wilhelmsburg.de/", "fee": "no", "name": "Museum Elbinsel Wilhelmsburg", "opening_hours": "Su 14:00-17:00", "tourism": "museum", "wikidata": "Q6940650"}}, {"type": "node", "id": 706970884, "lat": 53.5512163, "lon": 9.9766047, "tags": {"addr:city": "Hamburg", "addr:housenumber": "39", "addr:postcode": "20355", "addr:street": "Peterstraße", "check_date": "2023-09-16", "check_date:opening_hours": "2024-05-30", "contact:website": "http://www.brahms-hamburg.de/", "fee": "yes", "museum": "person", "name": "Brahms-Museum", "opening_hours": "Tu-Su 10:00-17:00", "phone": "+49 40 41913086", "toilets:wheelchair": "no", "tourism": "museum", "website": "https://brahms-hamburg.de/", "wheelchair": "no", "wikidata": "Q28745374", "wikipedia": "en:Brahms Museum (Hamburg)"}}, {"type": "node", "id": 764928471, "lat": 53.620988, "lon": 10.0623243, "tags": {"check_date": "2023-08-15", "fee": "no", "image": "http://commons.wikimedia.org/wiki/File:Grabmal-Freilichtmuseum_der_Ämtersteine_Ohlsdorf_1.jpg", "name": "Grabmal-Freilichtmuseum", "opening_hours": "24/7", "tourism": "museum"}}, {"type": "node", "id": 861287892, "lat": 53.525368, "lon": 10.0000668, "tags": {"addr:city": "Hamburg", "addr:housename": "Schuppen 50A", "addr:postcode": "20457", "addr:street": "Australiastraße", "alt_name": "Deutschen Hafenmuseum Standort Schuppen 50A", "check_date": "2023-05-10", "contact:website": "https://shmh.de/de/deutsches-hafenmuseum", "fee": "yes", "name": "Deutsches Hafenmuseum", "opening_hours": "Nov-Mar: off; Mo-Fr 10:00-17:00; Tu off; Sa,Su 10:00-18:00", "toilets:wheelchair": "no", "tourism": "museum", "wheelchair": "limited", "wheelchair:description": "Es gibt einen Lift, um in den Hauptraum zu kommen. Man kommt mit dem Rollstuhl dann aber nicht mal zur Kasse. Der Außenbereich ist sehr uneben, die Schiffe sind nicht zugänglich.", "wikidata": "Q1408998", "wikipedia": "de:Hafenmuseum Hamburg"}}, {"type": "node", "id": 890870587, "lat": 53.5549769, "lon": 10.0030612, "tags": {"check_date:opening_hours": "2023-08-13", "fee": "yes", "name": "Hubertus-Wald-Forum", "opening_hours:signed": "no", "tourism": "museum", "wheelchair": "yes"}}, {"type": "node", "id": 946081680, "lat": 53.5407959, "lon": 10.0209548, "tags": {"addr:city": "Hamburg", "addr:country": "DE", "addr:housenumber": "4", "addr:postcode": "20097", "addr:street": "Auf der Brandshofer Schleuse", "fee": "yes", "museum": "nutrition", "name": "Deutsches Zusatzstoffmuseum", "name:en": "German Food Additives Museum", "opening_hours": "We,Fr-Su 11:00-17:00; Th 14:00-20:00", "phone": "+49 40 32027757", "tourism": "museum", "website": "https://www.zusatzstoffmuseum.de", "wheelchair": "yes", "wikidata": "Q1206139", "wikipedia": "de:Deutsches Zusatzstoffmuseum"}}, {"type": "node", "id": 1284582974, "lat": 53.586823, "lon": 10.0417543, "tags": {"check_date": "2023-06-10", "fee": "no", "museum": "local", "name": "Geschichtswerkstatt Barmbek", "opening_hours": "Tu 14:00-18:00", "tourism": "museum", "wheelchair": "no"}}, {"type": "node", "id": 1431267823, "lat": 53.5461441, "lon": 10.2819872, "tags": {"addr:city": "Reinbek", "addr:country": "DE", "addr:housenumber": "6", "addr:postcode": "21465", "addr:street": "Hoibeken", "name": "Feuerwehrmuseum Ohe", "source": "bing", "tourism": "museum"}}, {"type": "node", "id": 1561759355, "lat": 53.5951445, "lon": 9.9842368, "tags": {"addr:city": "Hamburg", "addr:housenumber": "66", "addr:postcode": "20251", "addr:street": "Tarpenbekstraße", "check_date:opening_hours": "2023-07-30", "name": "Gedenkstätte Ernst Thälmann", "opening_hours": "We 14:00-17:00; Th 10:00-13:00; Fr 14:00-17:00", "operator": "Kuratorium \"Gedenkstätte-Ernst-Thälmann\" e. V.", "tourism": "museum", "website": "https://gedenkstaetten-in-hamburg.de/gedenkstaetten/zeige/gedenkstaette-ernst-thaelmann", "wheelchair": "no"}}, {"type": "node", "id": 1564055745, "lat": 53.5488475, "lon": 10.0066187, "tags": {"addr:city": "Hamburg", "addr:country": "DE", "addr:housenumber": "15", "addr:postcode": "20095", "addr:street": "Klosterwall", "name": "Kunsthaus Hamburg", "opening_hours": "Tu-Su 11:00-18:00", "phone": "+49 40 428131200", "toilets:wheelchair": "yes", "tourism": "museum", "wheelchair": "no"}}, {"type": "node", "id": 1580787850, "lat": 53.5435301, "lon": 9.9151535, "tags": {"check_date": "2024-02-04", "fee": "no", "museum": "maritime", "name": "Museumshafen Övelgönne", "opening_hours": "Mo,Tu 10:00-12:00; We 10:00-14:00,16:00-18:00; Fr 10:00-13:00", "operator": "Museumshafen Oevelgönne e.V.", "tourism": "museum", "website": "http://www.museumshafen-oevelgoenne.de", "wheelchair": "no"}}, {"type": "node", "id": 1636614093, "lat": 53.5485293, "lon": 10.0067109, "tags": {"check_date": "2023-06-07", "name": "Freie Akademie der Künste", "toilets:wheelchair": "yes", "tourism": "museum", "wheelchair": "yes"}}, {"type": "node", "id": 1643193207, "lat": 53.5512775, "lon": 9.9771499, "tags": {"contact:website": "http://www.telemann-hamburg.de/", "fee": "yes", "museum": "person", "name": "Telemann-Museum", "opening_hours": "Tu-Su 10:00-17:00", "tourism": "museum", "wheelchair": "no", "wikidata": "Q2401758", "wikipedia": "de:Telemann-Museum"}}, {"type": "node", "id": 1650071826, "lat": 53.5432742, "lon": 10.0026462, "tags": {"addr:city": "Hamburg", "addr:country": "DE", "addr:housenumber": "7", "addr:postcode": "20457", "addr:street": "Shanghaiallee", "name": "PROTOTYP -Das Automuseum", "opening_hours": "Tu-Su 10:00-18:00", "phone": "+49 40 39 99 69 70", "toilets:wheelchair": "yes", "tourism": "museum", "website": "https://www.prototyp-hamburg.de/", "wheelchair": "yes", "wikidata": "Q16886704", "wikipedia": "de:Prototyp (Museum)"}}, {"type": "node", "id": 1667590185, "lat": 53.4896496, "lon": 10.2123887, "tags": {"fee": "yes", "name": "Museum für Bergedorf und die Vierlande", "opening_hours": "Tu-Su 11:00-17:00", "tourism": "museum", "website": "http://bergedorfmuseum.de/", "wikidata": "Q104370848"}}, {"type": "node", "id": 1706031460, "lat": 53.4643064, "lon": 9.9817302, "tags": {"addr:city": "Hamburg", "addr:housenumber": "1", "addr:postcode": "21079", "addr:street": "Harburger Schloßstraße", "contact:website": "http://www.electrum-hamburg.de/", "email": "info@electrum-hamburg.de", "fee": "yes", "museum": "technology", "name": "electrum - Museum der Elektrizität", "opening_hours": "Su 10:00-17:00", "opening_hours:covid19": "closed", "phone": "+49 40 32507353", "start_date": "2011", "tourism": "museum", "website": "https://www.electrum-hamburg.de/", "wheelchair": "no", "wikidata": "Q1326181", "wikipedia": "de:electrum"}}, {"type": "node", "id": 1900245937, "lat": 53.5203064, "lon": 10.1196698, "tags": {"addr:city": "Hamburg", "addr:country": "DE", "addr:housenumber": "72", "addr:postcode": "22113", "addr:street": "Billwerder Billdeich", "email": "mail@malermuseum.de", "fax": "+49 40 73674638", "name": "Deutsches Maler- und Lackierer-Museum", "opening_hours": "Feb-Nov Sa,Su 14:00-17:00; Dec-Jan off", "operator": "Verein zur Förderung des Deutschen Maler- und Lackierer-Museum e. V.", "phone": "+49 40 7338706", "tourism": "museum", "website": "https://www.malermuseum.de/", "wikidata": "Q76633440"}}, {"type": "node", "id": 2350852560, "lat": 53.4397744, "lon": 9.903397, "tags": {"name": "Historischer Tanzsaal und Brennerei im Freilichtmuseum am Kiekeberg", "phone": "+49 40 79 01 76-0", "tourism": "museum", "website": "https://www.kiekeberg-museum.de/", "wheelchair": "yes"}}, {"type": "node", "id": 2478728455, "lat": 53.5423922, "lon": 9.9901259, "tags": {"fee": "no", "name": "Traditionsschiffhafen Sandtorkai", "tourism": "museum", "wheelchair": "limited"}}, {"type": "node", "id": 2579041658, "lat": 53.4276938, "lon": 10.2300433, "tags": {"addr:city": "Hamburg", "addr:housenumber": "75", "addr:postcode": "21039", "addr:street": "Jean-Dolidier-Weg", "fee": "no", "name": "KZ-Gedenkstätte Neuengamme Ausstellung", "opening_hours": "Mo-Fr 09:30-16:00", "phone": "+49 40 428131 500", "toilets:wheelchair": "yes", "tourism": "museum", "website": "https://www.kz-gedenkstaette-neuengamme.de", "wheelchair": "yes", "wheelchair:description": "Rampe zum Eingang, innen Fahrstuhl, spez. Toilette"}}, {"type": "node", "id": 2579046131, "lat": 53.4352015, "lon": 10.2321768, "tags": {"addr:city": "Hamburg", "addr:housenumber": "39", "addr:postcode": "21039", "addr:street": "Jean-Dolidier-Weg", "name": "Haus des Gedenkens und internationales Mahnmal", "tourism": "museum", "website": "https://www.kz-gedenkstaette-neuengamme.de/index.php?id=2544", "wheelchair": "limited", "wheelchair:description": "Zugänglich bis auf die obere Galerie"}}, {"type": "node", "id": 2712372730, "lat": 53.5506352, "lon": 9.9633657, "tags": {"contact:website": "http://www.hamburger-schulmuseum.de/", "name": "Hamburger Schulmuseum", "opening_hours": "Mo-Fr 10:00-16:00", "tourism": "museum", "wikidata": "Q1573125", "wikipedia": "de:Hamburger Schulmuseum"}}, {"type": "node", "id": 2713513161, "lat": 53.496196, "lon": 10.0029607, "tags": {"contact:website": "http://www.waelderhaus.de/science-center/", "fee": "yes", "name": "Science Center Wald", "opening_hours": "Mar-Oct: 10:00-18:00; Nov-Feb: 10:00-17:00", "toilets:wheelchair": "yes", "tourism": "museum", "wheelchair": "yes"}}, {"type": "node", "id": 2713761708, "lat": 53.5937462, "lon": 9.9771587, "tags": {"contact:website": "http://www.uke.de/institute/medizinhistorisches-museum/", "fee": "yes", "name": "Medizinhistorisches Museum Hamburg", "name:en": "Museum of Medical History Hamburg", "opening_hours": "We,Sa,Su 13:00-18:00", "tourism": "museum", "website": "https://www.uke.de/kliniken-institute/institute/geschichte-und-ethik-der-medizin/medizinhistorisches-museum/index.html", "wheelchair": "yes", "wikidata": "Q1916544", "wikipedia": "de:Medizinhistorisches Museum am Universitätsklinikum Hamburg-Eppendorf"}}, {"type": "node", "id": 2714950847, "lat": 53.5504275, "lon": 9.9713629, "tags": {"contact:website": "http://www.millerntorwache.org", "description": "Die Alte Wache kann nur von Außen besichtigt werden.", "fee": "no", "name": "Museum für Hamburgische Geschichte", "opening_hours": "24/7 \"Nur von außen zu besichtigen\"", "tourism": "museum", "wheelchair": "yes"}}, {"type": "node", "id": 3059330837, "lat": 53.630586, "lon": 10.1105551, "tags": {"email": "info@gut-karlshoehe.de", "fax": "+49 40 637024920", "fee": "yes", "name": "jahreszeitHAMBURG", "opening_hours": "We-Su 11:00-18:00", "opening_hours:covid19": "closed", "operator": "Gut Karlshöhe", "phone": "+49 40 63702490", "tourism": "museum", "website": "https://gut-karlshoehe.de/erlebnisausstellung/", "wheelchair": "yes"}}, {"type": "node", "id": 3112218076, "lat": 53.5580662, "lon": 9.8020539, "tags": {"addr:housenumber": "6", "addr:street": "Elbterrasse", "name": "Fischerhaus Museum", "tourism": "museum", "wikidata": "Q76633451"}}, {"type": "node", "id": 3168353161, "lat": 53.5505804, "lon": 10.0120801, "tags": {"name": "Hamburger Genossenschaftsmuseum", "opening_hours": "Tu-Th 14:00 -17:00", "operator": "Heinrich-KaufmannStiftung", "phone": "+49 40 2800 3050", "tourism": "museum", "website": "http://www.kaufmann-stiftung.de/Genossenschaftsmuseum.html", "wikidata": "Q19963918"}}, {"type": "node", "id": 3296832516, "lat": 53.6072422, "lon": 9.9030013, "tags": {"addr:city": "Hamburg", "addr:housenumber": "12", "addr:postcode": "22523", "addr:street": "Alte Elbgaustraße", "fee": "no", "level": "1", "museum": "local", "name": "Heimatmuseum Eidelstedt", "opening_hours": "vorübergehen geschlossen", "opening_hours:covid19": "restricted", "tourism": "museum", "wheelchair": "yes", "wikidata": "Q76633458"}}, {"type": "node", "id": 3550810789, "lat": 53.5417862, "lon": 10.0012099, "tags": {"addr:city": "Hamburg", "addr:country": "DE", "addr:housenumber": "10", "addr:postcode": "20457", "addr:street": "Hongkongstraße", "check_date:opening_hours": "2022-11-22", "contact:phone": "+49 40 306180", "contact:website": "https://www.greenpeace.de/ausstellung-veranstaltungen", "fee": "no", "language:de": "yes", "language:en": "yes", "name": "Greenpeace Ausstellung", "name:en": "Greenpeace Exhibition", "name:fr": "Greenpeace Exposition", "opening_hours": "Tu-Fr 10:00-17:00", "operator": "Greenpeace", "toilets:wheelchair": "yes", "tourism": "museum", "wheelchair": "yes"}}, {"type": "node", "id": 3714346724, "lat": 53.5479534, "lon": 10.0025351, "tags": {"addr:city": "Hamburg", "addr:housenumber": "1", "addr:postcode": "20095", "addr:street": "Meßberg", "fee": "yes", "name": "Chocoversum", "opening_hours": "We-Su 10:00-06:00", "phone": "+49 40 41912300", "toilets:wheelchair": "yes", "tourism": "museum", "website": "https://www.chocoversum.de", "wheelchair": "yes", "wheelchair:description": "Separate wheelchair accessible entrace, handicapped toilet only accessible from Outsider."}}, {"type": "node", "id": 3912562937, "lat": 53.5446938, "lon": 9.9967434, "tags": {"description": "Café und Rösterei im Erdgeschoss. Kaffeemuseum im Kellergeschoss.", "ele": "7", "email": "info@kaffeemuseum-burg.de", "fee": "no", "name": "Kaffeemuseum Burg", "opening_hours": "Mo-Su 10:00-18:00", "operator": "Teehandelskontor Sturm GmbH", "phone": "+49 (0) 40 55 20 42 58", "smoking": "outside", "subject": "history", "tourism": "museum", "website": "https://kaffeemuseum-burg.de/", "wheelchair": "no"}}, {"type": "node", "id": 4338234989, "lat": 53.5422139, "lon": 10.0014123, "tags": {"addr:city": "Hamburg", "addr:country": "DE", "addr:housenumber": "8", "addr:postcode": "20457", "addr:street": "Hongkongstraße", "name": "Designxport", "tourism": "museum", "website": "https://www.designxport.de/"}}, {"type": "node", "id": 4960538796, "lat": 53.5512145, "lon": 9.9771084, "tags": {"contact:website": "http://www.komponistenquartier.de/die-museen/johann-adolf-hasse-museum", "museum": "person", "name": "Johann-Adolf-Hasse-Museum", "tourism": "museum", "wikidata": "Q56640840"}}, {"type": "node", "id": 4960538797, "lat": 53.5512456, "lon": 9.9771285, "tags": {"contact:website": "http://www.komponistenquartier.de/die-museen/carl-philipp-emanuel-bach-museum", "museum": "person", "name": "Carl-Philipp-Emanuel-Bach-Museum", "tourism": "museum", "wikidata": "Q56640733"}}, {"type": "node", "id": 5292013764, "lat": 53.3980064, "lon": 9.85936, "tags": {"addr:housenumber": "7", "addr:street": "Kabenweg", "description": "Wohnhaus mit Café und Werkstatt im Nebengebäude.", "name": "Stellmacherei Langenrehm", "opening_hours": "2019 May 05-Oct 27 Su 11:00-17:00", "phone": "+49 40 790 176 0", "source": "Eigenes sehen --> Aussenstelle Kiekeberg", "tourism": "museum", "website": "http://www.museumsstellmacherei.de", "wikidata": "Q50445462"}}, {"type": "node", "id": 5326750121, "lat": 53.5503838, "lon": 9.9963543, "tags": {"fee": "no", "name": "Türmerstube", "tourism": "museum"}}, {"type": "node", "id": 5460118667, "lat": 53.5546486, "lon": 9.9690494, "tags": {"addr:city": "Hamburg", "addr:housenumber": "1", "addr:postcode": "20359", "addr:street": "Heiligengeistfeld", "check_date:opening_hours": "2024-02-23", "contact:facebook": "https://www.facebook.com/1910eV", "contact:website": "http://www.1910-museum.de/", "description": "Entstehungsgeschichte des FC St. Pauli. Mehr Infos auf www.kiezbeben.de", "fee": "yes", "internet_access": "wlan", "internet_access:fee": "no", "museum": "local", "name": "FC St. Pauli - Museum", "opening_hours": "Fr 15:00-19:00; Sa 11:00-19:00; Su 10:00-15:00; PH off", "operator": "1910 e.V. Museum für den FC St. Pauli", "operator:type": "ngo", "toilets:wheelchair": "yes", "tourism": "museum", "wheelchair": "yes", "wikidata": "Q56877977"}}, {"type": "node", "id": 5592174589, "lat": 53.5508178, "lon": 9.9866459, "tags": {"historic": "memorial", "level": "0", "name": "Geschichtsort Stadthaus", "opening_hours": "Mo-Fr 10:00-20:00", "tourism": "museum", "wheelchair": "yes"}}, {"type": "node", "id": 5892735585, "lat": 53.5470231, "lon": 9.9616165, "tags": {"access:covid19": "appointment", "addr:city": "Hamburg", "addr:housenumber": "79", "addr:postcode": "20359", "addr:street": "Bernhard-Nocht-Straße", "check_date": "2023-09-21", "name": "Erotic Art Museum", "opening_hours:covid19": "restricted", "opening_hours:url": "https://erotic-art-museum.com/fuehrungen/", "phone": "+49 176 82570440", "toilets:wheelchair": "no", "tourism": "museum", "website": "https://erotic-art-museum.com/", "wheelchair": "limited", "wikidata": "Q475236"}}, {"type": "node", "id": 6016244389, "lat": 53.5530059, "lon": 10.002113, "tags": {"addr:city": "Hamburg", "addr:country": "DE", "addr:housenumber": "14-16", "addr:postcode": "20095", "addr:street": "Lilienstraße", "contact:email": "hamburg@museumderillusionen.de", "contact:facebook": "https://www.facebook.com/mdi.hamburg", "contact:instagram": "https://www.instagram.com/mdi_hamburg/", "contact:phone": "+49 40 307 07105", "contact:website": "https://hamburg.museumderillusionen.de/", "fee": "yes", "name": "Museum der Illusionen", "opening_hours": "Mo-Su 10:00-19:00", "tourism": "museum", "wheelchair": "yes"}}, {"type": "node", "id": 6216325968, "lat": 53.4550922, "lon": 9.9875595, "tags": {"addr:city": "Hamburg", "addr:housenumber": "71", "addr:postcode": "21073", "addr:street": "Wilstorfer Straße", "email": "sammlungfalckenberg@deichtorhallen.de", "name": "Sammlung Falckenberg", "opening_hours": "\"Auf Anfrage\"", "opening_hours:url": "https://www.sammlung-falckenberg.de/besuch/", "operator": "Deichtorhallen Hamburg GmbH", "phone": "+49 40 32506762", "tourism": "museum", "website": "https://www.sammlung-falckenberg.de/", "wikidata": "Q684896", "wikipedia": "de:Sammlung Falckenberg"}}, {"type": "node", "id": 6271709994, "lat": 53.579381, "lon": 9.989471, "tags": {"email": "email@dieter-roth-foundation.com", "name": "Dieter Roth Museum", "operator": "Dieter Roth Foundation", "phone": "+494041999191", "tourism": "museum", "website": "http://www.dieter-roth-Museum.de", "wikidata": "Q76633442"}}, {"type": "node", "id": 6695848618, "lat": 53.5476626, "lon": 9.9912032, "tags": {"check_date": "2023-04-01", "fee": "yes", "layer": "-1", "level": "-1", "name": "St. Nikolai Museum", "opening_hours": "May-Sep Mo-Su 10:00-18:00; Oct-Apr Mo-Su 10:00-17:00", "tourism": "museum", "wikidata": "Q425622"}}, {"type": "node", "id": 7699025086, "lat": 53.5503231, "lon": 10.0789049, "tags": {"addr:city": "Hamburg", "addr:country": "DE", "addr:housenumber": "171", "addr:postcode": "22111", "addr:street": "Horner Landstraße", "check_date:opening_hours": "2023-11-17", "contact:email": "mail@retrospieleclub.de", "contact:facebook": "https://www.facebook.com/retrospieleclub", "contact:mobile": "+49 177 722 46 33", "contact:website": "https://www.retrospieleclub.de", "fee": "yes", "name": "Retro Spiele Club Hamburg", "opening_hours": "Th 17:00-22:00", "tourism": "museum", "wheelchair": "yes"}}, {"type": "node", "id": 8617329283, "lat": 53.7278733, "lon": 10.2588193, "tags": {"addr:housenumber": "3", "addr:street": "Hamburger Straße", "museum": "history", "name": "Heimatmuseum Bargteheide", "tourism": "museum"}}, {"type": "node", "id": 8728264043, "lat": 53.5454201, "lon": 9.7619564, "tags": {"addr:city": "Jork", "addr:housenumber": "6", "addr:postcode": "21635", "addr:street": "Hinterbrack", "addr:suburb": "Borstel", "description": "Private Sammlung von Röhrenradios, Musiktruhen, Plattenspieler und Grammophone aus mehr als 40 Jahren.", "museum": "music;technology", "name": "Röhrenradio-Museum", "opening_hours": "We-Su 10:00-18:00", "operator": "Johann-Hinrich Schröder", "phone": "+49 40 7459420", "tourism": "museum"}}, {"type": "node", "id": 9226906937, "lat": 53.6672351, "lon": 10.0132293, "tags": {"description": "Das Wohnhaus von Loki und Alt-Kanzler Helmut Schmidt. Zugang nur nach vorheriger Anmeldung.", "museum": "person", "name": "Loki und Helmut Schmidt Wohnhaus", "operator": "Bundeskanzler-Helmut-Schmidt-Stiftung", "subject:wikidata": "Q2516", "subject:wikimedia_commons": "Category:Helmut Schmidt", "tourism": "museum", "website": "https://www.helmut-schmidt.de"}}, {"type": "node", "id": 9448464552, "lat": 53.546246, "lon": 9.9285296, "tags": {"fee": "donation", "museum": "person", "museum_type": "national", "name": "Heine Haus, Gartenhaus", "opening_hours": "\"Zu den Veranstaltungen und nach Vereinbarung\"", "operator": "Heine-Haus e.V.", "tourism": "museum", "website": "https://www.heine-haus-hamburg.de/", "wheelchair": "no"}}, {"type": "node", "id": 11027927036, "lat": 53.6531234, "lon": 10.088127, "tags": {"addr:city": "Hamburg", "addr:housenumber": "8", "addr:postcode": "22391", "addr:street": "Kritenbarg", "fee": "no", "museum": "history", "name": "Gedenkstätte Plattenhaus Poppenbüttel", "opening_hours": "Su 10:00-17:00; by appointment", "operator": "Stiftung Hamburger Gedenkstätten und Lernorte zur Erinnerung an die Opfer der NS-Verbrechen", "operator:type": "public", "phone": "+4940428131500", "tourism": "museum", "website": "https://poppenbuettel.gedenkstaetten-hamburg.de/", "wheelchair": "yes"}}, {"type": "node", "id": 11111327786, "lat": 53.5999318, "lon": 9.9317241, "tags": {"addr:city": "Hamburg", "addr:housenumber": "30", "addr:postcode": "22527", "addr:street": "Vogt-Kölln-Straße", "addr:unit": "Raum C-015", "fee": "no", "museum": "technology", "name": "Computer-Museum", "operator": "Universität Hamburg", "operator:type": "university", "tourism": "museum", "website": "https://www.inf.uni-hamburg.de/home/about/museum.html"}}, {"type": "node", "id": 11197512646, "lat": 53.5490465, "lon": 9.9345561, "tags": {"addr:housenumber": "23", "addr:street": "Museumstraße", "email": "info@kinderbuchhaus.de", "fee": "no", "name": "Kinderbuchhaus", "opening_hours": "Mo,We-Fr 10:00-17:00; Sa-Su 10:00-18:00", "phone": "+49 40 428135 1543", "tourism": "museum", "website": "https://www.kinderbuchhaus.de/", "wheelchair": "yes"}}, {"type": "node", "id": 11242020637, "lat": 53.5550006, "lon": 10.0114707, "tags": {"addr:housenumber": "8", "addr:postcode": "20099", "addr:street": "Hansaplatz", "email": "abc@wittuswitt.de", "name": "Zaubermuseum Bellachini", "opening_hours": "Th-Fr 11:00-17:00; Sa-Su 11:00-18:00", "operator": "Wittus Witt", "tourism": "museum", "website": "https://hamburger-zaubermuseum.com/", "wikidata": "Q115775596"}}, {"type": "node", "id": 11665936316, "lat": 53.6070319, "lon": 9.8313566, "tags": {"addr:city": "Schenefeld", "addr:housenumber": "91", "addr:postcode": "22869", "addr:street": "Achter de Weiden", "museum": "history", "name": "Stadtarchiv Schenefeld", "opening_hours": "ohne", "operator": "Stadt Schenefeld // Begehbare-Chronik.de", "tourism": "museum"}}, {"type": "node", "id": 11742284297, "lat": 53.5866024, "lon": 10.044828, "tags": {"fee": "no", "name": "Ausstellung am Turmbunker", "opening_hours": "24/7", "operator": "Geschichtswerkstatt Barmbek", "tourism": "museum", "wheelchair": "yes"}}, {"type": "node", "id": 11828710029, "lat": 53.565686, "lon": 9.9833114, "tags": {"addr:housenumber": "34", "addr:street": "Grindelallee", "changing_table": "no", "museum_type": "municipal", "name": "Gipsabguss-Sammlung der Universität Hamburg", "tourism": "museum", "wheelchair": "no"}}]}