{"version": 0.6, "generator": "Overpass API 0.7.62.1 084b4234", "osm3s": {"timestamp_osm_base": "2024-06-14T12:07:11Z", "copyright": "The data included in this document is from www.openstreetmap.org. The data is made available under ODbL."}, "elements": [{"type": "node", "id": 277932850, "lat": 53.6487772, "lon": 10.0128702, "tags": {"addr:city": "Hamburg", "addr:country": "DE", "addr:housenumber": "41", "addr:postcode": "22415", "addr:street": "Krohnstieg", "brand": "Kieser Training", "brand:wikidata": "Q1112367", "leisure": "fitness_centre", "name": "Kieser Training", "opening_hours": "Mo 08:00-22:00; Tu 07:00-22:00; We 08:00-22:00; Th 07:00-22:00; Fr 08:00-21:30; Sa 11:00-19:00; Su 09:00-18:00", "operator": "Kieser Training", "wheelchair": "yes"}}, {"type": "node", "id": 277932851, "lat": 53.6536763, "lon": 10.0896006, "tags": {"addr:city": "Hamburg", "addr:housenumber": "4", "addr:postcode": "22391", "addr:street": "Kritenbarg", "brand": "Kieser Training", "brand:wikidata": "Q1112367", "leisure": "fitness_centre", "name": "Kieser Training", "operator": "Kieser Training", "wheelchair": "no"}}, {"type": "node", "id": 277932852, "lat": 53.5942372, "lon": 10.0006659, "tags": {"addr:city": "Hamburg", "addr:country": "DE", "addr:housenumber": "6-7a", "addr:postcode": "22299", "addr:street": "Winterhuder Marktplatz", "brand": "Kieser Training", "brand:wikidata": "Q1112367", "brand:wikipedia": "de:Kieser Training", "check_date": "2023-04-26", "layer": "1", "leisure": "fitness_centre", "name": "Kieser Training", "opening_hours": "Mo-Fr 07:00-22:00; PH,Sa,Su 09:00-19:00", "phone": "+49 40 4607690", "website": "https://www.kieser-training.de/de/locations/detail/kieser-training-hamburg-winterhude/"}}, {"type": "node", "id": 304490927, "lat": 53.5938461, "lon": 9.9241167, "tags": {"brand": "McFit", "brand:wikidata": "Q871302", "brand:wikipedia": "en:McFit", "leisure": "fitness_centre", "name": "McFit", "wheelchair": "no"}}, {"type": "node", "id": 312427995, "lat": 53.4627635, "lon": 9.9834819, "tags": {"addr:city": "Hamburg", "addr:housenumber": "1", "addr:postcode": "21073", "addr:street": "Am Werder", "branch": "Club Hamburg Harbug", "leisure": "fitness_centre", "name": "John Reed Fitness", "opening_hours": "24/7", "phone": "+494076757511", "sport": "fitness", "website": "https://johnreed.fitness/club-hamburg-harburg", "wheelchair": "no"}}, {"type": "node", "id": 361140358, "lat": 53.5769159, "lon": 9.950748, "tags": {"addr:city": "Hamburg", "addr:housenumber": "37d", "addr:postcode": "20255", "addr:street": "Heußweg", "brand": "Kieser Training", "brand:wikidata": "Q1112367", "leisure": "fitness_centre", "level": "1", "name": "Kieser Training", "opening_hours": "Mo-Fr 07:00-22:00; PH,Sa,Su 09:00-19:00", "operator": "Kieser Training", "toilets:wheelchair": "no", "wheelchair": "yes"}}, {"type": "node", "id": 778236536, "lat": 53.5733626, "lon": 9.9402729, "tags": {"addr:city": "Hamburg", "addr:housenumber": "147", "addr:postcode": "22769", "addr:street": "Kieler Straße", "brand": "McFit", "brand:wikidata": "Q871302", "brand:wikipedia": "en:McFit", "contact:phone": "+49 40 8906 1495", "contact:website": "https://www.mcfit.com/de/fitnessstudios/studiosuche/studiodetails/studio/hamburg-stellingen-2/", "leisure": "fitness_centre", "name": "McFIT", "opening_hours": "24/7", "sport": "gymnastics", "wheelchair": "limited"}}, {"type": "node", "id": 831971781, "lat": 53.5750745, "lon": 10.0896165, "tags": {"addr:city": "Hamburg", "addr:housenumber": "30", "addr:postcode": "22041", "addr:street": "Am Neumarkt", "leisure": "fitness_centre", "name": "Eisenhauer Training", "opening_hours": "Mo-Fr 07:30-22:00; PH,Sa,Su 09:00-18:00", "wheelchair": "no"}}, {"type": "node", "id": 928371756, "lat": 53.5496609, "lon": 10.0657302, "tags": {"addr:city": "Hamburg", "addr:country": "DE", "addr:housenumber": "664", "addr:postcode": "20537", "addr:street": "Eiffestraße", "brand": "McFit", "brand:wikidata": "Q871302", "brand:wikipedia": "en:McFit", "check_date": "2023-05-07", "leisure": "fitness_centre", "name": "McFit", "opening_hours": "24/7", "phone": "+49 40 21116827", "sport": "gymnastics", "toilets:wheelchair": "no", "website": "https://www.mcfit.com/de/studios/studiosuche/studiodetails/studio/hamburg-hamm/", "wheelchair": "no"}}, {"type": "node", "id": 1589271234, "lat": 53.5619181, "lon": 9.9190842, "tags": {"brand": "Holmes Place", "brand:wikidata": "Q15815819", "check_date": "2023-07-02", "leisure": "fitness_centre", "level": "2", "name": "Holmes Place", "opening_hours": "Mo-Fr 06:30-23:00; Sa,Su 08:00-22:00", "payment:girocard": "yes", "payment:mastercard": "yes", "payment:visa": "yes", "website": "https://www.holmesplace.de/clubs/hamburg-bahrenfeld", "wheelchair": "no"}}, {"type": "node", "id": 1613188287, "lat": 53.5595898, "lon": 9.8826147, "tags": {"leisure": "fitness_centre", "name": "25 Minutes", "opening_hours": "Mo,We,Fr 07:00-14:00; Tu,Th 14:00-21:00;Sa 08:00-14:00;Su off", "website": "https://25minutes.de/studio/hamburg-othmarschen/", "wheelchair": "yes"}}, {"type": "node", "id": 1708446947, "lat": 53.5512307, "lon": 9.9385573, "tags": {"addr:housenumber": "44", "addr:postcode": "22767", "addr:street": "Schillerstraße", "check_date": "2023-10-10", "leisure": "fitness_centre", "name": "Lady Fitness Center", "sport": "gymnastics", "wheelchair": "no"}}, {"type": "node", "id": 1912192520, "lat": 53.5547917, "lon": 9.9807361, "tags": {"check_date": "2023-06-01", "check_date:opening_hours": "2024-03-17", "leisure": "fitness_centre", "name": "25Minutes", "opening_hours": "Mo,We 13:00-20:00; Tu,Th,Fr 07:00-14:00; Sa,Su 09:00-14:00"}}, {"type": "node", "id": 2144446964, "lat": 53.557723, "lon": 9.9853068, "tags": {"addr:city": "Hamburg", "addr:country": "DE", "addr:housenumber": "3", "addr:postcode": "20354", "addr:street": "Gorch-Fock-Wall", "leisure": "fitness_centre", "name": "ELB GYM", "opening_hours": "Mo-Fr 10:00-22:30; Sa-Su 10:00-18:00", "phone": "+49 40 35715678", "website": "http://www.elbgym.de"}}, {"type": "node", "id": 2268142634, "lat": 53.5557365, "lon": 10.0233955, "tags": {"check_date": "2023-08-24", "leisure": "fitness_centre", "name": "Hochschulsport Hamburg", "wheelchair": "no"}}, {"type": "node", "id": 2274544112, "lat": 53.4725521, "lon": 9.8492001, "tags": {"brand": "Mrs. Sporty", "brand:wikidata": "Q100718953", "contact:email": "club620@club.mrssporty.de", "contact:fax": "+49 40 76759749", "contact:phone": "+49 40 76759758", "contact:website": "http://www.mrssporty.de/club620", "leisure": "fitness_centre", "name": "Mrs. Sporty", "sport": "multi"}}, {"type": "node", "id": 2652360954, "lat": 53.5516753, "lon": 9.9435666, "tags": {"addr:housenumber": "156", "addr:street": "Große Bergstraße", "brand": "FitX", "brand:wikidata": "Q29031618", "check_date:opening_hours": "2023-02-02", "leisure": "fitness_centre", "name": "FitX", "opening_hours:signed": "no", "website": "https://www.fitx.de/fitnessstudios/hamburg-altona", "wheelchair": "no"}}, {"type": "node", "id": 2664230567, "lat": 53.4809859, "lon": 10.2071131, "tags": {"addr:city": "Hamburg", "addr:country": "DE", "addr:housenumber": "44", "addr:postcode": "21029", "addr:street": "Curslacker Neuer Deich", "check_date:opening_hours": "2024-05-09", "contact:website": "https://wellyou.eu/fitnessstudios/hamburg-bergedorf/", "leisure": "fitness_centre", "name": "Well You", "opening_hours": "Mo-Fr 06:00-23:00; Sa-Su 08:00-23:00; PH 09:00-21:00", "sauna": "no", "sport": "fitness", "swimming_pool": "no"}}, {"type": "node", "id": 2672107964, "lat": 53.4602701, "lon": 9.9761521, "tags": {"check_date:opening_hours": "2021-07-25", "leisure": "fitness_centre", "name": "Figurella - Fitness für Frauen", "opening_hours": "Mo-Fr 09:00-22:00, Sa 12:00-18:00, Su 10:00-16:00", "wheelchair": "limited"}}, {"type": "node", "id": 2734126557, "lat": 53.5580507, "lon": 9.9289857, "tags": {"addr:city": "Hamburg", "addr:country": "DE", "addr:housenumber": "260", "addr:postcode": "22765", "addr:street": "Bahrenfelder Straße", "leisure": "fitness_centre", "name": "LeFit Fitness", "opening_hours": "Mo-Fr 07:00-22:30; Sa 09:00-18:00; So 09:00-21:00:00", "phone": "+49 40 32 52 25 80", "sport": "fitness", "website": "https://www.lefit.de/", "wheelchair": "yes"}}, {"type": "node", "id": 2909009109, "lat": 53.5936039, "lon": 9.9874776, "tags": {"check_date:opening_hours": "2023-10-09", "leisure": "fitness_centre", "name": "youpila", "opening_hours:signed": "no", "sport": "yoga"}}, {"type": "node", "id": 3453832163, "lat": 53.581658, "lon": 9.9726787, "tags": {"addr:city": "Hamburg", "addr:housenumber": "60", "addr:postcode": "20253", "addr:street": "Hoheluftchaussee", "leisure": "fitness_centre", "name": "VIMODROM Hamburg Eppendorf", "opening_hours": "Mo-Fr 09:00-19:00", "operator": "Boy Thöming & Timm Klose", "phone": "+49 4089721999", "sport": "fitness", "wheelchair": "no"}}, {"type": "node", "id": 3656262460, "lat": 53.5536636, "lon": 10.0037254, "tags": {"brand": "Fitness First", "brand:wikidata": "Q127120", "brand:wikipedia": "en:Fitness First", "internet_access": "wlan", "leisure": "fitness_centre", "name": "Fitness First", "opening_hours": "24/7", "phone": "0403009080", "website": "https://www.fitnessfirst.de/clubs/hamburg-st-georg-hbf", "wheelchair": "no"}}, {"type": "node", "id": 3670769425, "lat": 53.551059, "lon": 9.944941, "tags": {"addr:city": "Hamburg", "addr:housenumber": "6", "addr:street": "Jessenstraße", "leisure": "fitness_centre", "name": "Sportspaß", "opening_hours": "closed", "phone": "+494038 90 422 - 0", "website": "https://sportspass.de/"}}, {"type": "node", "id": 3710974980, "lat": 53.6326676, "lon": 10.0255994, "tags": {"addr:city": "Hamburg", "addr:housenumber": "5", "addr:postcode": "22339", "addr:street": "Kleekamp", "brand": "Mrs. Sporty", "brand:wikidata": "Q100718953", "email": "club352@club.mrssporty.de", "leisure": "fitness_centre", "name": "Mrs. Sporty", "phone": "+49 40 38076092", "website": "https://www.mrssporty.de/club/hamburg-fuhlsbuettel/", "wheelchair": "limited"}}, {"type": "node", "id": 3711772874, "lat": 53.6318258, "lon": 10.0059935, "tags": {"brand": "Kieser Training", "brand:wikidata": "Q1112367", "leisure": "fitness_centre", "name": "Kieser Training"}}, {"type": "node", "id": 3791405160, "lat": 53.7315873, "lon": 10.0834823, "tags": {"leisure": "fitness_centre", "name": "omya", "sport": "yoga"}}, {"type": "node", "id": 3894315725, "lat": 53.6003827, "lon": 10.0071212, "tags": {"addr:city": "Hamburg", "addr:housenumber": "74", "addr:postcode": "22297", "addr:street": "Ohlsdorfer Straße", "entrance": "yes", "leisure": "fitness_centre", "name": "Hamburger Laufladen Turnhalle", "opening_hours:signed": "no"}}, {"type": "node", "id": 3896759457, "lat": 53.5575355, "lon": 9.9005613, "tags": {"addr:city": "Hamburg", "addr:housenumber": "2", "addr:postcode": "22605", "addr:street": "Baurstraße", "branch": "Hamburg Othmarschen", "brand": "McFit", "brand:wikidata": "Q871302", "leisure": "fitness_centre", "level": "1", "name": "McFit", "opening_hours": "24/7", "phone": "+49 40 8518 76 50", "sport": "fitness", "toilets:wheelchair": "yes", "website": "https://www.mcfit.com/de/studios/studiosuche/studiodetails/studio/hamburg-othmarschen/", "wheelchair": "yes", "wheelchair:description": "just regular toilets, but no stairs"}}, {"type": "node", "id": 3933531388, "lat": 53.548204, "lon": 9.9873849, "tags": {"addr:city": "Hamburg", "addr:country": "DE", "addr:housenumber": "9", "addr:postcode": "20459", "addr:street": "Rödingsmarkt", "branch": "Lifestyle Club", "brand": "Fitness First", "brand:wikidata": "Q127120", "check_date": "2023-12-18", "leisure": "fitness_centre", "name": "Fitness First", "opening_hours": "Mo-Th 07:00-23:00; Fr 07:00-22:00; Sa,Su 10:00-20:00", "sport": "gymnastics", "wheelchair": "no"}}, {"type": "node", "id": 3936380216, "lat": 53.5850746, "lon": 10.0591513, "tags": {"addr:city": "Hamburg", "addr:country": "DE", "addr:housenumber": "71", "addr:postcode": "22049", "addr:street": "Alter Teichweg", "check_date:opening_hours": "2023-07-26", "leisure": "fitness_centre", "name": "fitnessfabrik Wandsbek GmbH", "opening_hours": "Mo-Fr 07:00-23:00; Sa-Su 09:00-21:00; PH 10:00-18:00", "phone": "+49 40 95066620", "sport": "fitness;gymnastics", "website": "https://www.fitnessallianz.de/fitness-hamburg"}}, {"type": "node", "id": 3942090547, "lat": 53.6807621, "lon": 9.9999811, "tags": {"leisure": "fitness_centre", "name": "Schmuggel-Ladies", "sauna": "no", "swimming_pool": "no"}}, {"type": "node", "id": 4060461686, "lat": 53.6853769, "lon": 9.987345, "tags": {"brand": "Mrs. Sporty", "brand:wikidata": "Q100718953", "leisure": "fitness_centre", "name": "Mrs. Sporty", "opening_hours": "Mo 09:00-15:00,16:00-20:00; Tu 09:00-14:00,16:00-19:00; We 09:00-13:00,16:00-20:00; Th 09:00-14:00,16:00-19:00; Fr 09:00-13:00,15:00-18:00; Sa 08:00-12:00"}}, {"type": "node", "id": 4086544768, "lat": 53.6079919, "lon": 10.052494, "tags": {"addr:city": "Hamburg", "addr:housenumber": "28", "addr:postcode": "22309", "addr:street": "Schwarzer Weg", "leisure": "fitness_centre", "name": "FitX Hamburg-Steilshoop", "opening_hours": "24/7", "operator": "FitX Deutschland GmbH", "phone": "+49 40 64604851", "website": "https://www.fitx.de/studio/hamburg-steilshoop"}}, {"type": "node", "id": 4111266908, "lat": 53.556741, "lon": 9.9669329, "tags": {"amenity": "school", "contact:email": "info@gorillagym.hamburg", "contact:phone": "+49 40 43190440", "contact:website": "http://gorillagym.hamburg", "description": "Schule für Kampfsport", "leisure": "fitness_centre", "level": "2", "name": "GORILLA GYM Hamburg", "sport": "multi"}}, {"type": "node", "id": 4143215789, "lat": 53.4729729, "lon": 9.8523813, "tags": {"leisure": "fitness_centre", "name": "Clever Fit"}}, {"type": "node", "id": 4293785001, "lat": 53.6233394, "lon": 10.0163077, "tags": {"addr:housenumber": "28", "addr:postcode": "22335", "addr:street": "Röntgenstraße", "check_date": "2023-05-10", "leisure": "fitness_centre", "name": "FitX Hamburg-Airport", "opening_hours": "24/7", "operator": "FitX Deutschland GmbH", "phone": "+49 40 50097671", "website": "https://www.fitx.de/studio/hamburg-airport"}}, {"type": "node", "id": 4360503652, "lat": 53.6826452, "lon": 9.9873588, "tags": {"leisure": "fitness_centre", "level": "1", "name": "Crunch Fit Fitnessstudio"}}, {"type": "node", "id": 4362103496, "lat": 53.6247856, "lon": 10.1150093, "tags": {"addr:housenumber": "156", "addr:street": "Pezolddamm", "leisure": "fitness_centre", "name": "Raum für Bewegung und Stille", "opening_hours:signed": "no"}}, {"type": "node", "id": 4396100511, "lat": 53.615311, "lon": 9.905461, "tags": {"addr:city": "Hamburg", "addr:country": "DE", "addr:housenumber": "5", "addr:postcode": "22523", "addr:street": "Hörgensweg", "air_conditioning": "yes", "branch": "Eidelstedt", "check_date:opening_hours": "2022-02-22", "description": "Großraumfittnessstudio, bietet auch eine Sauna und Solarium", "email": "kontakt@benefit-fitness.de", "fee": "yes", "leisure": "fitness_centre", "name": "beneFit", "opening_hours": "24/7; PH off", "operator": "beneFit erste Betriebsgesellschaft mbH", "phone": "+49 40 57006642", "sport": "fitness", "website": "https://www.benefit-fitness.de/hamburg/", "wheelchair": "yes"}}, {"type": "node", "id": 4427661183, "lat": 53.4712443, "lon": 9.8620166, "tags": {"addr:city": "Hamburg", "addr:housenumber": "293b", "addr:postcode": "21149", "addr:street": "Cuxhavener Straße", "leisure": "fitness_centre", "name": "form-fit", "opening_hours": "Mo-Fr 08:00-22:30; Sa 10:00-18:00; Su 10:00-15:00", "phone": "+49-40-7013798", "website": "https://www.form-fit.de/"}}, {"type": "node", "id": 4451845503, "lat": 53.5570445, "lon": 10.0218619, "tags": {"check_date": "2023-08-24", "email": "mail@vitashape.de", "leisure": "fitness_centre", "name": "VitaShape", "opening_hours": "Mo,Tu,Th, Fr 10:00-14:00,16:00-21:00; We 12:00-14:00,16:00-21:00; Sa 10:00-15:00; Su off", "phone": "+49 40 20905785", "sport": "fitness", "website": "https://www.vitashape.de/"}}, {"type": "node", "id": 4452310871, "lat": 53.600444, "lon": 10.0072061, "tags": {"addr:city": "Hamburg", "addr:housenumber": "74", "addr:postcode": "22297", "addr:street": "Ohlsdorfer Straße", "check_date:opening_hours": "2022-04-11", "leisure": "fitness_centre", "name": "Hamburger Laufladen Turnhalle", "opening_hours:signed": "no", "operator": "Hamburger Laufladen e.K.", "url": "http://www.hamburger-laufladen.de/wordpress/turnhalle/"}}, {"type": "node", "id": 4453281366, "lat": 53.5595227, "lon": 9.9944017, "tags": {"leisure": "fitness_centre", "name": "elbgym"}}, {"type": "node", "id": 4556960548, "lat": 53.5864002, "lon": 10.0065666, "tags": {"leisure": "fitness_centre", "name": "Mattenzauber", "opening_hours": "Th 15:00-18:00; Fr 15:00-17:00; Sa 12:00-14:00; Su-We off", "phone": "+49 176 96113427", "sport": "yoga", "wheelchair": "limited"}}, {"type": "node", "id": 4558787796, "lat": 53.6090075, "lon": 9.8416274, "tags": {"leisure": "fitness_centre", "name": "Fitness World", "opening_hours": "Sa-Su 12:00-16:00", "phone": "+49 4145 1199", "website": "https://fitnessworld-schenefeld.de/"}}, {"type": "node", "id": 4581965977, "lat": 53.5955884, "lon": 10.0478005, "tags": {"addr:city": "Hamburg", "addr:country": "DE", "addr:housenumber": "124", "addr:postcode": "22307", "addr:street": "Habichtstraße", "check_date:opening_hours": "2022-12-06", "leisure": "fitness_centre", "name": "Glückspilze", "opening_hours:signed": "no"}}, {"type": "node", "id": 4585504194, "lat": 53.5687912, "lon": 10.0966096, "tags": {"leisure": "fitness_centre", "name": "Praxis Wirkner-Thiel", "sport": "yoga", "website": "https://www.prana-und-yoga-hamburg.de/"}}, {"type": "node", "id": 4602711447, "lat": 53.5786196, "lon": 9.917562, "tags": {"addr:city": "Hamburg", "addr:housenumber": "43 - 45", "addr:postcode": "22525", "addr:street": "Schnackenburgallee", "leisure": "fitness_centre", "name": "FitX", "opening_hours": "24/7", "website": "https://www.fitx.de/fitnessstudios/hamburg-bahrenfeld", "wheelchair": "no"}}, {"type": "node", "id": 4639629789, "lat": 53.5552337, "lon": 9.9279659, "tags": {"email": "mail@christian-spruner.de", "leisure": "fitness_centre", "name": "SANBAO-Schule für Taichi und Qigong", "phone": "+49 40 99993155", "website": "https://www.christian-spruner.de"}}, {"type": "node", "id": 4659594876, "lat": 53.668562, "lon": 10.2468592, "tags": {"leisure": "fitness_centre", "name": "Villa Fit", "website": "https://villafit.de/"}}, {"type": "node", "id": 4760054204, "lat": 53.6038297, "lon": 10.0394103, "tags": {"leisure": "fitness_centre", "name": "Meridian Spa", "opening_hours": "Mo-Fr 06:30-23:00; Sa,Su 09:00-22:00", "sport": "multi", "website": "https://www.meridianspa.de/standorte/meridianspa-barmbek.html"}}, {"type": "node", "id": 4843506123, "lat": 53.4591522, "lon": 9.9841643, "tags": {"addr:city": "Hamburg", "addr:housenumber": "8", "addr:postcode": "21073", "addr:street": "Lüneburger Tor", "brand": "FIT/ONE", "contact:phone": "+49 40 70299860", "contact:website": "https://www.fit-one.de/hamburg-harburg.html", "fee": "yes", "leisure": "fitness_centre", "level": "0;1;2", "name": "FIT/ONE Hamburg-Harburg", "opening_hours": "Mo-Su 06:00-24:00; PH \"Siehe Aushang\"", "operator": "FIT/One GmbH", "phone": "+49 40 70299860", "sport": "weightlifting;fitness"}}, {"type": "node", "id": 4845110621, "lat": 53.4597815, "lon": 9.9844401, "tags": {"leisure": "fitness_centre", "name": "Sportspaß", "opening_hours": "Mo-Fr 09:45-21:00; Sa,Su 09:45-19:00"}}, {"type": "node", "id": 4845141482, "lat": 53.4821259, "lon": 9.9085712, "tags": {"leisure": "fitness_centre", "name": "CrossFit"}}, {"type": "node", "id": 4845142508, "lat": 53.4720006, "lon": 9.9241043, "tags": {"leisure": "fitness_centre", "name": "fitcompany"}}, {"type": "node", "id": 4845149344, "lat": 53.4642302, "lon": 9.9858057, "tags": {"leisure": "fitness_centre", "name": "EASYFITNESS"}}, {"type": "node", "id": 4845152878, "lat": 53.4615922, "lon": 9.9850483, "tags": {"check_date": "2024-03-20", "leisure": "fitness_centre", "name": "Trust Gym"}}, {"type": "node", "id": 4860612046, "lat": 53.562417, "lon": 10.03131, "tags": {"brand": "McFit", "brand:wikidata": "Q871302", "check_date": "2024-04-06", "leisure": "fitness_centre", "name": "McFit"}}, {"type": "node", "id": 4937565769, "lat": 53.5729339, "lon": 9.9604418, "tags": {"addr:city": "Hamburg", "addr:housenumber": "64", "addr:postcode": "20259", "addr:street": "Eppendorfer Weg", "leisure": "fitness_centre", "name": "Tai Chi Schule Daniel Grolle", "operator": "Daniel Grolle", "phone": "+49 40 76906734", "sport": "tai_chi", "website": "https://www.taichi-spielen.de/"}}, {"type": "node", "id": 4951486023, "lat": 53.5569302, "lon": 10.0192652, "tags": {"check_date": "2023-05-06", "leisure": "fitness_centre", "name": "Olympic Fitness", "opening_hours": "Mo,We-Fr 10:30-22:00, Tu 09:00-22:00, Sa,Su 12:00-17:00", "wheelchair": "limited"}}, {"type": "node", "id": 5037345747, "lat": 53.4674172, "lon": 9.9861659, "tags": {"addr:housenumber": "6", "addr:street": "Lotsestieg", "contact:facebook": "https://www.facebook.com/Crossfit-Voluntas-729924403758926/", "leisure": "fitness_centre", "name": "Crossfit Voluntas"}}, {"type": "node", "id": 5128031001, "lat": 53.5749745, "lon": 10.0374418, "tags": {"addr:city": "Hamburg", "addr:country": "DE", "addr:housenumber": "1", "addr:postcode": "22081", "addr:street": "Holsteinischer Kamp", "email": "info@lorenzentraining.de", "leisure": "fitness_centre", "name": "Lorenzen Training", "opening_hours": "Mo-Fr 07:00-22:00; Sa-Su 09:00-18:00", "phone": "+494027868858", "source": "https://www.lorenzentraining.de/", "website": "https://www.lorenzentraining.de/"}}, {"type": "node", "id": 5233553017, "lat": 53.4877047, "lon": 10.2169946, "tags": {"brand": "TSG Bergedorf", "brand:wikidata": "Q820800", "brand:wikipedia": "de:TSG Bergedorf", "contact:website": "https://www.tsg-bergedorf.de/sportanlagen/tsg-sportzentrum-bult/", "leisure": "fitness_centre", "name": "TSG Sportzentrum Bult", "operator": "TSG Bergedorf", "operator:wikidata": "Q820800", "operator:wikipedia": "de:TSG Bergedorf"}}, {"type": "node", "id": 5262248222, "lat": 53.5883082, "lon": 10.0075793, "tags": {"addr:city": "Hamburg", "addr:country": "DE", "addr:housenumber": "33", "addr:postcode": "22301", "addr:street": "Krohnskamp", "leisure": "fitness_centre", "name": "On Stage Training Center", "opening_hours": "Mo, Fr 10:00-22:30; Tu-Th 07:00-22:30; Sa, Su 10:00-20:00", "phone": "+49-40-69454050", "website": "https://www.on-stage.de/"}}, {"type": "node", "id": 5470793044, "lat": 53.5101299, "lon": 10.1975945, "tags": {"leisure": "fitness_centre", "name": "Easy Fitness", "opening_hours": "Mo,We,Fr 09:00-23:00; Tu,Th 07:00-23:00; Sa,Su 10:00-18:00"}}, {"type": "node", "id": 5484681218, "lat": 53.5577907, "lon": 9.9871859, "tags": {"addr:city": "Hamburg", "addr:housenumber": "1a", "addr:postcode": "20354", "addr:street": "Gorch-Fock-Wall", "brand": "Fitness First", "brand:wikidata": "Q127120", "brand:wikipedia": "en:Fitness First", "check_date:opening_hours": "2023-09-10", "leisure": "fitness_centre", "name": "Fitness First", "opening_hours": "Mo-Fr 06:00-22:00; PH,Sa-Su 09:00-21:00", "phone": "+49 40 18 21 08 10", "website": "https://www.fitnessfirst.de/clubs/fitnessstudio-hamburg-stephansplatz"}}, {"type": "node", "id": 5626998395, "lat": 53.6330695, "lon": 9.9552316, "tags": {"addr:city": "Hamburg", "addr:country": "DE", "addr:housenumber": "9", "addr:postcode": "22459", "addr:street": "Krähenweg", "addr:suburb": "Niendorf", "check_date:opening_hours": "2023-04-10", "leisure": "fitness_centre", "name": "FitnessCenter-Niendorf", "opening_hours": "Mo-Fr 10:00-22:00; Sa,Su 11:00-18:00", "phone": "+49 40 55505550", "source": "website", "website": "https://www.fitness-center-niendorf.de"}}, {"type": "node", "id": 5729579030, "lat": 53.7297495, "lon": 10.2697043, "tags": {"leisure": "fitness_centre", "name": "TZG-Fit", "sport": "fitness", "website": "https://www.tzgbargteheide.de"}}, {"type": "node", "id": 5729579031, "lat": 53.7290175, "lon": 10.2691733, "tags": {"addr:city": "Bargteheide", "addr:housenumber": "5A", "addr:postcode": "22941", "addr:street": "Bahnhofstraße", "leisure": "fitness_centre", "name": "Enjoy", "sport": "fitness", "website": "https://enjoy-fitness-bargteheide.de/impressum/"}}, {"type": "node", "id": 5825121088, "lat": 53.5785773, "lon": 10.0383738, "tags": {"addr:housenumber": "181", "addr:street": "Hamburger Straße", "leisure": "fitness_centre", "name": "BOX1.Hamburg", "opening_hours": "\"Termine nach Vereinbarung\"", "operator": "BOX1.Hamburg GmbH", "website": "https://www.box1.hamburg"}}, {"type": "node", "id": 5861050599, "lat": 53.6023012, "lon": 10.0410891, "tags": {"addr:city": "Hamburg", "addr:country": "DE", "addr:housenumber": "396", "addr:postcode": "22309", "addr:street": "Fuhlsbüttler Straße", "check_date:opening_hours": "2022-11-08", "email": "barmbek@fitbox.de", "leisure": "fitness_centre", "name": "EMS Fitnessstudio fitbox", "opening_hours": "Mo-Fr 08:00-20:00; Sa 09:00-16:00", "phone": "+49 176 95800948", "website": "https://www.fitbox.de/studios/standorte/standorte-details/fitbox-hamburg-barmbek/e9872ad98057e80ea4765fba2ff5e386/"}}, {"type": "node", "id": 5861133409, "lat": 53.6029705, "lon": 10.0448182, "tags": {"addr:city": "Hamburg", "addr:housenumber": "11", "addr:postcode": "22307", "addr:street": "Hartzlohplatz", "description": "NAYOKi - Freiraum für Yoga und Kinesiologie in Barmbek", "email": "info@nayoki-methode.de", "leisure": "fitness_centre", "name": "NAYOKi", "opening_hours": "\"Info & Termine 040 64 53 22 49\"", "phone": "+49 40 64532249", "sport": "yoga"}}, {"type": "node", "id": 5899981751, "lat": 53.5803677, "lon": 10.042302, "tags": {"check_date": "2023-08-05", "leisure": "fitness_centre", "name": "gymaholic.de"}}, {"type": "node", "id": 5901418253, "lat": 53.6028861, "lon": 10.0165072, "tags": {"addr:city": "Hamburg", "addr:housenumber": "32-34", "addr:postcode": "22297", "addr:street": "Überseering", "leisure": "fitness_centre", "name": "beneFit", "opening_hours": "Mo-Fr 7:00 - 23:00; Sa-Su,PH 8:00 - 22:00", "phone": "+49 40 64604880", "sport": "fitness", "website": "https://www.benefit-fitness.de/hamburg-winterhude/"}}, {"type": "node", "id": 5914861524, "lat": 53.6131729, "lon": 10.0749966, "tags": {"addr:city": "Hamburg", "addr:country": "DE", "addr:housenumber": "239", "addr:postcode": "22177", "addr:street": "Bramfelder Chaussee", "leisure": "fitness_centre", "name": "Körperformen", "opening_hours": "\"Termine nach Vereinbarung\""}}, {"type": "node", "id": 6125050116, "lat": 53.6500909, "lon": 10.0132944, "tags": {"addr:city": "Hamburg", "addr:housenumber": "1-18", "addr:postcode": "22415", "addr:street": "Langenhorner Markt", "construction:leisure": "fitness_centre", "construction:website": "https://www.fit-one.de/", "email": "hamburg-langenhorn@fit-one.de", "leisure": "fitness_centre", "level": "1", "name": "FIT/ONE Hamburg-Langenhorn", "opening_hours": "Mo-Su 06:00-24:00", "sport": "gym;fitness", "website": "https://www.fit-one.de/hamburg-langenhorn.html"}}, {"type": "node", "id": 6130513084, "lat": 53.5633577, "lon": 9.8122513, "tags": {"leisure": "fitness_centre", "name": "EVO", "opening_hours": "PH,Mo-Su 06:00-23:00"}}, {"type": "node", "id": 6187788955, "lat": 53.5946434, "lon": 9.9864836, "tags": {"check_date:opening_hours": "2022-10-18", "description": "Pure Lady Fitness", "leisure": "fitness_centre", "name": "Sporteve", "opening_hours": "Mo,We,Th 08:30-20:30; Tu,Fr 08:30-20:00; Sa 09:00-15:00; Su 10:00-12:00"}}, {"type": "node", "id": 6189747885, "lat": 53.5591194, "lon": 9.9300163, "tags": {"addr:housenumber": "136", "addr:postcode": "22765", "addr:street": "Gaußstraße", "check_date:opening_hours": "2024-06-03", "email": "info@odissi.de", "leisure": "fitness_centre", "name": "Odissi Tanz Atellier", "name:en": "Odissi Dance Studio", "opening_hours": "Mo,We-Th 18:00-20:00", "opening_hours:signed": "no", "website": "https://www.odissi.de/", "wheelchair": "no"}}, {"type": "node", "id": 6208794759, "lat": 53.6514954, "lon": 10.0961343, "tags": {"check_date:opening_hours": "2023-09-18", "leisure": "fitness_centre", "name": "25MINUTES", "opening_hours": "Mo,We,Fr 07:00-14:00,16:00-20:00; Tu,Th 10:00-14:00,16:00-20:00; Sa 09:00-14:00", "website": "https://www.25minutes.de/25minutes-hamburg-poppenbuettel/"}}, {"type": "node", "id": 6323071012, "lat": 53.5531431, "lon": 10.0022762, "tags": {"leisure": "fitness_centre", "level": "1", "name": "Body Focus"}}, {"type": "node", "id": 6395667898, "lat": 53.6681701, "lon": 10.0947893, "tags": {"leisure": "fitness_centre", "name": "Klimmzugstangen", "opening_hours": "24/7"}}, {"type": "node", "id": 6550277942, "lat": 53.4731596, "lon": 9.8495665, "tags": {"leisure": "fitness_centre", "name": "Sportline", "opening_hours": "Mo-Fr 09:00-22:00; Sa,Su 09:00-21:00", "sport": "multi"}}, {"type": "node", "id": 6668054918, "lat": 53.5859647, "lon": 10.0331224, "tags": {"addr:city": "Hamburg", "addr:housenumber": "7", "addr:postcode": "22303", "addr:street": "Saarlandstraße", "check_date:opening_hours": "2023-06-04", "leisure": "fitness_centre", "name": "Hansa Yoga", "opening_hours:signed": "no", "sport": "yoga", "website": "http://www.hansa-yoga.de/"}}, {"type": "node", "id": 6749249135, "lat": 53.6787066, "lon": 10.0009132, "tags": {"brand": "McFit", "brand:wikidata": "Q871302", "brand:wikipedia": "en:McFit", "leisure": "fitness_centre", "name": "McFit", "opening_hours": "Mo-Fr 06:00-24:00; PH,Sa,Su 08:00-22:00", "sport": "fitness"}}, {"type": "node", "id": 6833068501, "lat": 53.4887846, "lon": 10.202381, "tags": {"addr:city": "Hamburg", "addr:housenumber": "5", "addr:postcode": "21033", "addr:street": "Kurt-A.-Körber-Chaussee", "contact:email": "info@studio-mohnblume.de", "contact:mobile": "+49 151 11171664", "contact:website": "https://www.studio-mohnblume.de/", "leisure": "fitness_centre", "name": "Studio Mohnblume", "sport": "yoga;acrobatics;pole_dance"}}, {"type": "node", "id": 6933092385, "lat": 53.7288802, "lon": 9.7784089, "tags": {"addr:housenumber": "11a", "addr:postcode": "25373", "addr:street": "Dorfstraße", "email": "post@yoga-glow.de", "leisure": "fitness_centre", "name": "Yoga Glow", "opening_hours": "Mo 18:00-21:00; Tu 19:30-21:00; We 17:00-20:30; Th 09:30-11:00, 18:30-20:00; Fr 10:00-11:15", "website": "http://yoga-glow.de"}}, {"type": "node", "id": 7070471817, "lat": 53.731097, "lon": 9.8995413, "tags": {"addr:city": "Quickborn", "addr:country": "DE", "addr:housenumber": "11", "addr:postcode": "25451", "addr:street": "Bahnhofstraße", "email": "info@activewomen-quickborn.de", "leisure": "fitness_centre", "name": "Active Woman", "opening_hours": "Mo-Th 09:00-12:30,15:30-19:00; Fr 09:00-13:00", "phone": "+49 4106 643 122", "phone:mobile": "+49 15254254724", "website": "https://www.activewomen-quickborn.de"}}, {"type": "node", "id": 7195649434, "lat": 53.5878385, "lon": 10.0450238, "tags": {"addr:city": "Hamburg", "addr:country": "DE", "addr:housenumber": "7", "addr:postcode": "22305", "addr:street": "Krüsistraße", "check_date": "2023-05-01", "leisure": "fitness_centre", "name": "TRU Fitness", "opening_hours": "Mo-Fr 06:30-23:00; Sa,Su 09:00-21:00", "website": "https://trufitness.de/"}}, {"type": "node", "id": 7216455024, "lat": 53.5104085, "lon": 9.984953, "tags": {"addr:housenumber": "23", "addr:street": "Neuhöfer Straße", "addr:unit": "6", "leisure": "fitness_centre", "name": "Die Fitness Insel", "opening_hours": "Mo-Fr 08:00-22:00; Sa,Su 10:00-18:00", "phone": "+49407521455", "sport": "fitness", "website": "https://die-fitness-insel.hamburg/"}}, {"type": "node", "id": 7236067462, "lat": 53.6069831, "lon": 10.1187564, "tags": {"addr:housenumber": "2b", "addr:street": "August-Krogmann-Straße", "leisure": "fitness_centre", "name": "Adhuna Veda Hamburg", "sport": "yoga", "website": "https://www.adhuna-veda.de"}}, {"type": "node", "id": 7477310916, "lat": 53.5704862, "lon": 10.061476, "tags": {"addr:city": "Hamburg", "addr:housenumber": "2", "addr:postcode": "22041", "addr:street": "Wandsbeker Marktstraße", "brand": "Fitness First", "brand:wikidata": "Q127120", "brand:wikipedia": "en:Fitness First", "check_date": "2023-07-23", "leisure": "fitness_centre", "name": "Fitness First", "opening_hours": "Mo-We 07:00-23:00; Th,Fr 07:00-22:00; PH,Sa,Su 10:00-21:00"}}, {"type": "node", "id": 7622963906, "lat": 53.4613687, "lon": 9.9856308, "tags": {"check_date": "2024-03-20", "contact:phone": "+49 40 360992020", "contact:website": "http://fitness-lounge.info", "leisure": "fitness_centre", "name": "fitness Lounge"}}, {"type": "node", "id": 7655276840, "lat": 53.5459392, "lon": 10.1526717, "tags": {"addr:city": "Oststeinbek", "addr:housenumber": "1", "addr:postcode": "22113", "addr:street": "Willinghusener Weg", "leisure": "fitness_centre", "name": "Sportsfreund fitness Hamburg", "opening_hours": "Mo-Su 07:00-23:00", "phone": "+49 40 60792789", "sport": "fitness;yoga", "website": "https://sportsfreund-fitness-hamburg.de/"}}, {"type": "node", "id": 7696168734, "lat": 53.5998284, "lon": 9.9621755, "tags": {"addr:housenumber": "8-10", "addr:postcode": "22529", "addr:street": "Vogt-Wells-Straße", "check_date:opening_hours": "2023-02-14", "leisure": "fitness_centre", "name": "MYO LAB", "opening_hours": "Mo-Fr 10:00-19:00; Sa 10:00-16:00", "opening_hours:signed": "no", "shop": "vacant", "website": "https://myo-lab.de/", "wheelchair": "yes"}}, {"type": "node", "id": 7890878599, "lat": 53.5552038, "lon": 10.0127039, "tags": {"addr:city": "Hamburg", "addr:housenumber": "4", "addr:postcode": "20099", "addr:street": "Rostocker Straße", "email": "info@urbanyoga.hamburg", "leisure": "fitness_centre", "name": "Urban Yoga", "phone": "+49 40 30 71 04 30", "sport": "yoga", "website": "https://urbanyoga.hamburg", "wheelchair": "limited"}}, {"type": "node", "id": 7948594971, "lat": 53.6678369, "lon": 9.994227, "tags": {"addr:city": "Hamburg", "addr:housenumber": "4", "addr:postcode": "22419", "addr:street": "Essener Straße", "leisure": "fitness_centre", "name": "Elixia", "sport": "fitness"}}, {"type": "node", "id": 8071204453, "lat": 53.585643, "lon": 9.9719393, "tags": {"branch": "Eppendorf", "brand": "Fitness First", "brand:wikidata": "Q127120", "check_date": "2023-07-30", "leisure": "fitness_centre", "name": "Fitness First", "opening_hours": "Mo-Fr 06:00-23:00; PH,Sa,Su 09:00-21:00", "operator": "Fitness First", "sport": "fitness", "wheelchair": "no"}}, {"type": "node", "id": 8113416642, "lat": 53.585301, "lon": 9.9693462, "tags": {"contact:website": "https://www.movimental.de/", "fixme": "Besseres Tagging, fitness centre passt vermutlich nur marginal", "leisure": "fitness_centre", "name": "Movimental Bewegungsspielträume e.V."}}, {"type": "node", "id": 8147575305, "lat": 53.5537886, "lon": 9.9791542, "tags": {"addr:city": "Hamburg", "addr:housenumber": "11a", "addr:postcode": "20355", "addr:street": "Pilatuspool", "description": "Zentrum für Yoga und Begegnung", "image": "https://www.devah.de/wp-content/uploads/2020/01/devah_Logo_Final_4-300x300.png", "leisure": "fitness_centre", "name": "Devah Yoga e.V.", "phone": "+49 40 3567 6970", "sport": "yoga", "website": "https://www.devah.de"}}, {"type": "node", "id": 8381611461, "lat": 53.5512921, "lon": 9.9872019, "tags": {"check_date:opening_hours": "2022-11-14", "leisure": "fitness_centre", "name": "Elbgym", "opening_hours:signed": "no", "website": "https://elbgym.de/boutique-fitnessstudio-hamburg-innenstadt-stadthoefe/"}}, {"type": "node", "id": 8510292166, "lat": 53.566534, "lon": 10.0587384, "tags": {"addr:city": "Hamburg", "addr:country": "DE", "addr:housenumber": "16a", "addr:postcode": "22089", "addr:street": "Pappelallee", "leisure": "fitness_centre", "name": "Hama Studio", "shop": "massage", "sport": "yoga", "website": "https://hama-studio.de/"}}, {"type": "node", "id": 8662559266, "lat": 53.6661576, "lon": 9.7932798, "tags": {"addr:city": "Pinneberg", "addr:housenumber": "43", "addr:postcode": "25421", "addr:street": "Elmshorner Straße", "brand": "Mrs. Sporty", "brand:wikidata": "Q100718953", "leisure": "fitness_centre", "name": "Mrs. Sporty", "phone": "+49 4101 7885064", "sport": "fitness", "website": "https://www.mrssporty.de/club/pinneberg/"}}, {"type": "node", "id": 8824393360, "lat": 53.5716414, "lon": 10.0643392, "tags": {"leisure": "fitness_centre", "name": "Fusion Gym", "opening_hours": "Mo,Tu,Th,Sa 10:00-14:00, Fr 08:00-14:00, Mo,Tu,Th 16:00-20:00"}}, {"type": "node", "id": 8837891751, "lat": 53.5629243, "lon": 9.9321787, "tags": {"brand": "Fitness First", "brand:wikidata": "Q127120", "contact:website": "https://www.fitnessfirst.de/clubs/hamburg-altona", "leisure": "fitness_centre", "name": "Fitness First", "opening_hours": "Mo-Th 07:00-23:00; Fr 07:00-22:00; Sa,Su 09:00-21:00", "wheelchair": "yes"}}, {"type": "node", "id": 8990657876, "lat": 53.5960738, "lon": 10.0437626, "tags": {"addr:city": "Hamburg", "addr:country": "DE", "addr:housenumber": "228", "addr:postcode": "22307", "addr:street": "Fuhlsbüttler Straße", "leisure": "fitness_centre", "name": "Yogibude", "opening_hours": "\"siehe Kursplan\"", "sport": "yoga", "website": "https://www.yogibude.de/"}}, {"type": "node", "id": 8998071774, "lat": 53.5957476, "lon": 10.0432567, "tags": {"addr:city": "Hamburg", "addr:country": "DE", "addr:housenumber": "225", "addr:postcode": "22307", "addr:street": "Fuhlsbüttler Straße", "check_date:opening_hours": "2023-10-10", "leisure": "fitness_centre", "name": "Körper Formen", "opening_hours:signed": "no"}}, {"type": "node", "id": 9004760408, "lat": 53.5795673, "lon": 9.9186595, "tags": {"addr:city": "Hamburg", "addr:housenumber": "50", "addr:postcode": "22525", "addr:street": "Schnackenburgallee", "check_date": "2024-02-25", "leisure": "fitness_centre", "name": "FIT/ONE Hamburg", "opening_hours": "Mo-Su 6:00- 24:00", "phone": "+49 40 85157172", "website": "https://www.fit-one.de/hamburg.html", "wheelchair": "no"}}, {"type": "node", "id": 9035873139, "lat": 53.5611332, "lon": 9.9671132, "tags": {"check_date:opening_hours": "2023-04-30", "leisure": "fitness_centre", "level": "0", "name": "EVO Fitness Clubs", "opening_hours": "PH,Mo-Su 06:00-23:00"}}, {"type": "node", "id": 9131956039, "lat": 53.5734923, "lon": 9.9401605, "tags": {"addr:city": "Hamburg", "addr:housenumber": "147", "addr:postcode": "22769", "addr:street": "Kieler Straße", "check_date": "2023-12-28", "contact:email": "kontakt@joinjoga.de", "contact:website": "https://joinjoga.de/yoga-hamburg/", "leisure": "fitness_centre", "level": "5", "name": "[jo:ga]", "sport": "yoga"}}, {"type": "node", "id": 9207303912, "lat": 53.6098847, "lon": 9.8400996, "tags": {"leisure": "fitness_centre", "name": "CrossFit Maschinenhalle", "sport": "crossfit", "website": "https://www.maschinenhalle-hh.de/"}}, {"type": "node", "id": 9209611342, "lat": 53.5964924, "lon": 9.9758877, "tags": {"addr:city": "Hamburg", "addr:housenumber": "26", "addr:postcode": "20251", "addr:street": "Christoph-Probst-Weg", "leisure": "fitness_centre", "name": "Urban Bodies", "opening_hours": "Mo-Fr 07:00-22:00; Sa-Su 09:00-20:00; PH 10:00-16:00", "phone": "+494098764987", "sport": "fitness", "website": "https://www.urban-bodies.de/"}}, {"type": "node", "id": 9422789680, "lat": 53.5632458, "lon": 9.9307833, "tags": {"check_date:opening_hours": "2023-09-16", "contact:website": "https://fit4thegame.com/", "leisure": "fitness_centre", "name": "fit4thegame", "opening_hours:signed": "no", "sport": "gymnastics", "wheelchair": "no"}}, {"type": "node", "id": 9423663323, "lat": 53.580613, "lon": 10.0797056, "tags": {"addr:city": "Hamburg", "addr:housenumber": "140-142", "addr:postcode": "22041", "addr:street": "Walddörferstraße", "leisure": "fitness_centre", "name": "John Reed", "opening_hours": "24/7", "sport": "fitness", "website": "https://johnreed.fitness/club-hamburg-wandsbek"}}, {"type": "node", "id": 9427886188, "lat": 53.5657874, "lon": 9.9821338, "tags": {"brand": "Mrs. Sporty", "brand:wikidata": "Q100718953", "contact:email": "club325@club.mrssporty.de", "contact:phone": "+49 40 226 008 78", "contact:website": "https://www.mrssporty.de/club/hamburg-rotherbaum/", "leisure": "fitness_centre", "name": "Mrs. Sporty", "opening_hours": "Mo-Su 06:00-22:00"}}, {"type": "node", "id": 9442383065, "lat": 53.5824052, "lon": 9.965709, "tags": {"leisure": "fitness_centre", "name": "Yogaschule Claudia Mahler", "sport": "yoga"}}, {"type": "node", "id": 9442431767, "lat": 53.5839415, "lon": 9.9535928, "tags": {"check_date:opening_hours": "2023-01-08", "email": "lokstedt@moves-training.de", "leisure": "fitness_centre", "level": "1", "name": "moves", "opening_hours:signed": "no", "operator": "Jörn Stille", "phone": "+494022625833"}}, {"type": "node", "id": 9603502913, "lat": 53.5736922, "lon": 9.9711601, "tags": {"leisure": "fitness_centre", "name": "Yoga-Connection Hamburg", "sport": "yoga", "start_date": "2015", "website": "https://yoga-connection-hamburg.de/", "wheelchair": "no"}}, {"type": "node", "id": 9687018756, "lat": 53.6132254, "lon": 10.0773315, "tags": {"addr:city": "Hamburg", "addr:housenumber": "10", "addr:postcode": "22179", "addr:street": "Bramfelder Dorfplatz", "contact:email": "info@vimodrom-hamburg.de", "contact:phone": "+49 40 63689063", "contact:website": "https://www.vimodrom.de", "leisure": "fitness_centre", "name": "VIMODROM Hamburg Bramfeld", "opening_hours": "Mo-Fr 09:00-19:00"}}, {"type": "node", "id": 9687018757, "lat": 53.6131379, "lon": 10.0769466, "tags": {"addr:city": "Hamburg", "addr:housenumber": "4 D", "addr:postcode": "22179", "addr:street": "Bramfelder Dorfplatz", "contact:email": "info@vimodrom-hamburg.de", "contact:phone": "+49 40 63689063", "contact:website": "https://www.vimodrom.de", "leisure": "fitness_centre", "name": "VIMODROM", "opening_hours": "Mo-Fr 09:00-19:00"}}, {"type": "node", "id": 9788810517, "lat": 53.5619851, "lon": 9.9676518, "tags": {"check_date:opening_hours": "2023-05-31", "leisure": "fitness_centre", "name": "Boxclub Epeios", "name:de": "Epeios Boxclub", "name:en": "Epeios Boxclub", "opening_hours:signed": "no", "phone": "+49 40 24869657", "website": "http://epeios-boxen.de"}}, {"type": "node", "id": 9821234587, "lat": 53.6535846, "lon": 10.113194, "tags": {"addr:city": "Hamburg", "addr:country": "DE", "addr:housenumber": "11", "addr:postcode": "22393", "addr:street": "Saseler Markt", "brand": "Mrs. Sporty", "brand:wikidata": "Q100718953", "contact:website": "https://www.mrssporty.de/club/hamburg-sasel/", "leisure": "fitness_centre", "name": "Mrs. Sporty", "opening_hours": "Mo-Fr 09:00-13:00,16:00-19:00; Sa 09:00-13:00"}}, {"type": "node", "id": 9872165967, "lat": 53.4719404, "lon": 9.8532132, "tags": {"addr:city": "Hamburg", "addr:housenumber": "4", "addr:postcode": "21149", "addr:street": "Groot Enn", "contact:email": "namaste@jonja-yoga.de", "contact:phone": "+49 176 63245545", "contact:website": "https://www.jonja-yoga.de/", "leisure": "fitness_centre", "name": "Jonja Yoga", "sport": "yoga"}}, {"type": "node", "id": 9907523145, "lat": 53.5558758, "lon": 9.9846811, "tags": {"addr:city": "Hamburg", "addr:housenumber": "88", "addr:postcode": "20355", "addr:street": "Valentinskamp", "leisure": "fitness_centre", "name": "Urban Heroes Hamburg Fitness", "opening_hours": "Mo-Th-Fr 05:30-21:30; Sa 07:30-19:30; Su 07:30-13:30,14:30-19:30", "phone": "+494064835388", "website": "https://www.urbanheroes.com/"}}, {"type": "node", "id": 9980659021, "lat": 53.5425977, "lon": 10.0016874, "tags": {"addr:city": "Hamburg", "addr:country": "DE", "addr:housenumber": "5-6", "addr:postcode": "20457", "addr:street": "Hongkongstraße", "leisure": "fitness_centre", "name": "Hongkong Studios Yoga", "opening_hours": "Mo-Fr 08:00-20:30", "website": "https://www.hongkongstudios.yoga/"}}, {"type": "node", "id": 10041411104, "lat": 53.5514832, "lon": 9.9284158, "tags": {"addr:housenumber": "43a", "addr:street": "Ottenser Hauptstraße", "brand": "Mrs. Sporty", "brand:wikidata": "Q100718953", "leisure": "fitness_centre", "name": "Mrs. Sporty", "phone": "+49 40 65914336"}}, {"type": "node", "id": 10048120985, "lat": 53.6799332, "lon": 10.0007531, "tags": {"addr:city": "Hamburg", "addr:housenumber": "680", "addr:postcode": "22419", "addr:street": "Langenhorner Chaussee", "contact:email": "info@vimodrom-hamburg.de", "contact:phone": "+49 40 70 10 37 70", "leisure": "fitness_centre", "name": "VIMODROM Hamburg Langenhorn", "opening_hours": "Mo-Fr 09:00-19:00", "sport": "vibration;fitness", "website": "https://www.vimodrom.de/"}}, {"type": "node", "id": 10137633522, "lat": 53.5746222, "lon": 10.0250592, "tags": {"leisure": "fitness_centre", "name": "Elbgym Winterhude"}}, {"type": "node", "id": 10215127165, "lat": 53.5652224, "lon": 9.9266427, "tags": {"leisure": "fitness_centre", "name": "CrossFit West", "opening_hours": "\"Je nach Kurs\"", "sport": "fitness;gymnastics", "website": "https://www.crossfitwestgym.com/", "wheelchair": "yes"}}, {"type": "node", "id": 10255215309, "lat": 53.6057626, "lon": 10.1848925, "tags": {"email": "hh-rahlstedt@easyfitness-group.de", "internet_access": "wlan", "leisure": "fitness_centre", "name": "EASYFITNESS Hamburg-Rahlstedt", "opening_hours": "Mo, We, Fr 08:00-23:00; Tu, Th 07:00-23:00; Sa-Su 09:00-20:00", "phone": "+49-40-66930690", "website": "https://easyfitness.club/studio/easyfitness-hamburg-rahlstedt/"}}, {"type": "node", "id": 10255225909, "lat": 53.6050312, "lon": 10.157487, "tags": {"addr:housenumber": "8-12", "addr:postcode": "22143", "addr:street": "Schweriner Straße", "internet_access": "wlan", "leisure": "fitness_centre", "level": "2", "name": "juka dojo Fitness Club Rahlstedt GmbH", "opening_hours": "Mo-Fr 07:00-22:30; Sa-Su 09:00-20:00", "website": "https://jukadojo24.de/"}}, {"type": "node", "id": 10259334936, "lat": 53.6048164, "lon": 9.9566406, "tags": {"addr:city": "Hamburg", "addr:housenumber": "50", "addr:postcode": "22529", "addr:street": "Rütersbarg", "leisure": "fitness_centre", "name": "WYSH.Fitness", "opening_hours": "Mo,We,Th 06:00-21:00; Tu 08:00-21:00; Fr 06:30-21:00; Sa 08:00-13:00; Su 09:30-13:00", "sport": "crossfit;weightlifting;powerlifting;schwerathletik;hyrox", "website": "https://www.wysh.de/"}}, {"type": "node", "id": 10279070885, "lat": 53.4842312, "lon": 10.1989228, "tags": {"addr:housenumber": "8", "addr:street": "Dusiplatz", "description": "CrossFit Box", "leisure": "fitness_centre", "name": "Athlevo CrossFit", "opening_hours": "Mo-Fr 06:00-11:00,16:00-22:00; Sa-Su 09:00-13:00", "phone": "040 182 96 720", "website": "https://www.athlevo.de/"}}, {"type": "node", "id": 10568196073, "lat": 53.6055323, "lon": 10.0539821, "tags": {"addr:city": "Hamburg", "addr:postcode": "22309", "addr:street": "Steilshooper Straße", "leisure": "fitness_centre", "name": "Alsterfit", "opening_hours": "Mo-Fr 06:00-22:30; Sa,Su 08:00-20:00", "sport": "fitness"}}, {"type": "node", "id": 10575964091, "lat": 53.6339587, "lon": 9.8418772, "tags": {"addr:housenumber": "9", "addr:postcode": "25469", "addr:street": "Rathausquartier", "check_date": "2023-01-23", "contact:facebook": "manomayahalstenbek", "contact:instagram": "manomaya_halstenbek", "email": "hello@manomaya.de", "leisure": "fitness_centre", "level": "0", "name": "MANOMAYA", "phone": "+49 4101 408486", "sport": "yoga", "website": "https://www.manomaya.de/"}}, {"type": "node", "id": 10696894515, "lat": 53.5598594, "lon": 9.8110734, "tags": {"addr:city": "Hamburg", "addr:housenumber": "14", "addr:postcode": "22587", "addr:street": "Blankeneser Bahnhofstraße", "email": "info@vimodrom-hamburg.de", "leisure": "fitness_centre", "name": "VIMODROM® Hamburg Blankenese", "opening_hours": "Mo-Fr 09:00-19:00", "phone": "+49 40 20949940", "sport": "fitness", "website": "https://www.vimodrom.de/"}}, {"type": "node", "id": 10745163338, "lat": 53.6617481, "lon": 9.7932373, "tags": {"leisure": "fitness_centre", "name": "well you Fitness"}}, {"type": "node", "id": 10764703203, "lat": 53.6189278, "lon": 9.9514212, "tags": {"female": "yes", "leisure": "fitness_centre", "male": "no", "name": "Mrs.Sporty", "opening_hours": "Mo-Su 07:00-21:00", "website": "https://www.mrssporty.de/club/hamburg-niendorf/"}}, {"type": "node", "id": 10895385045, "lat": 53.5465853, "lon": 10.2295516, "tags": {"addr:city": "Glinde", "addr:housenumber": "3 F", "addr:postcode": "21509", "addr:street": "Biedenkamp", "leisure": "fitness_centre", "name": "SRS Sport- und RückenSchule"}}, {"type": "node", "id": 10908586357, "lat": 53.5566021, "lon": 9.848063, "tags": {"leisure": "fitness_centre", "name": "Juka Dojo sportcenter", "opening_hours": "Mo,Th 07:00-21:00; Tu,We,Fr 08:30-21:00; Sa 10:00-15:30"}}, {"type": "node", "id": 10951924835, "lat": 53.5827629, "lon": 10.033833, "tags": {"leisure": "fitness_centre", "name": "Sporteve", "opening_hours": "Mo,We 08:00-12:00,16:00-20:00; Tu,Th 09:00-12:00,16:00-20:00; Fr 09:00-13:00,16:00-19:00; Sa 09:00-14:00; Su 10:00-13:00"}}, {"type": "node", "id": 11019914147, "lat": 53.5796876, "lon": 9.961625, "tags": {"leisure": "fitness_centre", "name": "Meridian Spa", "opening_hours": "Mo-Fr 07:00-23:00; Sa,Su 09:00-22:00", "website": "http://www.meridianspa.de/"}}, {"type": "node", "id": 11022661401, "lat": 53.5713117, "lon": 9.9606901, "tags": {"addr:housenumber": "17", "addr:street": "Weidenstieg", "check_date": "2024-05-27", "leisure": "fitness_centre", "name": "Tribe Yoga Base", "sport": "yoga", "website": "https://tribeyogabase.de", "wheelchair": "limited"}}, {"type": "node", "id": 11055002705, "lat": 53.6013077, "lon": 10.018568, "tags": {"leisure": "fitness_centre", "name": "Benefit"}}, {"type": "node", "id": 11162618115, "lat": 53.5594199, "lon": 9.8874194, "tags": {"leisure": "fitness_centre", "name": "Body Street", "opening_hours": "Mo-Fr 09:00-20:00; Sa 09:00-15:00", "wheelchair": "no"}}, {"type": "node", "id": 11230637488, "lat": 53.6082154, "lon": 9.9143476, "tags": {"check_date": "2023-10-01", "leisure": "fitness_centre", "name": "Vitalife", "opening_hours": "Mo,Th 08:30-19:00; Tu 08:30-21:30; We,Fr 08:30-16:30; Sa 10:30-13:00; Su,PH off"}}, {"type": "node", "id": 11385489245, "lat": 53.721105, "lon": 10.2737985, "tags": {"addr:housenumber": "1", "addr:postcode": "22941", "addr:street": "Am Redder", "leisure": "fitness_centre", "name": "gym4us Premium", "sport": "multi", "website": "https://www.gym4uspremium.de/"}}, {"type": "node", "id": 11385489249, "lat": 53.7233278, "lon": 10.2709842, "tags": {"addr:city": "Bargteheide", "addr:housenumber": "24", "addr:postcode": "22941", "addr:street": "Hammoorer Weg", "leisure": "fitness_centre", "name": "La Vida", "opening_hours": "Mo-Fr 09:00-22:00; Sa 12:00-21:00; Su 10:00-21:00", "phone": "+49 4532 287864", "website": "https://www.fitnessoase-la-vida.de"}}, {"type": "node", "id": 11449406078, "lat": 53.5679439, "lon": 9.9566694, "tags": {"leisure": "fitness_centre", "name": "Work It"}}, {"type": "node", "id": 11691279674, "lat": 53.5824993, "lon": 9.8551408, "tags": {"brand": "Clever fit", "brand:wikidata": "Q27909675", "leisure": "fitness_centre", "name": "Clever fit", "opening_hours": "Mo-Fr 06:00-24:00; Sa-Su 08:00-22:00", "operator": "clever fit GmbH", "phone": "+49 40 71007551", "sport": "fitness"}}, {"type": "node", "id": 11739452158, "lat": 53.5518855, "lon": 9.9845762, "tags": {"leisure": "fitness_centre", "name": "Evo Fitness Club", "opening_hours": "Mo-Su,PH 06:00-23:00"}}, {"type": "node", "id": 11811792429, "lat": 53.5377492, "lon": 10.0114247, "tags": {"addr:housenumber": "28", "addr:street": "Baakenallee", "leisure": "fitness_centre", "name": "VIMODROM", "opening_hours": "Mo-Fr 09:00-19:00, Sa,Su \"Termine nach Vereinbarung\"", "phone": "+49 40 38083817", "website": "https://www.vimodrom.de/standorte/hamburg-hafencity/index.html"}}, {"type": "node", "id": 11824495379, "lat": 53.4709992, "lon": 9.8540899, "tags": {"contact:website": "https://www.ems-square.com/", "leisure": "fitness_centre", "name": "EMS-Square"}}, {"type": "node", "id": 11835678771, "lat": 53.5503693, "lon": 9.9600035, "tags": {"check_date:opening_hours": "2024-05-26", "leisure": "fitness_centre", "name": "Center of Gravity", "opening_hours:signed": "no", "sport": "yoga"}}, {"type": "node", "id": 11953413251, "lat": 53.5605852, "lon": 10.0218426, "tags": {"access": "customers", "addr:city": "Hamburg", "addr:housenumber": "15", "addr:postcode": "22087", "addr:street": "Sechslingspforte", "leisure": "fitness_centre", "name": "The Ray", "opening_hours": "Mo-Fr 06:30-23:00, Sa,Su 08:00-22:00", "operator": "Bäderland", "sauna": "yes", "sport": "fitness;swimming", "website": "https://www.the-ray.de"}}, {"type": "node", "id": 11965897340, "lat": 53.456474, "lon": 9.9904203, "tags": {"addr:city": "Hamburg", "addr:housenumber": "83", "addr:postcode": "21079", "addr:street": "Hannoversche Straße", "brand": "Kieser Training", "brand:wikidata": "Q1112367", "leisure": "fitness_centre", "name": "Kieser Training", "phone": "+494032908730", "sport": "fitness", "website": "https://www.kieser.de/"}}, {"type": "node", "id": 11980655290, "lat": 53.5534701, "lon": 10.0040583, "tags": {"leisure": "fitness_centre", "name": "Fitness First", "opening_hours": "Mo-Su,PH 00:00-00:00"}}]}