{"version": 0.6, "generator": "Overpass API 0.7.62.1 084b4234", "osm3s": {"timestamp_osm_base": "2024-06-14T12:07:11Z", "copyright": "The data included in this document is from www.openstreetmap.org. The data is made available under ODbL."}, "elements": [{"type": "node", "id": 343864074, "lat": 53.4562735, "lon": 9.9897752, "tags": {"amenity": "car_sharing", "level": "-1", "name": "Bahnhof Harburg", "operator": "Greenwheels GmbH", "website": "https://www.greenwheels.com", "wheelchair": "yes"}}, {"type": "node", "id": 405794876, "lat": 53.5776387, "lon": 10.0599474, "tags": {"amenity": "car_sharing", "operator": "greenwheels.com", "ref": "128"}}, {"type": "node", "id": 405806609, "lat": 53.5910869, "lon": 10.0560348, "tags": {"amenity": "car_sharing", "operator": "greenwheels.com", "ref": "123"}}, {"type": "node", "id": 405817034, "lat": 53.5666136, "lon": 9.9862854, "tags": {"amenity": "car_sharing", "operator": "greenwheels.com", "ref": "132"}}, {"type": "node", "id": 612621176, "lat": 53.5634917, "lon": 9.9599651, "tags": {"addr:housenumber": "230", "addr:street": "Max-Brauer-Allee", "amenity": "car_sharing", "name": "Cambio Max", "network": "cambio_stadtmobil", "opening_hours": "24/7", "operator": "Cambio Carsharing Hamburg GmbH", "phone": "+49 421 7946643", "website": "https://www.cambio-carsharing.de/", "wheelchair": "yes"}}, {"type": "node", "id": 670253660, "lat": 53.5628297, "lon": 9.9498778, "tags": {"amenity": "car_sharing"}}, {"type": "node", "id": 683730301, "lat": 53.5607697, "lon": 9.9075599, "tags": {"amenity": "car_sharing"}}, {"type": "node", "id": 683738377, "lat": 53.5649868, "lon": 9.9561275, "tags": {"amenity": "car_sharing"}}, {"type": "node", "id": 687859637, "lat": 53.5703131, "lon": 10.0368115, "tags": {"amenity": "car_sharing", "name": "Cambio HAM Richard", "network": "cambio_stadtmobil", "operator": "cambio CarSharing", "operator:wikidata": "Q1028155", "short_name": "Cambio", "website": "http://www.cambio-carsharing.de/cms/carsharing/de/1/cms_f2_64/stdws_info/stationen/station/2964.html?cms_Feurocode=HAM#stationdetails"}}, {"type": "node", "id": 687859661, "lat": 53.5806378, "lon": 10.0204867, "tags": {"amenity": "car_sharing", "capacity": "2", "name": "Cambio HAM Bach", "network": "cambio_stadtmobil", "operator": "cambio CarSharing", "operator:wikidata": "Q1028155", "operator:wikipedia": "de:Cambio CarSharing", "short_name": "Cambio", "website": "http://www.cambio-carsharing.de/cms/carsharing/de/1/cms_f2_64/stdws_info/stationen/station/1519.html?cms_Feurocode=HAM#stationdetails"}}, {"type": "node", "id": 687894593, "lat": 53.5553667, "lon": 9.943366, "tags": {"amenity": "car_sharing", "capacity": "3", "name": "Cambio HAM Chemnitz", "network": "cambio_stadtmobil", "opening_hours": "24/7", "operator": "cambio CarSharing", "operator:short": "Cambio", "operator:wikidata": "Q1028155", "short_name": "Cambio", "website": "http://www.cambio-carsharing.de/cms/carsharing/de/1/cms_f2_64/stdws_info/stationen/station/1391.html?cms_Feurocode=HAM#stationdetails"}}, {"type": "node", "id": 860274023, "lat": 53.585414, "lon": 9.971827, "tags": {"addr:housenumber": "88", "addr:street": "Falkenried", "amenity": "car_sharing", "fixme": "Greenwheels hat im Sep.2022 in Deutschland aufgehört. Wer oder was ist jetzt hier?", "name": "Greenwheels.com", "operator": "Greenwheels", "operator:wikidata": "Q316782"}}, {"type": "node", "id": 1148740091, "lat": 53.5633226, "lon": 10.0369152, "tags": {"amenity": "car_sharing", "capacity": "3", "name": "Cambio HAM Kiebitz", "network": "cambio_stadtmobil", "operator": "cambio CarSharing", "operator:wikidata": "Q1028155", "short_name": "Cambio", "website": "http://www.cambio-carsharing.de/cms/carsharing/de/1/cms_f2_64/stdws_info/stationen/station/1624.html?cms_Feurocode=HAM#stationdetails"}}, {"type": "node", "id": 1433782911, "lat": 53.5777206, "lon": 9.9435864, "tags": {"amenity": "car_sharing", "capacity": "3", "name": "Cambio HAM Grund", "network": "cambio_stadtmobil", "operator": "cambio CarSharing", "operator:wikidata": "Q1028155", "short_name": "Cambio", "website": "http://www.cambio-carsharing.de/cms/carsharing/de/1/cms_f2_64/stdws_info/stationen/station/1521.html?cms_Feurocode=HAM#stationdetails"}}, {"type": "node", "id": 1622614736, "lat": 53.5779281, "lon": 10.0169502, "tags": {"amenity": "car_sharing", "name": "Cambio HAM Hebbel", "network": "cambio_stadtmobil", "operator": "cambio CarSharing", "operator:wikidata": "Q1028155", "operator:wikipedia": "de:Cambio CarSharing", "short_name": "Cambio", "website": "http://www.cambio-carsharing.de/cms/carsharing/de/1/cms_f2_64/stdws_info/stationen/station/1904.html?cms_Feurocode=HAM#stationdetails"}}, {"type": "node", "id": 2168540585, "lat": 53.5847525, "lon": 10.0472838, "tags": {"amenity": "car_sharing", "name": "Cambio HAM Barmbek Bhf / Esso", "network": "cambio_stadtmobil", "operator": "cambio CarSharing", "operator:wikidata": "Q1028155", "short_name": "Cambio", "website": "http://www.cambio-carsharing.de/cms/carsharing/de/1/cms_f2_64/stdws_info/stationen/station/2011.html?cms_Feurocode=HAM#stationdetails"}}, {"type": "node", "id": 2168543575, "lat": 53.6033457, "lon": 10.0390175, "tags": {"amenity": "car_sharing", "name": "Cambio HAM Quartier 21", "network": "cambio_stadtmobil", "operator": "cambio CarSharing", "operator:wikidata": "Q1028155", "operator:wikipedia": "de:Cambio CarSharing", "short_name": "Cambio", "website": "http://www.cambio-carsharing.de/cms/carsharing/de/1/cms_f2_64/stdws_info/stationen/station/2956.html?cms_Feurocode=HAM#stationdetails"}}, {"type": "node", "id": 2631619707, "lat": 53.5665236, "lon": 9.8333526, "tags": {"amenity": "car_sharing", "capacity": "1", "name": "Cambio HAM Tietze", "network": "cambio_stadtmobil", "operator": "Cambio Hamburg Carsharing GmbH", "phone": "+49 421 7946643", "website": "https://www.cambio-carsharing.de/"}}, {"type": "node", "id": 2895214154, "lat": 53.4976138, "lon": 10.0016274, "tags": {"amenity": "car_sharing", "name": "Cambio HAM Inselpark", "network": "cambio_stadtmobil", "operator": "cambio", "website": "http://www.cambio-carsharing.de/cms/carsharing/de/1/cms_f2_64/stdws_info/stationen/station/2447.html?cms_Feurocode=HAM#stationdetails"}}, {"type": "node", "id": 3682310499, "lat": 53.5871641, "lon": 10.0342962, "tags": {"amenity": "car_sharing", "name": "Cambio HAM Eisenwerk", "network": "cambio_stadtmobil", "operator": "cambio CarSharing", "operator:wikidata": "Q1028155", "operator:wikipedia": "de:Cambio CarSharing", "short_name": "Cambio", "website": "http://www.cambio-carsharing.de/cms/carsharing/de/1/cms_f2_64/stdws_info/stationen/station/2233.html?cms_Feurocode=HAM#stationdetails"}}, {"type": "node", "id": 3826724095, "lat": 53.5529421, "lon": 10.0007404, "tags": {"access": "customers", "amenity": "car_sharing", "brand": "car2go black", "description": "car2go black parkspot", "fee": "no", "network": "car2go", "operator": "car2go Group GmbH", "website": "https://car2goblack.com/"}}, {"type": "node", "id": 3826746496, "lat": 53.552416, "lon": 9.9361174, "tags": {"access": "customers", "amenity": "car_sharing", "brand": "car2go black", "description": "car2go black parkspot", "fee": "no", "network": "car2go", "operator": "car2go Group GmbH", "website": "https://car2goblack.com/"}}, {"type": "node", "id": 3826781225, "lat": 53.4567058, "lon": 9.9924817, "tags": {"access": "customers", "amenity": "car_sharing", "fee": "no", "name": "share now", "network": "car2go", "old_name": "car2go black parkspot harburg", "old_name:note": "https://de.wikipedia.org/wiki/Car2go", "operator": "share now", "website": "https://www.share-now.com/de/de/hamburg/"}}, {"type": "node", "id": 3826851292, "lat": 53.5897991, "lon": 9.9892311, "tags": {"access": "customers", "amenity": "car_sharing", "fee": "no", "name": "car2go black parkspot", "network": "car2go", "operator": "car2go black"}}, {"type": "node", "id": 3826911454, "lat": 53.5717545, "lon": 10.0690563, "tags": {"access": "customers", "amenity": "car_sharing", "fee": "no", "name": "car2go parkspot", "network": "car2go", "operator": "car2go", "website": "https://www.car2go.com/"}}, {"type": "node", "id": 3828143665, "lat": 53.5537053, "lon": 10.0233066, "tags": {"access": "customers", "amenity": "car_sharing", "fee": "no", "name": "share now", "network": "car2go", "old_name": "car2go black parkspot st georg", "old_name:note": "https://de.wikipedia.org/wiki/Car2go", "operator": "car2go black", "website": "https://www.share-now.com"}}, {"type": "node", "id": 3828160642, "lat": 53.6004834, "lon": 9.9951799, "tags": {"access": "customers", "amenity": "car_sharing", "fee": "no", "name": "car2go black parkspot", "network": "car2go", "operator": "car2go black"}}, {"type": "node", "id": 3968068266, "lat": 53.5900769, "lon": 9.9637725, "tags": {"amenity": "car_sharing", "capacity": "2", "name": "Cambio HAM Stadtgärten", "network": "cambio_stadtmobil", "operator": "Cambio", "website": "http://www.cambio-carsharing.de/cms/carsharing/de/1/cms_f2_64/stdws_info/stationen/station/2051.html?cms_Feurocode=HAM#stationdetails"}}, {"type": "node", "id": 4800410921, "lat": 53.5603187, "lon": 9.908379, "tags": {"amenity": "car_sharing", "name": "Cambio HAM Friedensallee", "network": "cambio_stadtmobil", "operator": "cambio CarSharing", "operator:wikidata": "Q1028155", "phone": "+49 421 7946643", "short_name": "Cambio", "website": "http://www.cambio-carsharing.de/cms/carsharing/de/1/cms_f2_64/stdws_info/stationen/station/1970.html?cms_Feurocode=HAM#stationdetails"}}, {"type": "node", "id": 4800410922, "lat": 53.554519, "lon": 9.9229236, "tags": {"amenity": "car_sharing", "name": "Cambio HAM Behring", "network": "cambio_stadtmobil", "operator": "cambio CarSharing", "operator:short": "Cambio", "operator:wikidata": "Q1028155", "short_name": "Cambio", "website": "http://www.cambio-carsharing.de/cms/carsharing/de/1/cms_f2_64/stdws_info/stationen/station/1495.html?cms_Feurocode=HAM#stationdetails", "wheelchair": "limited"}}, {"type": "node", "id": 4803471522, "lat": 53.5529764, "lon": 9.9333036, "tags": {"amenity": "car_sharing", "brand": "cambio", "network": "cambio Hamburg", "opening_hours": "24/7", "operator": "cambio CarSharing", "operator:short": "Cambio", "operator:wikidata": "Q1028155", "operator:wikipedia": "de:Cambio CarSharing", "phone": "+494217946643", "ref": "Cambio HAM Hahnenkamp", "short_name": "Cambio", "website": "http://www.cambio-carsharing.de/cms/carsharing/de/1/cms_f2_64/stdws_info/stationen/station/1805.html?cms_Feurocode=HAM#stationdetails"}}, {"type": "node", "id": 4803550963, "lat": 53.5517192, "lon": 9.9425748, "tags": {"amenity": "car_sharing", "name": "Cambio HAM Lawaetzweg/IKEA", "network": "cambio_stadtmobil", "operator": "cambio CarSharing", "operator:short": "Cambio", "operator:wikidata": "Q1028155", "operator:wikipedia": "de:Cambio CarSharing", "short_name": "Cambio", "website": "http://www.cambio-carsharing.de/cms/carsharing/de/1/cms_f2_64/stdws_info/stationen/station/2574.html?cms_Feurocode=HAM#stationdetails", "wheelchair": "yes"}}, {"type": "node", "id": 4807752584, "lat": 53.5615603, "lon": 9.9279258, "tags": {"amenity": "car_sharing", "name": "Cambio HAM Phoenix", "network": "cambio_stadtmobil", "operator": "cambio CarSharing", "operator:short": "Cambio", "operator:wikidata": "Q1028155", "short_name": "Cambio", "website": "http://www.cambio-carsharing.de/cms/carsharing/de/1/cms_f2_64/stdws_info/stationen/station/1995.html?cms_Feurocode=HAM#stationdetails"}}, {"type": "node", "id": 4807767863, "lat": 53.5547876, "lon": 9.9159152, "tags": {"amenity": "car_sharing", "capacity": "2", "name": "Cambio HAM Germerring", "network": "cambio_stadtmobil", "operator": "cambio CarSharing", "operator:wikidata": "Q1028155", "short_name": "Cambio", "website": "http://www.cambio-carsharing.de/cms/carsharing/de/1/cms_f2_64/stdws_info/stationen/station/2747.html?cms_Feurocode=HAM#stationdetails"}}, {"type": "node", "id": 4807781021, "lat": 53.5800669, "lon": 9.9302396, "tags": {"amenity": "car_sharing", "name": "Cambio HAM Nieland", "network": "cambio_stadtmobil", "operator": "Cambio", "website": "http://www.cambio-carsharing.de/cms/carsharing/de/1/cms_f2_64/stdws_info/stationen/station/2658.html?cms_Feurocode=HAM#stationdetails"}}, {"type": "node", "id": 4807814432, "lat": 53.5770422, "lon": 9.950488, "tags": {"amenity": "car_sharing", "name": "Cambio HAM Oster", "network": "cambio_stadtmobil", "operator": "cambio CarSharing", "operator:wikidata": "Q1028155", "short_name": "Cambio", "website": "http://www.cambio-carsharing.de/cms/carsharing/de/1/cms_f2_64/stdws_info/stationen/station/882.html?cms_Feurocode=HAM#stationdetails"}}, {"type": "node", "id": 6302021814, "lat": 53.6341354, "lon": 10.0070402, "tags": {"amenity": "car_sharing", "name": "DriveNow P2 Außenring", "opening_hours": "24/7", "operator": "DriveNow", "website": "https://www.drive-now.com/de/de/now/hamburg/airport"}}, {"type": "node", "id": 6302021815, "lat": 53.6339835, "lon": 10.0070469, "tags": {"amenity": "car_sharing", "capacity": "20", "name": "car2go P2 Bereich B", "opening_hours": "24/7", "operator": "car2go", "website": "https://www.car2go.com/DE/de/hamburg/"}}, {"type": "node", "id": 6528205236, "lat": 53.4668264, "lon": 9.8099606, "tags": {"amenity": "car_sharing", "capacity": "4", "email": "support@moqo.de", "lit": "yes", "name": "Carsharing Heidbrook", "operator": "Autohaus S+K GmbH", "phone": "+49 241 95788 366", "website": "http://carsharing-heidbrook.de"}}, {"type": "node", "id": 7258416540, "lat": 53.5575561, "lon": 9.9368267, "tags": {"amenity": "car_sharing", "capacity": "2", "operator": "Cambio CarSharing"}}, {"type": "node", "id": 7337281099, "lat": 53.6340823, "lon": 10.0070399, "tags": {"amenity": "car_sharing", "name": "Sixt Share P2", "operator": "Sixt"}}, {"type": "node", "id": 8020947294, "lat": 53.594113, "lon": 10.0007557, "tags": {"amenity": "car_sharing", "name": "Cambio: Winter", "operator": "cambio CarSharing", "operator:short": "Cambio", "operator:wikidata": "Q1028155", "operator:wikipedia": "de:Cambio CarSharing", "short_name": "Cambio", "website": "https://www.cambio-carsharing.de/"}}, {"type": "node", "id": 9337272746, "lat": 53.6058197, "lon": 10.0298967, "tags": {"addr:city": "Hamburg", "addr:housenumber": "76", "addr:postcode": "22297", "addr:street": "Winterlindenweg", "amenity": "car_sharing", "capacity": "2", "description": "Der cambio Schlüssel Tresor befindet sich links neben der Hauseingangstür Nr. 76. Der Zugang in die Tiefgarage erfolgt zur Zeit noch über die Tiefgaragen Einfahrt.", "name": "Winterlinde 76 / Winterlindenweg 76", "operator": "cambio CarSharing", "operator:short": "Cambio", "operator:wikidata": "Q1028155", "operator:wikipedia": "de:Cambio CarSharing", "short_name": "Cambio", "website": "https://www.cambio-carsharing.de/stationen/station/winter-31-1520"}}, {"type": "node", "id": 9428155796, "lat": 53.604654, "lon": 10.0303479, "tags": {"access": "customers", "amenity": "car_sharing", "brand": "hvv switch", "brand:wikidata": "Q57657327", "capacity": "6", "name": "hvv switch Punkt Winterlindenweg (Pergolenviertel)", "network": "Hamburger Verkehrsverbund", "network:short": "HVV", "operator": "Hamburger Hochbahn AG", "website": "https://www.hvv-switch.de/"}}, {"type": "node", "id": 9428155797, "lat": 53.6030723, "lon": 10.0277485, "tags": {"access": "customers", "amenity": "car_sharing", "brand": "hvv switch", "brand:wikidata": "Q57657327", "name": "hvv switch Punkt Kapstadtring", "network": "Hamburger Verkehrsverbund", "network:short": "HVV", "operator": "Hamburger Hochbahn AG", "website": "https://www.hvv-switch.de/"}}, {"type": "node", "id": 9428322667, "lat": 53.5544323, "lon": 10.0072773, "tags": {"access": "customers", "amenity": "car_sharing", "brand": "hvv switch", "brand:wikidata": "Q57657327", "name": "hvv switch Punkt Hauptbahnhof Heidi-Kabel-Platz", "network": "Hamburger Verkehrsverbund", "network:short": "HVV", "operator": "Hamburger Hochbahn AG", "website": "https://www.hvv-switch.de/"}}, {"type": "node", "id": 10066471958, "lat": 53.5747443, "lon": 10.036317, "tags": {"amenity": "car_sharing", "capacity": "2", "name": "Cambio HAM Hamburger hvv switch", "operator": "cambio CarSharing", "operator:short": "Cambio", "operator:wikidata": "Q1028155", "short_name": "Cambio", "website": "https://www.cambio-carsharing.de/stationen/station/hamburger-hvv-switch-31-2933"}}, {"type": "node", "id": 10066484891, "lat": 53.5727843, "lon": 10.0272353, "tags": {"amenity": "car_sharing", "capacity": "2", "name": "Cambio HAM Humboldt", "operator": "cambio CarSharing", "operator:wikidata": "Q1028155", "short_name": "Cambio", "website": "https://www.cambio-carsharing.de/stationen/station/humboldt-31-3434"}}, {"type": "node", "id": 10066558015, "lat": 53.5941627, "lon": 10.003139, "tags": {"amenity": "car_sharing", "capacity": "5", "name": "Cambio HAM Winter", "operator": "cambio CarSharing", "operator:short": "Cambio", "operator:wikidata": "Q1028155", "short_name": "Cambio", "website": "https://www.cambio-carsharing.de/stationen/station/winter-31-1520"}}, {"type": "node", "id": 10066716262, "lat": 53.5564104, "lon": 10.0108186, "tags": {"amenity": "car_sharing", "capacity": "2", "name": "Cambio HAM Carl", "operator": "cambio CarSharing", "operator:short": "Cambio", "operator:wikidata": "Q1028155", "short_name": "Cambio", "website": "https://www.cambio-carsharing.de/stationen/station/carl-31-1913"}}, {"type": "node", "id": 10846245813, "lat": 53.5357639, "lon": 10.0241573, "tags": {"access": "customers", "amenity": "car_sharing", "brand": "hvv switch", "brand:wikidata": "Q57657327", "name": "hvv switch Punkt U Elbbrücken", "network": "Hamburger Verkehrsverbund", "network:short": "HVV", "operator": "Hamburger Hochbahn AG", "parking": "lane", "ref": "Freihafenelbbrücke, 20457 Hamburg", "website": "https://www.hvv-switch.de/"}}, {"type": "node", "id": 10971867204, "lat": 53.5626297, "lon": 9.9404602, "tags": {"amenity": "car_sharing", "name": "Cambio HAM Glück", "opening_hours": "24/7", "website": "https://www.cambio-carsharing.de/"}}, {"type": "node", "id": 11027643893, "lat": 53.5757794, "lon": 9.8151166, "tags": {"amenity": "car_sharing", "operator": "cambio CarSharing", "operator:short": "Cambio", "operator:wikidata": "Q1028155"}}, {"type": "node", "id": 11115138259, "lat": 53.563899, "lon": 10.0270199, "tags": {"amenity": "car_sharing", "capacity": "1", "name": "Cambio HAM Günther", "not:operator:wikidata": "Q1028155", "operator": "cambio CarSharing", "website": "https://www.cambio-carsharing.de/stationen/station/guenther-31-4275", "wikidata": "Q1028155", "wikipedia": "de:Cambio CarSharing"}}]}