{"version": 0.6, "generator": "Overpass API 0.7.62.1 084b4234", "osm3s": {"timestamp_osm_base": "2024-06-14T12:07:11Z", "copyright": "The data included in this document is from www.openstreetmap.org. The data is made available under ODbL."}, "elements": [{"type": "node", "id": 276182702, "lat": 53.4751145, "lon": 9.8545055, "tags": {"contact:phone": "+49 40 7015774", "contact:website": "http://www.hntonline.de/index.php/fithus-im-bgz-suederelbe", "leisure": "sports_centre", "name": "Fit Hus", "opening_hours": "Mo,Fr 08:30-22:00; Tu-Th 09:00-22:00; Sa,Su 10:00-18:00", "operator": "Hausbruch-Neugrabener Turnerschaft von 1911 e.V."}}, {"type": "node", "id": 276182703, "lat": 53.4729799, "lon": 9.8526521, "tags": {"addr:city": "Hamburg", "addr:housenumber": "344", "addr:postcode": "21149", "addr:street": "Cuxhavener Straße", "leisure": "sports_centre", "name": "Fun & Dance", "phone": "+49 40 70121217", "sport": "dance", "website": "https://fun-and-dance.de/"}}, {"type": "node", "id": 277932870, "lat": 53.4815074, "lon": 10.2001724, "tags": {"addr:city": "Hamburg", "addr:housenumber": "139", "addr:postcode": "21035", "addr:street": "Weidenbaumsweg", "leisure": "sports_centre", "name": "Persystema Hamburg-Bergedorf", "operator": "Kieser Training", "wheelchair": "no"}}, {"type": "node", "id": 290395951, "lat": 53.5219067, "lon": 10.3030126, "tags": {"building": "yes", "fixme": "Bitte Gebäudeumrisse eintragen", "leisure": "sports_centre", "operator": "Schützenverein Wohltorf", "sport": "shooting"}}, {"type": "node", "id": 290829007, "lat": 53.5276962, "lon": 10.0449707, "tags": {"leisure": "sports_centre", "name": "Niederdeutsche Wanderpaddler", "sport": "canoe", "website": "https://www.nw-hamburg.de/"}}, {"type": "node", "id": 296172296, "lat": 53.5520259, "lon": 9.9354138, "tags": {"leisure": "sports_centre", "name": "Sportspaß", "wheelchair": "limited"}}, {"type": "node", "id": 297691037, "lat": 53.5991607, "lon": 9.9166082, "tags": {"addr:city": "Hamburg", "addr:country": "DE", "addr:housenumber": "565", "addr:postcode": "22525", "addr:street": "Kieler Straße", "contact:email": "info@soccer-in-hamburg.de", "contact:phone": "+49 40 540 42 44", "contact:website": "https://www.soccer-in-hamburg.de", "leisure": "sports_centre", "level": "1", "name": "Soccer in Hamburg", "operator": "Soccer in Hamburg GmbH", "sport": "soccer"}}, {"type": "node", "id": 383279552, "lat": 53.4361621, "lon": 9.9336343, "tags": {"leisure": "sports_centre", "name": "Club Eichenhof", "sport": "multi"}}, {"type": "node", "id": 393187184, "lat": 53.6801111, "lon": 9.7832577, "tags": {"leisure": "sports_centre", "name": "Ausbildungsstall Jutta Perau", "sport": "equestrian"}}, {"type": "node", "id": 458869759, "lat": 53.5988197, "lon": 10.2737375, "tags": {"leisure": "sports_centre", "name": "Tennisclub Brunsbek e.V.", "sport": "tennis"}}, {"type": "node", "id": 599019368, "lat": 53.5849291, "lon": 10.0318877, "tags": {"leisure": "sports_centre", "name": "Kanuclub Hanseat Hamburg V.f.W e.V.", "sport": "canoe"}}, {"type": "node", "id": 610534405, "lat": 53.6913417, "lon": 10.2571015, "tags": {"layer": "1", "leisure": "sports_centre", "name": "Parador"}}, {"type": "node", "id": 778894000, "lat": 53.5996508, "lon": 9.9164467, "tags": {"addr:city": "Hamburg", "addr:country": "DE", "addr:housenumber": "571", "addr:postcode": "22525", "addr:street": "Kieler Straße", "contact:website": "http://www.schwarzlichtviertel.de", "fee": "yes", "leisure": "sports_centre", "name": "Schwarzlichtviertel", "opening_hours": "Mo-Th 14:00-21:00; Fr 14:00-23:00; Sa 10:00-01:00; Su 10:00-20:00; PH 10:00-03:00", "operator": "KESS Family Entertainment Center Betriebsgesellschaft mbH", "payment:cash": "yes", "payment:coins": "yes", "payment:ec": "yes", "payment:girocard": "yes", "phone": "+49 40 219019150", "sport": "miniature_golf;laser;vr;billard", "website": "https://www.schwarzlichtviertel.de/"}}, {"type": "node", "id": 830613762, "lat": 53.6418409, "lon": 9.9625889, "tags": {"leisure": "sports_centre", "name": "Bezirkssporthalle Sachsenweg", "wheelchair": "limited"}}, {"type": "node", "id": 968065686, "lat": 53.5578487, "lon": 10.0359047, "tags": {"leisure": "sports_centre", "name": "Popeye Gym"}}, {"type": "node", "id": 1103303546, "lat": 53.5773556, "lon": 10.080113, "tags": {"addr:city": "Hamburg", "addr:country": "DE", "addr:housenumber": "87-89", "addr:postcode": "22041", "addr:street": "Wandsbeker Zollstraße", "climbing:boulder": "yes", "climbing:toprope": "no", "contact:email": "hamburg@urbanapes.de", "contact:phone": "+49 40 60953050", "contact:website": "https://www.urbanapes.de/hamburg", "internet_access": "wlan", "internet_access:fee": "no", "internet_access:password": "bowling0815", "internet_access:ssid": "Boulderquartier Gäste 5g", "leisure": "sports_centre", "level": "0;1", "name": "urban apes Boulderquartier Hamburg", "opening_hours": "Mo-Th 11:00-23:00; Fr-Su 10:00-22:00", "operator": "urban apes Boulderquartier Hamburg GmbH", "sport": "climbing", "website": "https://www.urbanapes.de/hamburg-ost/", "wheelchair": "no"}}, {"type": "node", "id": 1103313345, "lat": 53.5463565, "lon": 9.9806979, "tags": {"addr:city": "Hamburg", "addr:housenumber": "6", "addr:postcode": "20459", "addr:street": "Schaarsteinweg", "leisure": "sports_centre", "name": "Meridian Spa", "phone": "+49 40 65891100", "website": "https://www.meridianspa.de/standorte/hamburg/am-michel/", "wheelchair": "no"}}, {"type": "node", "id": 1237452186, "lat": 53.5739364, "lon": 9.9648153, "tags": {"leisure": "sports_centre", "name": "ETV-Kanu", "opening_hours:signed": "no", "wheelchair": "no"}}, {"type": "node", "id": 1260933083, "lat": 53.5657494, "lon": 10.0395912, "tags": {"addr:housenumber": "62a", "addr:postcode": "22089", "addr:street": "Wandsbeker Chaussee", "leisure": "sports_centre", "name": "Aikido-Dojo Seishinkan e.V."}}, {"type": "node", "id": 1269116641, "lat": 53.4941727, "lon": 10.2063804, "tags": {"leisure": "sports_centre", "name": "TSG", "opening_hours": "Mo-Fr 08:00-22:00; Sa,Su 10:00-18:00", "toilets:wheelchair": "yes", "wheelchair": "yes"}}, {"type": "node", "id": 1308930814, "lat": 53.5484558, "lon": 10.2482052, "tags": {"addr:city": "Reinbek", "addr:country": "DE", "addr:postcode": "21465", "addr:street": "Querweg", "leisure": "sports_centre", "name": "Sporthalle Querweg", "sport": "multi"}}, {"type": "node", "id": 1337748595, "lat": 53.6779251, "lon": 10.1491849, "tags": {"leisure": "sports_centre", "name": "Mrs. Sporty", "sports_centre": "gymnastics", "wheelchair": "yes"}}, {"type": "node", "id": 1343923713, "lat": 53.6020059, "lon": 10.1572846, "tags": {"leisure": "sports_centre", "name": "AMTV Rahlstedt"}}, {"type": "node", "id": 1344700650, "lat": 53.5635884, "lon": 9.9150639, "tags": {"check_date": "2024-03-07", "leisure": "sports_centre", "name": "Zanshin Dojo", "sport": "gym", "wheelchair": "no"}}, {"type": "node", "id": 1423904063, "lat": 53.5683536, "lon": 9.9566843, "tags": {"addr:housenumber": "4", "addr:postcode": "20259", "addr:street": "Eppendorfer Weg", "alt_name": "das Weltbouldercafé", "climbing:boulder": "yes", "int_name": "Salon du Bloc", "leisure": "sports_centre", "name": "Salon du Bloc", "sport": "climbing", "website": "https://salondubloc.de/"}}, {"type": "node", "id": 1507341799, "lat": 53.6440392, "lon": 9.8861244, "tags": {"addr:housenumber": "17", "addr:postcode": "25474", "addr:street": "Waldhofstraße", "leisure": "sports_centre", "name": "Sportstudio Ellerbek", "sport": "athletics"}}, {"type": "node", "id": 1521295124, "lat": 53.6832559, "lon": 10.2485729, "tags": {"leisure": "sports_centre", "name": "Topform", "sport": "gymnastics", "website": "https://topformclub.de/index.html"}}, {"type": "node", "id": 1609113135, "lat": 53.6017272, "lon": 10.0227151, "tags": {"addr:city": "Hamburg", "addr:country": "DE", "addr:housenumber": "7", "addr:postcode": "22297", "addr:street": "Mexikoring", "int_name": "Kickboxing, Karate", "leisure": "sports_centre", "name": "Ninja Sportclub e.V.", "wheelchair": "no"}}, {"type": "node", "id": 1636827185, "lat": 53.5825359, "lon": 10.028698, "tags": {"addr:city": "Hamburg", "addr:country": "DE", "addr:housenumber": "90 b", "addr:postcode": "22083", "addr:street": "Osterbekstraße", "leisure": "sports_centre", "name": "Turnhalle-HH", "opening_hours": "Mo,We,Fr 07:00-22:30, Tu,Th 09:00-22:30, Sa,Su 10:00-19:00", "sport": "athletics"}}, {"type": "node", "id": 1639036430, "lat": 53.5469594, "lon": 10.2174747, "tags": {"leisure": "sports_centre", "name": "TSV Glinde - Tennis", "sport": "tennis"}}, {"type": "node", "id": 1639036815, "lat": 53.5473148, "lon": 10.2190206, "tags": {"leisure": "sports_centre", "name": "TSV Glinde - Fußball", "sport": "soccer"}}, {"type": "node", "id": 1639036873, "lat": 53.5492271, "lon": 10.219203, "tags": {"leisure": "sports_centre", "name": "TSV Glinde - Tanzsportzentrum"}}, {"type": "node", "id": 1639037654, "lat": 53.5573664, "lon": 10.2187631, "tags": {"leisure": "sports_centre", "name": "Schützenverein Glinde", "sport": "shooting"}}, {"type": "node", "id": 1650033226, "lat": 53.5753117, "lon": 10.0454552, "tags": {"addr:city": "Hamburg", "addr:housenumber": "87", "addr:postcode": "22081", "addr:street": "Holsteinischer Kamp", "charge": "20 EUR / month", "contact:website": "https://sportspass.de/center#hoka-center", "fee": "yes", "leisure": "sports_centre", "name": "Sportspaß Sportcenter", "opening_hours": "Mo-Fr 08:45-22:00; Sa,Su 09:45-20:30", "operator": "Sportspaß e.V.", "phone": "+49 40 55 50 16 66 30", "sport": "gymnastics;fitness", "wheelchair": "no"}}, {"type": "node", "id": 1681423090, "lat": 53.5870799, "lon": 10.0691096, "tags": {"addr:housenumber": "200a", "addr:street": "Alter Teichweg", "leisure": "sports_centre", "name": "kleine Sporthalle", "operator": "Gesamtschule Alter Teichweg"}}, {"type": "node", "id": 1814134893, "lat": 53.6618518, "lon": 9.8017198, "tags": {"addr:city": "Pinneberg", "addr:country": "DE", "addr:housenumber": "2", "addr:postcode": "25421", "addr:street": "Friedrich-Ebert-Straße", "leisure": "sports_centre", "name": "wellyou", "wheelchair": "no"}}, {"type": "node", "id": 1884274439, "lat": 53.6046318, "lon": 10.0236862, "tags": {"addr:city": "Hamburg", "addr:country": "DE", "addr:housenumber": "19-31", "addr:postcode": "22297", "addr:street": "Überseering", "leisure": "sports_centre", "level": "1", "name": "Sportspaß Sportcenter City Nord", "opening_hours": "Mo-Fr 09:45-22:30; Sa-Su 09:45-22:00", "phone": "+49 40 67047999", "website": "https://sportspass.de/center/", "wheelchair": "no"}}, {"type": "node", "id": 1917155808, "lat": 53.6082549, "lon": 9.9952439, "tags": {"addr:housename": "Ruderbootshaus", "addr:housenumber": "28", "addr:postcode": "22297", "addr:street": "Kugelfang", "leisure": "sports_centre", "name": "Schulbootshaus Kugelfang"}}, {"type": "node", "id": 1925325412, "lat": 53.6599306, "lon": 9.8748094, "tags": {"addr:city": "Ellerbek", "addr:housenumber": "7", "addr:postcode": "25474", "addr:street": "Dubenhorst", "leisure": "sports_centre", "name": "Tennis Club Ellerbek", "short_name": "TC Ellerbek", "sport": "tennis"}}, {"type": "node", "id": 1965341024, "lat": 53.5736847, "lon": 10.1642812, "tags": {"leisure": "sports_centre", "wheelchair": "limited"}}, {"type": "node", "id": 1995808225, "lat": 53.5511453, "lon": 9.9443716, "tags": {"addr:housenumber": "152", "addr:postcode": "22767", "addr:street": "Große Bergstraße", "leisure": "sports_centre", "name": "Flying Yogi", "sport": "gymnastics"}}, {"type": "node", "id": 2161700283, "lat": 53.5785595, "lon": 9.8574311, "tags": {"access": "private", "check_date": "2024-03-06", "leisure": "sports_centre", "name": "Führungsakademie der Bundeswehr"}}, {"type": "node", "id": 2279188405, "lat": 53.5875229, "lon": 10.0971141, "tags": {"access": "permissive", "covered": "yes", "leisure": "sports_centre", "name": "fitness&friends", "sport": "swimming"}}, {"type": "node", "id": 2305598074, "lat": 53.5297353, "lon": 10.0253808, "tags": {"addr:city": "Hamburg", "addr:housenumber": "3", "addr:postcode": "20539", "addr:street": "Veddeler Brückenstraße", "club": "sport", "contact:facebook": "https://www.facebook.com/DieWikinger/", "email": "mail@wikinger-hamburg.de", "leisure": "sports_centre", "name": "Wanderrudergesellschaft \"Die Wikinger\" e.V.", "phone": "+491794813298", "sport": "rowing", "website": "https://www.wikinger-hamburg.de", "wheelchair": "no"}}, {"type": "node", "id": 2351357916, "lat": 53.5394192, "lon": 10.1045768, "tags": {"addr:city": "Hamburg", "addr:country": "DE", "addr:housenumber": "8", "addr:postcode": "22111", "addr:street": "Möllner Landstraße", "contact:phone": "+49 40 180496420", "contact:website": "http://www.sportspass.de/center", "leisure": "sports_centre", "name": "Sportspaß Sportcenter Billstedt", "opening_hours": "Mo-Fr 09:45-22:30;Sa-Su 09:45-22:00", "sport": "gymnastics"}}, {"type": "node", "id": 2411825282, "lat": 53.6909873, "lon": 9.979402, "tags": {"addr:city": "Norderstedt", "addr:housenumber": "19", "addr:postcode": "22850", "addr:street": "Kösliner Weg", "leisure": "sports_centre", "name": "North Gym Norderstedt", "sport": "athletics"}}, {"type": "node", "id": 2483746953, "lat": 53.5869472, "lon": 10.0484779, "tags": {"addr:city": "Hamburg", "addr:country": "DE", "addr:housenumber": "47", "addr:postcode": "22305", "addr:street": "Steilshooper Straße", "check_date:opening_hours": "2023-07-31", "email": "Budokan.Hamburg@t-online.de", "leisure": "sports_centre", "name": "BUDOKAN Sportcenter Hamburg", "opening_hours:signed": "no", "phone": "+49 40 614220", "sport": "fighting", "wheelchair": "limited"}}, {"type": "node", "id": 2598810566, "lat": 53.5511943, "lon": 9.9656414, "tags": {"leisure": "sports_centre", "name": "East Sporting Club", "phone": "+49 40 30993470", "price": "€29 daypass", "sport": "fitness", "website": "http://www.east-sporting.de/en/east-sporting-club.html", "wheelchair": "yes"}}, {"type": "node", "id": 2598810567, "lat": 53.550554, "lon": 9.9332054, "tags": {"addr:city": "Hamburg", "addr:country": "DE", "addr:housenumber": "56", "addr:postcode": "22765", "addr:street": "Am Felde", "leisure": "sports_centre", "name": "On Stage Training Center", "opening_hours": "Mo-Fr 08:00-22:30; Sa-Su 10:00-20:00", "price": "€10 daypass", "sport": "fitness", "website": "https://www.on-stage.de/", "wheelchair": "no"}}, {"type": "node", "id": 2611122376, "lat": 53.4675667, "lon": 9.9704354, "tags": {"leisure": "sports_centre", "name": "Hot Yoga Hamburg Süd", "sport": "yoga", "website": "http://www.hotyoga-hamburgsued.de/", "wheelchair": "yes"}}, {"type": "node", "id": 2779029237, "lat": 53.4860602, "lon": 10.2137528, "tags": {"contact:website": "http://www.vital-ladiesfirst.de/", "leisure": "sports_centre", "name": "Vital Fitness", "sport": "gymnastics", "wheelchair": "yes"}}, {"type": "node", "id": 2901503674, "lat": 53.5709645, "lon": 9.9780344, "tags": {"leisure": "sports_centre", "name": "Kung Fu", "sport": "kung_fu", "wheelchair": "yes"}}, {"type": "node", "id": 2989461018, "lat": 53.5631115, "lon": 9.9130305, "tags": {"addr:city": "Hamburg", "addr:country": "DE", "addr:housenumber": "18", "addr:postcode": "22761", "addr:street": "Gasstraße", "climbing:boulder": "yes", "climbing:toprope": "no", "email": "moin@flashh.de", "leisure": "sports_centre", "name": "FLASHH", "opening_hours": "Mo-Fr 10:00-23:00; Sa-Su 09:00-22:00", "phone": "+494038041270", "sport": "climbing", "website": "https://www.flashh.de/", "wheelchair": "yes"}}, {"type": "node", "id": 3029381936, "lat": 53.4969656, "lon": 10.1831836, "tags": {"addr:city": "Hamburg", "addr:housenumber": "607", "addr:postcode": "21033", "addr:street": "Billwerder Billdeich", "leisure": "sports_centre", "name": "TSG Sportforum", "phone": "+49 40 725 495 0", "website": "https://www.tsg-bergedorf.de/", "wheelchair": "yes", "wheelchair:description": "Rampe, Fahrstuhl,"}}, {"type": "node", "id": 3218445043, "lat": 53.5481286, "lon": 9.9696788, "tags": {"description": "Trainig auf Matten", "leisure": "sports_centre", "lit": "yes", "name": "Bewegung am Hafen - Shinson Hapkido St. Pauli", "sport": "shinson hapkido", "website": "https://www.bewegungamhafen.de/"}}, {"type": "node", "id": 3318555979, "lat": 53.6769882, "lon": 10.239269, "tags": {"addr:housenumber": "12a", "addr:street": "Am Alten Markt", "leisure": "sports_centre", "name": "Rehazentrum Ahrensburg", "opening_hours": "\"Termine nach Vereinbarung\"", "operator": "Frank Remesat, Physiotherapeut", "website": "https://www.rehazentrum-ahrensburg.de/"}}, {"type": "node", "id": 3323249700, "lat": 53.5166467, "lon": 10.2430056, "tags": {"addr:city": "Reinbek", "addr:housenumber": "22", "addr:postcode": "21465", "addr:street": "Theodor-Storm-Straße", "leisure": "sports_centre", "name": "Geschäftsstelle TSV Reinbek", "opening_hours": "Mo-Th 10:00-12:00, Tu 15:00-19:00, We,Th 15:00-17:30", "phone": "+49 40 7221837", "website": "https://www.tsv-reinbek.de/", "wikidata": "Q1430423", "wikipedia": "de:TSV Reinbek"}}, {"type": "node", "id": 3417014013, "lat": 53.5754403, "lon": 10.0745199, "tags": {"addr:city": "Hamburg", "addr:country": "DE", "addr:housenumber": "25-29", "addr:postcode": "22041", "addr:street": "Wandsbeker Zollstraße", "email": "info@cabriosport.de", "fax": "+49 40 68919693", "leisure": "sports_centre", "name": "Cabrio Sport", "phone": "+49 40 68919593", "sport": "badminton;squash;tennis;table_tennis", "website": "https://cabriosport.de/"}}, {"type": "node", "id": 3533006906, "lat": 53.4680011, "lon": 10.0356741, "tags": {"leisure": "sports_centre", "name": "Schützenverein Neuland", "sport": "shooting"}}, {"type": "node", "id": 3655970037, "lat": 53.6028318, "lon": 10.0246042, "tags": {"addr:city": "Hamburg", "addr:country": "DE", "addr:housenumber": "5-15", "addr:postcode": "22297", "addr:street": "Überseering", "leisure": "sports_centre", "name": "Fitness-Studio City Nord", "wheelchair": "no"}}, {"type": "node", "id": 3657020425, "lat": 53.5544695, "lon": 9.9318522, "tags": {"addr:city": "Hamburg", "addr:country": "DE", "addr:housenumber": "61", "addr:postcode": "22765", "addr:street": "Hohenesch", "leisure": "sports_centre", "name": "Yoga Ardas", "sport": "yoga"}}, {"type": "node", "id": 3657020426, "lat": 53.5544051, "lon": 9.9321476, "tags": {"addr:city": "Hamburg", "addr:country": "DE", "addr:housenumber": "63", "addr:postcode": "22765", "addr:street": "Hohenesch", "leisure": "sports_centre", "name": "Yoga Moves", "sport": "yoga", "wheelchair": "limited"}}, {"type": "node", "id": 3969013542, "lat": 53.6606524, "lon": 10.0860988, "tags": {"addr:city": "Hamburg", "addr:country": "DE", "addr:housenumber": "7b", "addr:postcode": "22399", "addr:street": "Moorhof", "leisure": "sports_centre", "name": "Miss Sporty", "sport": "gymnastics"}}, {"type": "node", "id": 4060351715, "lat": 53.6887912, "lon": 9.9833981, "tags": {"leisure": "sports_centre", "name": "Gesundheits- und Sportpark Norderstedt"}}, {"type": "node", "id": 4083212903, "lat": 53.5707142, "lon": 10.143388, "tags": {"addr:city": "Hamburg", "addr:country": "DE", "addr:housenumber": "43", "addr:postcode": "22043", "addr:street": "Barsbütteler Straße", "email": "info@sport-department.de", "leisure": "sports_centre", "name": "Sport-Department", "opening_hours": "Mo-Fr 10:00-22:00; Jun-Sep: Sa 12:00-18:00, Su 10:00-16:00; Oct-May: Sa 10:00-18:00, Su 10:00-18:00", "phone": "+49-40-6530064", "website": "https://www.sport-department.de/"}}, {"type": "node", "id": 4111671081, "lat": 53.6879523, "lon": 10.0385383, "tags": {"addr:city": "Norderstedt", "addr:country": "DE", "addr:housenumber": "68", "addr:postcode": "22851", "addr:street": "Mittelstraße", "contact:phone": "+49 40 5245777", "contact:website": "https://www.kraftwerk-norderstedt.de", "leisure": "sports_centre", "name": "Kraftwerk", "opening_hours": "Mo-Fr 09:00-21:00; Sa-Su 10:00-17:00"}}, {"type": "node", "id": 5056975121, "lat": 53.5575781, "lon": 9.9002558, "tags": {"addr:city": "Hamburg", "addr:housenumber": "2", "addr:postcode": "22605", "addr:street": "Baurstraße", "leisure": "sports_centre", "level": "0", "name": "Woodcutter", "sport": "Axtwerfen", "wheelchair": "yes"}}, {"type": "node", "id": 5268916965, "lat": 53.5745469, "lon": 10.0913179, "tags": {"addr:city": "Hamburg", "addr:country": "DE", "addr:housenumber": "38c", "addr:postcode": "22041", "addr:street": "Am Neumarkt", "contact:email": "hamburg@sprungraum.de", "contact:phone": "+49 40 44506170", "contact:website": "https://www.sprungraum.de/hamburg/", "leisure": "sports_centre", "name": "Sprung.Raum", "opening_hours": "Mo-Fr 13:00-21:00; Sa 10:00-23:00; Su 10:00-22:00; PH,SH Mo-Fr 10:00-21:00; PH,SH Sa 10:00-23:00; PH,SH Su 10:00-22:00", "operator": "SPRUNG.RAUM Hamburg GmbH", "sport": "trampoline", "wheelchair": "limited", "wheelchair:description": "Barrierefreier Eingang; Barrierefreie Toilette"}}, {"type": "node", "id": 5714682413, "lat": 53.4069403, "lon": 9.9306728, "tags": {"building": "public", "leisure": "sports_centre", "name": "Seniorensportgeräte", "sport": "fitness;basketball;boules"}}, {"type": "node", "id": 5764297924, "lat": 53.5861407, "lon": 10.0480097, "tags": {"leisure": "sports_centre", "name": "CrossFit HH", "website": "https://www.crossfithh.de/"}}, {"type": "node", "id": 5771843697, "lat": 53.4675888, "lon": 9.7916185, "tags": {"leisure": "sports_centre", "name": "clever fit"}}, {"type": "node", "id": 6172492596, "lat": 53.576727, "lon": 10.0805193, "tags": {"addr:housenumber": "87-89", "addr:street": "Wandsbeker Zollstraße", "leisure": "sports_centre", "name": "Meridian Spa", "website": "https://www.meridianspa.de/standorte/hamburg/wandsbek/"}}, {"type": "node", "id": 6279368743, "lat": 53.4640331, "lon": 9.9554595, "tags": {"addr:city": "Hamburg", "addr:country": "DE", "addr:housenumber": "44", "addr:postcode": "21075", "addr:street": "Heimfelder Straße", "leisure": "sports_centre", "name": "Lindenhof", "opening_hours": "Tu-Sa 16:00-23:00; Su 12:00-23:00; PH 12:00-23:00", "phone": "+49407924111", "sport": "9pin"}}, {"type": "node", "id": 6395533843, "lat": 53.4734151, "lon": 9.8495013, "tags": {"leisure": "sports_centre", "name": "laOla SoccerWelt", "sport": "soccer"}}, {"type": "node", "id": 6504585685, "lat": 53.5797787, "lon": 9.9299769, "tags": {"addr:city": "Hamburg", "addr:housenumber": "10", "addr:postcode": "22525", "addr:street": "Nieland", "email": "info@hankook-sportcenter.de", "fee": "yes", "leisure": "sports_centre", "name": "Hankook-Sportcenter", "phone": "+49 40 4903272", "sport": "yoga;boxing;karate;kickboxing", "website": "https://hankook-sportcenter.de/"}}, {"type": "node", "id": 6651811061, "lat": 53.5939951, "lon": 10.0445365, "tags": {"addr:city": "Hamburg", "addr:country": "DE", "addr:housenumber": "184", "addr:postcode": "22307", "addr:street": "Fuhlsbüttler Straße", "amenity": "pub", "indoor_seating": "yes", "leisure": "sports_centre", "level": "2", "name": "Queue Billiard Pub", "opening_hours": "Mo-Th 14:00-02:00, Fr,Sa 14:00-03:00, Su 13:00-24:00", "outdoor_seating": "no", "sport": "billiards"}}, {"type": "node", "id": 6960079424, "lat": 53.6190671, "lon": 10.0712285, "tags": {"building": "public", "fee": "no", "leisure": "sports_centre", "name": "Bewegungsinsel Bramfelder See", "opening_hours": "24/7", "sport": "gymnastics", "wheelchair": "yes"}}, {"type": "node", "id": 7123391606, "lat": 53.7047677, "lon": 10.0074455, "tags": {"leisure": "sports_centre", "name": "Action-Arena", "sport": "laser_tag", "website": "https://action-arena.info"}}, {"type": "node", "id": 7264281805, "lat": 53.5741541, "lon": 9.9768221, "tags": {"addr:housenumber": "1", "addr:street": "Helene-Lange-Straße", "leisure": "sports_centre", "name": "Mit Pfeil und Bogen", "opening_hours": "Mo-Th 15:00-21:00; Su 11:00-20:00", "phone": "+49 40 44 19 19 21", "sport": "archery", "website": "http://mitpfeilundbogen.de/"}}, {"type": "node", "id": 7734624663, "lat": 53.587746, "lon": 9.9271815, "tags": {"contact:email": "j.georgescu91@gmail.com", "contact:phone": "+49 176 913 858 71", "contact:website": "https://www.ipabjj.de", "leisure": "sports_centre", "name": "IPA BJJ Hamburg - Inside Position Academy", "sport": "jiu-jitsu"}}, {"type": "node", "id": 8616242891, "lat": 53.4671175, "lon": 9.7882999, "tags": {"leisure": "sports_centre", "name": "Schwimmhalle Neu Wulmstorf", "sport": "swimming"}}, {"type": "node", "id": 9045753747, "lat": 53.7349431, "lon": 10.0216126, "tags": {"addr:city": "Norderstedt", "addr:country": "DE", "addr:housenumber": "73c", "addr:postcode": "22844", "addr:street": "Oststraße", "contact:website": "https://boxen-in-norderstedt.de", "fee": "yes", "leisure": "sports_centre", "name": "Boxsportzentrum Norderstedt", "short_name": "BSZN", "sport": "boxing"}}, {"type": "node", "id": 9219948593, "lat": 53.5992593, "lon": 9.9163979, "tags": {"addr:city": "Hamburg", "addr:country": "DE", "addr:housenumber": "565", "addr:postcode": "22525", "addr:street": "Kieler Straße", "check_date": "2023-01-22", "climbing:boulder": "yes", "climbing:toprope": "no", "contact:email": "hamburgwest@urbanapes.de", "contact:facebook": "urbanapes.hh.west", "contact:instagram": "urbanapes.hh.west", "contact:phone": "+49 40 609 530 50", "contact:website": "https://www.urbanapes.de/hamburg-west/", "fee": "yes", "leisure": "sports_centre", "level": "1", "name": "urban apes Hamburg West", "opening_hours": "Mo-Th 11:00-23:00; Fr-Su 10:00-22:00", "operator": "urban apes Hamburg West GmbH", "payment:cash": "no", "sport": "climbing", "wheelchair": "no"}}, {"type": "node", "id": 9449528425, "lat": 53.5857294, "lon": 10.0066005, "tags": {"addr:city": "Hamburg", "addr:country": "DE", "addr:housenumber": "84", "addr:postcode": "22301", "addr:street": "Dorotheenstraße", "contact:website": "https://primetime-fitness.de/fitnessstudios/hamburg/winterhude/", "leisure": "sports_centre", "name": "PRIME TIME fitness", "sport": "fitness"}}, {"type": "node", "id": 9449787924, "lat": 53.5563008, "lon": 9.9698943, "tags": {"check_date": "2024-02-16", "climbing:boulder": "yes", "climbing:toprope": "no", "contact:email": "hamburgmitte@urbanapes.de", "contact:mobile": "+49 1520 284 19 08", "contact:website": "https://www.urbanapes.de/hamburg-stpauli", "dog": "no", "fee": "yes", "leisure": "sports_centre", "name": "urban apes Hamburg St.Pauli", "opening_hours": "Mo 11:00-23:00; Th-Tu 08:00-23:00; Fr-Su,PH 10:00-22:00", "operator": "urban apes Hamburg Mitte GmbH", "payment:cash": "no", "payment:girocard": "yes", "payment:maestro": "yes", "payment:mastercard": "yes", "payment:visa": "yes", "payment:visa_debit": "yes", "phone": "+49 1520 2841908", "sport": "climbing", "website": "https://www.urbanapes.de/hamburg-stpauli/", "wheelchair": "no"}}, {"type": "node", "id": 9581380532, "lat": 53.5705347, "lon": 9.9506925, "tags": {"leisure": "sports_centre", "name": "Kim Kong Sports", "sport": "muay_thai", "website": "https://www.kimkongsports.de/"}}, {"type": "node", "id": 9610955040, "lat": 53.5420499, "lon": 9.998142, "tags": {"contact:website": "https://primetime-fitness.de/fitnessstudios/hamburg/hafencity/", "leisure": "sports_centre", "name": "PRIME TIME fitness", "opening_hours": "Mo-Fr 06:00-24:00; Sa,Su 08:00-22:00", "sport": "fitness"}}, {"type": "node", "id": 9744027244, "lat": 53.6035132, "lon": 10.0313604, "tags": {"addr:city": "Hamburg", "addr:country": "DE", "addr:housenumber": "22", "addr:postcode": "22297", "addr:street": "Winterlindenweg", "contact:email": "bad@swym.info", "contact:fax": "+49 40 228 676 651", "contact:phone": "+49 40 228 676 650", "contact:website": "https://www.swymbad.de/", "leisure": "sports_centre", "level": "0", "name": "SWYM-Bad", "sport": "swimming;yoga", "wheelchair": "limited"}}, {"type": "node", "id": 9858402577, "lat": 53.5894169, "lon": 10.132468, "tags": {"leisure": "sports_centre", "name": "Makara Sports", "sport": "martial_arts"}}, {"type": "node", "id": 11032566328, "lat": 53.5682248, "lon": 9.9556374, "tags": {"check_date": "2023-07-04", "leisure": "sports_centre", "name": "Squash Point", "wheelchair": "no"}}, {"type": "node", "id": 11144653032, "lat": 53.568415, "lon": 10.0447776, "tags": {"addr:city": "Hamburg", "addr:housenumber": "9", "addr:postcode": "22089", "addr:street": "Ritterstraße", "club": "sport", "leisure": "sports_centre", "name": "TH-Eilbeck e.V.", "opening_hours": "Mo-Fr 10:00-13:00,14:30-20:00", "operator": "Turnerbund Hamburg-Eilbeck e.V. von 1880", "phone": "+49.40.203704", "sport": "multi;table_tennis;handball;badminton;ballett;basketball;kendo;pilates;boxen;athletics;kinderturnen;capoeira;fechten;judo;karate;volleyball;zirkustechniken;gesundheitssport;reha-sport", "website": "https://www.th-eilbeck.de/", "wikidata": "Q28777584", "wikipedia": "de:Turnerbund Hamburg-Eilbeck"}}]}