{"version": 0.6, "generator": "Overpass API 0.7.62.1 084b4234", "osm3s": {"timestamp_osm_base": "2024-06-14T12:07:11Z", "copyright": "The data included in this document is from www.openstreetmap.org. The data is made available under ODbL."}, "elements": [{"type": "node", "id": 268674752, "lat": 53.5630661, "lon": 9.9804659, "tags": {"amenity": "theatre", "check_date": "2024-05-15", "name": "Musikpavillon (Planten un Blomen)", "wheelchair": "yes"}}, {"type": "node", "id": 268809196, "lat": 53.5491266, "lon": 9.9633422, "tags": {"addr:city": "Hamburg", "addr:housenumber": "27-28", "addr:postcode": "20359", "addr:street": "Spielbudenplatz", "amenity": "theatre", "name": "Schmidts TIVOLI", "phone": "+49 40 3177880", "toilets:wheelchair": "no", "website": "https://www.tivoli.de/", "wheelchair": "limited", "wikidata": "Q68898062"}}, {"type": "node", "id": 278220478, "lat": 53.5545023, "lon": 10.0070813, "tags": {"addr:city": "Hamburg", "addr:housenumber": "1", "addr:postcode": "20099", "addr:street": "Heidi-Kabel-Platz", "amenity": "theatre", "contact:phone": "+49 40 3508030", "name": "Ohnsorg Theater", "toilets:wheelchair": "yes", "website": "https://www.ohnsorg.de/", "wheelchair": "yes", "wikidata": "Q896171", "wikipedia": "de:Ohnsorg-Theater"}}, {"type": "node", "id": 308603606, "lat": 53.5491358, "lon": 9.9638746, "tags": {"addr:city": "Hamburg", "addr:country": "DE", "addr:housenumber": "24", "addr:street": "Spielbudenplatz", "amenity": "theatre", "name": "Schmidt Theater", "toilets:wheelchair": "yes", "website": "https://www.tivoli.de/", "wheelchair": "yes", "wheelchair:description": "Im Keller gibt es eine rollstuhlgerechte Toilette. (Fahrstuhl) Im Theatersaal gibt es extra ausgewiesene Rollstuhlplätze. Einfach an der Kasse danach fragen.", "wikidata": "Q2246310"}}, {"type": "node", "id": 310346607, "lat": 53.5773002, "lon": 9.9749469, "tags": {"addr:city": "Hamburg", "addr:housenumber": "27", "addr:street": "Kaiser-Friedrich-Ufer", "amenity": "theatre", "name": "Theater Zeppelin", "wheelchair": "no"}}, {"type": "node", "id": 319681423, "lat": 53.5534638, "lon": 10.0114661, "tags": {"addr:city": "Hamburg", "addr:country": "DE", "addr:housenumber": "17", "addr:postcode": "20099", "addr:street": "Steindamm", "amenity": "theatre", "check_date": "2024-05-04", "name": "Hansatheater", "phone": "+49 40 47110644", "toilets:wheelchair": "no", "website": "https://www.hansa-theater.de/besucherinformationen/", "wheelchair": "limited", "wikidata": "Q264222"}}, {"type": "node", "id": 363582350, "lat": 53.5107347, "lon": 10.2497285, "tags": {"amenity": "theatre", "name": "Sachsenwald Forum", "wheelchair": "yes"}}, {"type": "node", "id": 371077546, "lat": 53.5548471, "lon": 9.9418852, "tags": {"addr:city": "Hamburg", "addr:housenumber": "76", "addr:postcode": "22765", "addr:street": "Max-Brauer-Allee", "amenity": "theatre", "name": "Theater für Kinder", "phone": "+49 40 382538", "toilets:wheelchair": "no", "website": "http://www.theater-fuer-kinder.de", "wheelchair": "no", "wikidata": "Q1275609"}}, {"type": "node", "id": 371095982, "lat": 53.554823, "lon": 9.9792555, "tags": {"addr:city": "Hamburg", "addr:housenumber": "1", "addr:postcode": "20355", "addr:street": "Johannes-Brahms-Platz", "amenity": "theatre", "name": "Kellertheater Hamburg", "phone": "+49 40 845652", "toilets:wheelchair": "no", "website": "https://www.kellertheater.de/", "wheelchair": "limited", "wheelchair:description": "Aufzug in den Keller, keine Behindertentoiletten", "wikidata": "Q21036369"}}, {"type": "node", "id": 371127350, "lat": 53.5579166, "lon": 9.9873113, "tags": {"addr:city": "Hamburg", "addr:housenumber": "1", "addr:street": "Gorch-Fock-Wall", "amenity": "theatre", "name": "Einfache Bühne", "website": "http://www.einfache-buehne.de/"}}, {"type": "node", "id": 371128072, "lat": 53.5694504, "lon": 10.0288753, "tags": {"amenity": "theatre", "check_date": "2024-03-11", "name": "The English Theatre of Hamburg", "website": "https://www.englishtheatre.de/", "wheelchair": "limited", "wikidata": "Q2411082"}}, {"type": "node", "id": 371130986, "lat": 53.5486707, "lon": 9.984656, "tags": {"addr:city": "Hamburg", "addr:country": "DE", "addr:housenumber": "71", "addr:postcode": "20459", "addr:street": "Admiralitätstraße", "amenity": "theatre", "contact:website": "http://www.fleetstreet-hamburg.de", "name": "Fleetstreet Hamburg", "wheelchair": "yes", "wikidata": "Q1313651", "wikipedia": "de:Fleetstreet"}}, {"type": "node", "id": 371670559, "lat": 53.5829108, "lon": 10.0215237, "tags": {"addr:city": "Hamburg", "addr:housenumber": "20", "addr:postcode": "22303", "addr:street": "Jarrestraße", "amenity": "theatre", "check_date": "2024-03-06", "name": "K3 - Zentrum für Choreographie / Tanzplan Hamburg", "toilets:wheelchair": "yes", "website": "https://www.k3-hamburg.de/", "wheelchair": "yes"}}, {"type": "node", "id": 371678892, "lat": 53.5623081, "lon": 9.9608947, "tags": {"addr:city": "Hamburg", "addr:housenumber": "73", "addr:street": "Schulterblatt", "amenity": "theatre", "name": "Kulturhaus III&70", "website": "https://www.dreiundsiebzig.de/", "wheelchair": "limited"}}, {"type": "node", "id": 371681150, "lat": 53.5816331, "lon": 10.0320594, "tags": {"addr:city": "Hamburg", "addr:country": "DE", "addr:housenumber": "19", "addr:postcode": "22083", "addr:street": "Biedermannplatz", "alt_name": "Die Burg", "amenity": "theatre", "email": "info@die-burg-barmbek.de", "name": "Die Burg - Theater am Biedermannplatz", "phone": "+49 40 87506824", "toilets:wheelchair": "yes", "website": "http://www.die-burg-barmbek.de", "wheelchair": "limited"}}, {"type": "node", "id": 371684139, "lat": 53.563488, "lon": 9.9150773, "tags": {"addr:city": "Hamburg", "addr:housenumber": "15B", "addr:street": "Mendelssohnstraße", "amenity": "theatre", "check_date": "2024-02-05", "name": "LICHTHOF Theater am Alten Gaswerk", "toilets:wheelchair": "no", "website": "http://www.lichthof-hamburg.de", "wheelchair": "limited"}}, {"type": "node", "id": 372519086, "lat": 53.5654378, "lon": 9.9616481, "tags": {"addr:city": "Hamburg", "addr:country": "DE", "addr:housenumber": "58", "addr:postcode": "20357", "addr:street": "Amandastraße", "amenity": "theatre", "name": "Mut!Theater", "toilets:wheelchair": "no", "website": "https://muttheater.de/", "wheelchair": "no"}}, {"type": "node", "id": 372538274, "lat": 53.5548361, "lon": 10.0146115, "tags": {"addr:city": "Hamburg", "addr:country": "DE", "addr:housenumber": "45", "addr:postcode": "20099", "addr:street": "Steindamm", "amenity": "theatre", "contact:facebook": "centralkomitee", "contact:instagram": "centralkomitee", "email": "hallo@centralkomitee.de", "name": "Centralkomitee", "phone": "+49 40 63911995", "toilets:wheelchair": "no", "website": "https://www.centralkomitee.de", "wheelchair": "yes"}}, {"type": "node", "id": 372559428, "lat": 53.5491011, "lon": 9.9629881, "tags": {"addr:city": "Hamburg", "addr:country": "DE", "addr:housenumber": "29-30", "addr:postcode": "20359", "addr:street": "Spielbudenplatz", "amenity": "theatre", "name": "St. Pauli Theater", "phone": "+49 40 47110666", "toilets:wheelchair": "no", "website": "https://www.st-pauli-theater.de/", "wheelchair": "limited", "wikidata": "Q317892", "wikipedia": "de:St. Pauli Theater"}}, {"type": "node", "id": 372647891, "lat": 53.5737424, "lon": 10.0400499, "tags": {"addr:city": "Hamburg", "addr:housenumber": "46", "addr:street": "Marschnerstraße", "amenity": "theatre", "name": "Theater an der Marschnerstraße", "toilets:wheelchair": "yes", "website": "http://www.theater-marschnerstrasse.de/", "wheelchair": "yes", "wikidata": "Q1646022"}}, {"type": "node", "id": 372653818, "lat": 53.5498175, "lon": 10.0893295, "tags": {"addr:city": "Hamburg", "addr:country": "DE", "addr:housenumber": "42", "addr:postcode": "22111", "addr:street": "Washingtonallee", "amenity": "theatre", "name": "Theater das Zimmer", "phone": "+49 40 65991168", "website": "https://www.theater-das-zimmer.de/", "wikidata": "Q26794477", "wikipedia": "de:Theater das Zimmer"}}, {"type": "node", "id": 372665679, "lat": 53.5489709, "lon": 9.9848297, "tags": {"addr:city": "Hamburg", "addr:country": "DE", "addr:housenumber": "74", "addr:postcode": "20459", "addr:street": "Admiralitätstraße", "amenity": "theatre", "contact:website": "http://www.westwerk.org", "name": "Westwerk"}}, {"type": "node", "id": 372736319, "lat": 53.5493537, "lon": 9.9585925, "tags": {"addr:city": "Hamburg", "addr:country": "DE", "addr:housenumber": "147", "addr:postcode": "20359", "addr:street": "Reeperbahn", "amenity": "theatre", "check_date": "2024-04-16", "email": "info@pulverfasscabaret.de", "fax": "+49 40 2802347", "name": "Pulverfass Travestie Cabaret", "operator": "Heinz-Diego Leers", "phone": "+49 40 247878", "source": "https://www.pulverfasscabaret.de/", "website": "https://www.pulverfasscabaret.de/", "wheelchair": "no", "wikidata": "Q995539", "wikipedia": "de:Pulverfass Cabaret"}}, {"type": "node", "id": 411017014, "lat": 53.5830873, "lon": 10.0461841, "tags": {"amenity": "theatre", "name": "Hamburger Puppentheater", "wheelchair": "no"}}, {"type": "node", "id": 443383973, "lat": 53.549502, "lon": 9.9670748, "tags": {"addr:city": "Hamburg", "addr:country": "DE", "addr:housenumber": "1", "addr:postcode": "20359", "addr:street": "Spielbudenplatz", "amenity": "theatre", "name": "Stage Operettenhaus", "operator": "Stage Entertainment Germany GmbH", "toilets:wheelchair": "yes", "website": "https://www.stage-entertainment.de/unternehmen/theater-vermietung/stage-operettenhaus.html", "wheelchair": "yes", "wheelchair:description": "Rollstuhlgerechter Zugang über den Seiteneingang (Beim Trichter) Bitte klingen!", "wikidata": "Q2026630"}}, {"type": "node", "id": 529412089, "lat": 53.7278353, "lon": 10.2588419, "tags": {"amenity": "theatre", "name": "Kleines Theater"}}, {"type": "node", "id": 564127499, "lat": 53.5504451, "lon": 9.9746029, "tags": {"amenity": "theatre", "check_date": "2024-05-30", "name": "Royal Theater", "website": "http://www.royal-theater.de/"}}, {"type": "node", "id": 564127856, "lat": 53.5503952, "lon": 9.9743214, "tags": {"amenity": "theatre", "check_date": "2024-05-30", "name": "Neues Theater"}}, {"type": "node", "id": 733963479, "lat": 53.7292944, "lon": 9.8086254, "tags": {"amenity": "theatre", "check_date": "2024-03-30", "name": "Waldbühne"}}, {"type": "node", "id": 740056912, "lat": 53.7079967, "lon": 9.9934623, "tags": {"addr:city": "Norderstedt", "addr:country": "DE", "addr:housenumber": "50", "addr:postcode": "22846", "addr:street": "Rathausallee", "amenity": "theatre", "check_date": "2024-04-15", "full_name": "TriBühne - Kultur, Kongress, Norderstedt", "name": "Tribühne", "wheelchair": "yes"}}, {"type": "node", "id": 775866396, "lat": 53.4894735, "lon": 10.2088443, "tags": {"amenity": "theatre", "name": "Kulturforum Serrahn", "wheelchair": "limited"}}, {"type": "node", "id": 898821773, "lat": 53.5858401, "lon": 10.0449674, "tags": {"amenity": "theatre", "name": "Theater Jugend Hamburg", "wheelchair": "yes"}}, {"type": "node", "id": 1605489150, "lat": 53.7085061, "lon": 10.0056486, "tags": {"addr:city": "Norderstedt", "addr:housenumber": "90", "addr:postcode": "22844", "addr:street": "Langenharmer Weg", "amenity": "theatre", "check_date": "2024-06-11", "description": "Theater / Vorfuehrungssaal", "name": "Festsaal am Falkenberg", "wheelchair": "limited"}}, {"type": "node", "id": 1766403951, "lat": 53.5437835, "lon": 9.9876355, "tags": {"amenity": "theatre", "check_date": "2024-05-14", "name": "Theater Kehrwieder", "operator": "Stage Entertainment Germany GmbH"}}, {"type": "node", "id": 1781817976, "lat": 53.7144419, "lon": 10.0181437, "tags": {"amenity": "theatre", "name": "Waldbühne", "wheelchair": "yes"}}, {"type": "node", "id": 2121378161, "lat": 53.595873, "lon": 9.8730417, "tags": {"amenity": "theatre", "name": "Stadtteilhaus Lurup", "wheelchair": "yes"}}, {"type": "node", "id": 2311299894, "lat": 53.5501398, "lon": 10.0818734, "tags": {"addr:city": "Hamburg", "addr:country": "DE", "addr:housenumber": "2", "addr:street": "Bei der Martinskirche", "amenity": "theatre", "name": "Das kleine Hoftheater", "website": "https://www.hoftheater.de/", "wheelchair": "limited"}}, {"type": "node", "id": 2322301737, "lat": 53.4848807, "lon": 10.2118757, "tags": {"addr:city": "Hamburg", "addr:housenumber": "54", "addr:postcode": "21029", "addr:street": "Neuer Weg", "addr:suburb": "Bergedorf", "amenity": "theatre", "description": "Das kleine, feine Theater der Lohbrügger Bürgerbühne in Hamburg-Bergedorf", "name": "Theater am Neuen Weg", "operator": "Lohbrügger Bürgerbühne e.V.", "phone": "+4940 35714829", "source": "local_knowledge", "website": "https://www.buergerbuehne.de/"}}, {"type": "node", "id": 2442550925, "lat": 53.5550292, "lon": 9.9303291, "tags": {"addr:city": "Hamburg", "addr:country": "DE", "addr:housenumber": "33", "addr:postcode": "22765", "addr:street": "Abbestraße", "amenity": "theatre", "name": "Hoftheater Ottensen / Kindertheater Wackelzahn", "operator": "Breit, Franz", "wheelchair": "yes"}}, {"type": "node", "id": 2788197448, "lat": 53.5546954, "lon": 9.9420946, "tags": {"addr:city": "Hamburg", "addr:housenumber": "76", "addr:postcode": "22765", "addr:street": "Max-Brauer-Allee", "alt_name": "Hamburger Kammeroper", "amenity": "theatre", "name": "Allee Theater", "phone": "+49 40 382538", "toilets:wheelchair": "no", "website": "https://www.hamburger-kammeroper.de/", "wheelchair": "no"}}, {"type": "node", "id": 3431632859, "lat": 53.5559008, "lon": 10.0298937, "tags": {"addr:city": "Hamburg", "addr:country": "DE", "addr:housenumber": "23", "addr:postcode": "20535", "addr:street": "Klaus-Groth-Straße", "amenity": "theatre", "entrance": "yes", "name": "Hamburger Sprechwerk", "website": "http://www.hamburgersprechwerk.de", "wheelchair": "no"}}, {"type": "node", "id": 3489197580, "lat": 53.5612895, "lon": 9.9753199, "tags": {"addr:housenumber": "45", "addr:street": "Karolinenstraße", "amenity": "theatre", "contact:facebook": "https://www.facebook.com/volthamburg", "name": "Volt"}}, {"type": "node", "id": 3577328585, "lat": 53.5492083, "lon": 9.9642512, "tags": {"amenity": "theatre", "name": "Schmidtchen", "operator": "Schmidts TIVOLI GmbH", "toilets:wheelchair": "yes", "website": "https://www.tivoli.de/kontakt/ueber-uns/schmidtchen.html", "wheelchair": "yes"}}, {"type": "node", "id": 4223932394, "lat": 53.6584449, "lon": 10.0209665, "tags": {"amenity": "theatre", "name": "Kulturmix", "website": "https://www.kulturmix-in-langenhorn.de/", "wheelchair": "yes"}}, {"type": "node", "id": 4395758534, "lat": 53.4895399, "lon": 10.0025483, "tags": {"amenity": "theatre", "name": "Freilichtbühne"}}, {"type": "node", "id": 4485836457, "lat": 53.5559406, "lon": 9.980936, "tags": {"alt_name": "Grosse Musikhalle", "amenity": "theatre", "check_date": "2024-04-24", "name": "Großer Saal", "theatre:genre": "philharmonic", "theatre:type": "concert_hall", "wheelchair": "limited"}}, {"type": "node", "id": 4485836459, "lat": 53.55629, "lon": 9.9814367, "tags": {"alt_name": "Kleine Musikhalle", "amenity": "theatre", "name": "Kleiner Saal", "phone": "+49 40 35766666", "theatre:genre": "chamber_music", "theatre:type": "concert_hall", "toilets:wheelchair": "yes", "website": "https://www.elbphilharmonie.de/de/", "wheelchair": "yes"}}, {"type": "node", "id": 4667293474, "lat": 53.5460912, "lon": 9.9564952, "tags": {"amenity": "theatre", "name": "Zaubertheater \"Wunderkontor\""}}, {"type": "node", "id": 4942970584, "lat": 53.5523928, "lon": 9.9488104, "tags": {"amenity": "theatre", "name": "first stage Theater"}}, {"type": "node", "id": 6847314022, "lat": 53.5433109, "lon": 9.9960991, "tags": {"amenity": "theatre", "check_date": "2024-05-18", "name": "Hafenbühne", "website": "https://www.pierdrei-hotel.de/erleben/hafenbuehne"}}, {"type": "node", "id": 8920283163, "lat": 53.5562455, "lon": 9.9893347, "tags": {"amenity": "theatre", "name": "opera stabile", "operator": "Staatsoper Hamburg"}}, {"type": "node", "id": 9732863196, "lat": 53.5583358, "lon": 9.9298124, "tags": {"addr:city": "Hamburg", "addr:housenumber": "149", "addr:postcode": "22765", "addr:street": "Gaußstraße", "amenity": "theatre", "check_date": "2024-05-24", "name": "monsun.theater", "operator": "Francoise Hüsges", "website": "https://monsun.theater"}}, {"type": "node", "id": 9902195779, "lat": 53.5565435, "lon": 10.042947, "tags": {"amenity": "theatre", "name": "Fundus-Theater", "website": "https://fundus-theater.de/"}}, {"type": "node", "id": 10097899841, "lat": 53.5719944, "lon": 10.0724814, "tags": {"amenity": "theatre", "name": "Theatersaal Wandsbeker Marktplatz"}}, {"type": "node", "id": 10567471288, "lat": 53.5692447, "lon": 10.0261953, "tags": {"addr:city": "Hamburg", "addr:housenumber": "1", "addr:place": "Friedrich-Schütter-Platz", "addr:postcode": "22087", "amenity": "theatre", "check_date": "2024-04-07", "name": "Ernst Deutsch Theater", "phone": "+49 40 22701420", "toilets:wheelchair": "yes", "website": "https://www.ernst-deutsch-theater.de/", "wheelchair": "yes", "wheelchair:description": "Details zur Barrierefreiheit:rnhttp://www.ernst-deutsch-theater.de/service/barrierefreiheit/", "wikidata": "Q51916"}}, {"type": "node", "id": 10575273642, "lat": 53.4870192, "lon": 10.2083629, "tags": {"addr:city": "Hamburg", "addr:housenumber": "1", "addr:postcode": "21029", "addr:street": "Holzhude", "amenity": "theatre", "name": "LichtwarkTheater"}}, {"type": "node", "id": 10790198714, "lat": 53.5816338, "lon": 10.1060979, "tags": {"addr:city": "Hamburg", "addr:housenumber": "138", "addr:postcode": "22045", "addr:street": "Ahrensburger Straße", "amenity": "theatre", "description": "Im November 2012 wurde die Opernfactory als kleinstes Opernhaus Hamburgs gegründet. Das Theater hat insgesamt 130 Sitzplätze und bietet neben gemischten Programmen aus dem Bereich Oper und Operette auch Musicals, Chansons und Sprechtheaterstücke an.", "name": "Opernfactory Hamburg", "operator": "Opernfactory Hamburg", "website": "https://www.Opernfactory.com"}}, {"type": "node", "id": 11013705772, "lat": 53.5521422, "lon": 9.9986543, "tags": {"addr:city": "Hamburg", "addr:country": "DE", "addr:housenumber": "67", "addr:postcode": "20095", "addr:street": "Raboisen", "amenity": "theatre", "contact:phone": "+49 40 32814444", "contact:website": "https://www.thalia-theater.de/de/ihr-besuch/", "image": "http://commons.wikimedia.org/wiki/File:Hh-thalia.jpg", "name": "Thalia Theater", "not:brand:wikidata": "Q2408854", "operator": "Thalia Theater GmbH", "theatre:genre": "drama", "toilets:wheelchair": "no", "wheelchair": "yes", "wheelchair:description": "Nebeneingang barrierefrei mit Personal zu betreten", "wikidata": "Q456499", "wikipedia": "de:Thalia Theater (Hamburg)"}}, {"type": "node", "id": 11909081965, "lat": 53.7277436, "lon": 9.9967664, "tags": {"addr:city": "Norderstedt", "addr:housenumber": "2", "addr:postcode": "22844", "addr:street": "Erlengang", "amenity": "theatre", "name": "Tanks Theater Norderstedt e.V.", "website": "https://www.tankstheater.de/"}}]}