{"version": 0.6, "generator": "Overpass API 0.7.62.1 084b4234", "osm3s": {"timestamp_osm_base": "2024-06-14T12:07:11Z", "copyright": "The data included in this document is from www.openstreetmap.org. The data is made available under ODbL."}, "elements": [{"type": "node", "id": 288500995, "lat": 53.6902368, "lon": 9.813288, "tags": {"amenity": "school", "name": "Grundschule"}}, {"type": "node", "id": 305921179, "lat": 53.5402911, "lon": 10.2211547, "tags": {"amenity": "school", "contact:phone": "+49 40 688715780", "name": "Sönke-Nissen-Gemeinschaftsschule", "school:de": "Gemeinschaftsschule"}}, {"type": "node", "id": 306279430, "lat": 53.549308, "lon": 10.0601804, "tags": {"addr:city": "Hamburg", "addr:housenumber": "493", "addr:postcode": "20537", "addr:street": "Wendenstraße", "amenity": "school", "name": "SBB Kompetenz"}}, {"type": "node", "id": 338926089, "lat": 53.5990618, "lon": 9.9168678, "tags": {"amenity": "school", "name": "On Stage"}}, {"type": "node", "id": 353181698, "lat": 53.5581414, "lon": 10.0170112, "tags": {"addr:city": "Hamburg", "addr:housenumber": "41", "addr:postcode": "20099", "addr:street": "Rostocker Straße", "amenity": "school", "name": "Abendschule St. Georg", "wheelchair": "no", "wikidata": "Q21040682"}}, {"type": "node", "id": 353819487, "lat": 53.5577048, "lon": 10.0169191, "tags": {"addr:city": "Hamburg", "addr:housenumber": "62", "addr:postcode": "20099", "addr:street": "Rostocker Straße", "amenity": "school", "name": "Ganztagsrealschule St. Georg", "wheelchair": "no", "wikidata": "Q70214017"}}, {"type": "node", "id": 355862819, "lat": 53.5486531, "lon": 9.9981614, "tags": {"addr:city": "Hamburg", "addr:housenumber": "30", "addr:street": "Schopenstehl", "amenity": "school", "name": "Hamburger Nachmittagsschule"}}, {"type": "node", "id": 355864299, "lat": 53.6056538, "lon": 10.0750435, "tags": {"addr:city": "Hamburg", "addr:housenumber": "6", "addr:street": "Maimoortwiete", "amenity": "school", "fax": "+49 40 413453053", "name": "HANHUA Chinesisch-Schule e.V.", "operator": "HANHUA Chinesisch-Schule e.V.", "phone": "+49 40 53054392", "website": "http://jasisi.de/index.php/de/"}}, {"type": "node", "id": 356280066, "lat": 53.5659621, "lon": 9.9288613, "tags": {"addr:city": "Hamburg", "addr:country": "DE", "addr:housenumber": "13", "addr:postcode": "22761", "addr:street": "Leverkusenstraße", "amenity": "school", "contact:email": "info@psa-hamburg.de", "contact:facebook": "https://www.facebook.com/Produktionsschule-Altona-1430060593910437/", "contact:fax": "+49 40 851770-97", "contact:phone": "+49 40 851770-7", "contact:website": "https://www.psa-hamburg.de/", "isced:level": "2", "name": "Produktionsschule Altona", "operator": "Produktionsschule Altona gGmbH", "website": "http://www.produktionsschule-altona.de/", "wikidata": "Q1534996", "wikipedia": "de:Produktionsschule Altona"}}, {"type": "node", "id": 357377856, "lat": 53.6125383, "lon": 10.020929, "tags": {"amenity": "school", "name": "Evangelische Berufsfachschule für Sozialpädagogische Assistenz Alsterdorf", "wheelchair": "limited"}}, {"type": "node", "id": 360160122, "lat": 53.5810734, "lon": 10.0249304, "tags": {"addr:city": "Hamburg", "addr:housenumber": "126", "addr:street": "Weidestraße", "amenity": "school", "name": "Altenpflegeschule & Schule für Gesundheits-und Pflegeassistenz der Fortbildungsakademie (FAW) der Wirtschaft gGmbH"}}, {"type": "node", "id": 360282774, "lat": 53.6125375, "lon": 10.0205241, "tags": {"amenity": "school", "name": "Fachschule für Heilerzieher der Ev. Stiftung Alsterdorf", "wheelchair": "limited"}}, {"type": "node", "id": 361391020, "lat": 53.6461443, "lon": 10.0396877, "tags": {"addr:city": "Hamburg", "addr:country": "DE", "addr:housenumber": "38", "addr:postcode": "22339", "addr:street": "Grützmühlenweg", "amenity": "school", "name": "Schule Grützmühlenweg", "wheelchair": "no", "wikidata": "Q66828871"}}, {"type": "node", "id": 361391022, "lat": 53.6460106, "lon": 10.0396931, "tags": {"addr:city": "Hamburg", "addr:country": "DE", "addr:housenumber": "107", "addr:postcode": "22339", "addr:street": "Hummelsbüttler Hauptstraße", "amenity": "school", "name": "Gymnasium Hummelsbüttel", "toilets:wheelchair": "yes", "website": "https://www.gymnasium-hummelsbuettel.de/", "wheelchair": "limited", "wikidata": "Q63086254", "wikimedia_commons": "Category:Gymnasium Hummelsbüttel", "wikipedia": "de:Gymnasium Hummelsbüttel"}}, {"type": "node", "id": 364363014, "lat": 53.557588, "lon": 10.0168805, "tags": {"addr:city": "Hamburg", "addr:housenumber": "62", "addr:street": "Rostocker Straße", "amenity": "school", "name": "Höhere Handelsschule St. Georg", "operator": "Privatschulpädagogische GmbH", "wheelchair": "no"}}, {"type": "node", "id": 364663810, "lat": 53.5583837, "lon": 9.8225713, "tags": {"addr:city": "Hamburg", "addr:housenumber": "499", "addr:postcode": "22587", "addr:street": "Elbchaussee", "amenity": "school", "name": "Lola Rogge Schule", "wheelchair": "no"}}, {"type": "node", "id": 365906267, "lat": 53.5747827, "lon": 10.0728539, "tags": {"addr:city": "Hamburg", "addr:housenumber": "41", "addr:street": "Kattunbleiche", "amenity": "school", "name": "Schulungszentrum für Altenpflege"}}, {"type": "node", "id": 377780183, "lat": 53.561588, "lon": 10.0603132, "tags": {"addr:city": "Hamburg", "addr:country": "DE", "addr:housenumber": "12", "addr:postcode": "20535", "addr:street": "Quellenweg", "alt_name": "Bugenhagen-Schule", "amenity": "school", "contact:website": "https://www.kirche-hamburg.de/gemeinden/ev-luth-kirchengemeinde-zu-hamburg-hamm/kinder-und-familien/paulusschule.html", "name": "Paulusschule"}}, {"type": "node", "id": 446012154, "lat": 53.5733746, "lon": 9.9881784, "tags": {"amenity": "school", "name": "English Language Institute", "website": "https://www.english-language-institute.de/"}}, {"type": "node", "id": 538298635, "lat": 53.4169118, "lon": 10.1341428, "tags": {"amenity": "school", "name": "Grundschule Fliegenberg"}}, {"type": "node", "id": 599186804, "lat": 53.683816, "lon": 9.990724, "tags": {"addr:city": "Norderstedt", "addr:country": "DE", "addr:housenumber": "11", "addr:postcode": "22850", "addr:street": "Lütjenmoor", "amenity": "school", "check_date": "2024-04-18", "name": "Grundschule Lütjenmoor"}}, {"type": "node", "id": 820921217, "lat": 53.6607654, "lon": 9.7371215, "tags": {"addr:city": "Appen", "addr:country": "DE", "addr:housenumber": "4", "addr:postcode": "25482", "addr:street": "Schulstraße", "amenity": "school", "email": "rektor-gsa@t-online.de", "fax": "+49 4101 511757", "name": "Grundschule Appen", "note": "Position nur geschätzt", "phone": "+49 4101 511756", "website": "https://www.grundschule-appen.de/"}}, {"type": "node", "id": 835455517, "lat": 53.6835739, "lon": 9.9907364, "tags": {"addr:city": "Norderstedt", "addr:country": "DE", "addr:housenumber": "7", "addr:postcode": "22850", "addr:street": "Lütjenmoor", "amenity": "school", "name": "Willy-Brandt-Schule", "school:de": "Gemeinschaftsschule", "website": "https://www.wbs-norderstedt.de/", "wheelchair": "yes"}}, {"type": "node", "id": 1123329602, "lat": 53.5486331, "lon": 10.0227661, "tags": {"addr:city": "Hamburg", "addr:country": "DE", "addr:housenumber": "47a", "addr:postcode": "20097", "addr:street": "Hammerbrookstraße", "alt_name": "Institut für Berufliche Bildung AG", "amenity": "school", "email": "Hamburg@IBB.com", "name": "IBB", "phone": "+49 40 2353 2985", "website": "http://www.IBB.com"}}, {"type": "node", "id": 1172077653, "lat": 53.5828918, "lon": 10.0198581, "tags": {"amenity": "school", "check_date": "2024-03-06", "name": "Heilpraktikerschule paracelsus"}}, {"type": "node", "id": 1562491066, "lat": 53.548356, "lon": 10.0020238, "tags": {"amenity": "school", "name": "Instituto Cervantes"}}, {"type": "node", "id": 2079158047, "lat": 53.547812, "lon": 10.0270226, "tags": {"amenity": "school", "name": "Bilinguale Grundschule Phorms"}}, {"type": "node", "id": 2079158049, "lat": 53.5479864, "lon": 10.026634, "tags": {"amenity": "school", "name": "Bilinguales Gymnasium Phorms"}}, {"type": "node", "id": 2156053160, "lat": 53.5454733, "lon": 9.9819517, "tags": {"addr:housename": "Haus am Fleet", "addr:housenumber": "5–7", "addr:postcode": "20459", "addr:street": "Steinhöft", "alt_name": "TANDEM Hamburg Internationale Sprachenschule", "amenity": "school", "int_name": "TANDEM Hamburg International Language School", "name": "TANDEM Hamburg Language School", "old_name": "TANDEM Hamburg horizont dialogo e.V.", "source": "GPS"}}, {"type": "node", "id": 2184453482, "lat": 53.7293023, "lon": 9.7763471, "tags": {"amenity": "school", "check_date": "2024-04-19", "name": "Grundschule"}}, {"type": "node", "id": 2408266721, "lat": 53.5399608, "lon": 10.2211913, "tags": {"amenity": "school", "contact:phone": "+49 40 530566780", "name": "Gymnasium Glinde", "school:de": "Gymnasium"}}, {"type": "node", "id": 2849937732, "lat": 53.7154403, "lon": 9.9950209, "tags": {"addr:city": "Norderstedt", "addr:country": "DE", "addr:housenumber": "15", "addr:postcode": "22846", "addr:street": "Moorbekstraße", "amenity": "school", "isced:level": "2", "name": "Gemeinschaftsschule Friedrichsgabe", "old_name": "Regionalschule Friedrichsgabe", "school:DE": "Gemeinschaftsschule", "website": "https://gems-friedrichsgabe.lernnetz.de/"}}, {"type": "node", "id": 2850106231, "lat": 53.6896528, "lon": 10.0274759, "tags": {"addr:city": "Norderstedt", "addr:housenumber": "230", "addr:postcode": "22851", "addr:street": "Poppenbütteler Straße", "amenity": "school", "name": "Gemeinschaftsschule Ossenmoorpark", "school:de": "Gemeinschaftsschule", "website": "https://gems-ossenmoorpark.lernnetz.de/", "wheelchair": "yes"}}, {"type": "node", "id": 2850106232, "lat": 53.7152768, "lon": 9.9937989, "tags": {"addr:city": "Norderstedt", "addr:country": "DE", "addr:housenumber": "15", "addr:postcode": "22846", "addr:street": "Moorbekstraße", "amenity": "school", "isced:level": "2;3", "name": "Lessing-Gymnasium Norderstedt", "school:DE": "Gymnasium", "website": "https://www.lg-n.de/"}}, {"type": "node", "id": 2850106233, "lat": 53.6892061, "lon": 10.0276836, "tags": {"addr:city": "Norderstedt", "addr:housenumber": "230", "addr:postcode": "22851", "addr:street": "Poppenbütteler Straße", "amenity": "school", "name": "Lise-Meitner-Gymnasium", "school:de": "Gymnasium", "website": "https://lise-meitner-gymnasium.lernnetz.de/", "wheelchair": "yes"}}, {"type": "node", "id": 3304170083, "lat": 53.5875695, "lon": 10.0337439, "tags": {"addr:city": "Hamburg", "addr:housenumber": "30", "addr:postcode": "22303", "addr:street": "Saarlandstraße", "amenity": "school", "check_date": "2024-04-06", "name": "OKO Private School", "operator:type": "private", "website": "https://www.okoprivateschool.de/", "wheelchair": "limited", "wheelchair:description": "Stufenfreier Zugang zum Aufzug durch den Keller, Aufzug hält nicht im ersten Stock"}}, {"type": "node", "id": 3623177509, "lat": 53.6000182, "lon": 9.906961, "tags": {"amenity": "school", "contact:phone": "+49 40 5723125", "contact:website": "https://bs24.hamburg.de/", "name": "Berufliche Schule Eidelstedt", "old_name": "Staatliche Berufsschule Eidelstedt G12", "operator": "Behörde für Schule und Berufsbildung der Freien und Hansestadt Hamburg", "operator:type": "public", "operator:wikidata": "Q814586", "ref": "BS24"}}, {"type": "node", "id": 3648008933, "lat": 53.4866922, "lon": 10.1665056, "tags": {"amenity": "school", "name": "Gretel Bergmann Schule", "wheelchair": "yes"}}, {"type": "node", "id": 3814102157, "lat": 53.486469, "lon": 10.2105871, "tags": {"amenity": "school", "contact:email": "arndt.sarrafzadeh@t-online.de", "contact:phone": "+49 40 7214933", "contact:website": "http://www.bergedorf-klavierunterricht.de", "name": "Klavierunterricht in Bergedorf - speziell für Erwachsene"}}, {"type": "node", "id": 4111266908, "lat": 53.556741, "lon": 9.9669329, "tags": {"amenity": "school", "contact:email": "info@gorillagym.hamburg", "contact:phone": "+49 40 43190440", "contact:website": "http://gorillagym.hamburg", "description": "Schule für Kampfsport", "leisure": "fitness_centre", "level": "2", "name": "GORILLA GYM Hamburg", "sport": "multi"}}, {"type": "node", "id": 4241696100, "lat": 53.6608773, "lon": 9.8027269, "tags": {"addr:city": "Pinneberg", "addr:country": "DE", "addr:housenumber": "21", "addr:postcode": "25421", "addr:street": "Damm", "alt_name": "Institut für Berufliche Bildung AG", "amenity": "school", "email": "Pinneberg@IBB.com", "name": "IBB", "phone": "+49 4101 8556912", "website": "http://www.IBB.com"}}, {"type": "node", "id": 4408180553, "lat": 53.5756178, "lon": 9.878956, "tags": {"addr:housenumber": "85", "addr:street": "Notkestraße", "amenity": "school", "description": "registration only twice a year", "name": "physik.begreifen", "phone": "+49 40/8998 3314", "website": "https://physik-begreifen-hamburg.desy.de/"}}, {"type": "node", "id": 4462444088, "lat": 53.6822613, "lon": 9.9871724, "tags": {"amenity": "school", "name": "Rackow SBH Nord GmbH"}}, {"type": "node", "id": 4491137031, "lat": 53.5505273, "lon": 10.0646313, "tags": {"amenity": "school", "check_date": "2024-05-23", "name": "Bildungszentrum Gesundheitsberufe", "website": "http://www.asklepios.de/bzg"}}, {"type": "node", "id": 4535300089, "lat": 53.5793663, "lon": 10.0484132, "tags": {"addr:housenumber": "72", "addr:street": "Stückenstraße", "amenity": "school", "check_date": "2024-06-02", "name": "Integralis Institut / Intouch Massageschule", "name:de": "Intouch Massage Schule"}}, {"type": "node", "id": 4706969731, "lat": 53.5844849, "lon": 9.9697093, "tags": {"addr:housenumber": "108", "addr:street": "Hoheluftchaussee", "amenity": "school", "check_date": "2024-04-20", "name": "UNS - Institut für Deutsch und Studienberatung", "website": "https://www.unsgermany.de/"}}, {"type": "node", "id": 4710729473, "lat": 53.6350912, "lon": 9.758374, "tags": {"amenity": "school", "name": "Heideweg-Schule", "website": "https://www.heideweg-schule.de/", "wheelchair": "yes"}}, {"type": "node", "id": 4724797552, "lat": 53.6439001, "lon": 9.7891738, "tags": {"addr:housenumber": "19", "addr:street": "Eggerstedter Weg", "amenity": "school", "name": "International School Campus", "website": "https://www.isceducation.de/"}}, {"type": "node", "id": 4739920766, "lat": 53.6183297, "lon": 10.0293969, "tags": {"addr:city": "Hamburg", "addr:housenumber": "534", "addr:postcode": "22337", "addr:street": "Alsterdorfer Straße", "amenity": "school", "name": "Flachsland Zukunftsschule", "wheelchair": "no"}}, {"type": "node", "id": 4879843616, "lat": 53.5506267, "lon": 9.9332197, "tags": {"addr:city": "Hamburg", "addr:housenumber": "56", "addr:postcode": "22765", "addr:street": "Am Felde", "amenity": "school", "name": "Stage School"}}, {"type": "node", "id": 5029691622, "lat": 53.5330926, "lon": 10.1108014, "tags": {"amenity": "school"}}, {"type": "node", "id": 5233553012, "lat": 53.4933378, "lon": 10.2073713, "tags": {"amenity": "school", "check_date": "2024-04-12", "name": "Produktionsschule"}}, {"type": "node", "id": 5287805584, "lat": 53.551096, "lon": 9.9345041, "tags": {"amenity": "school", "check_date": "2024-03-16", "name": "UE - Univeristy of applied Sciences Europe (Hamburg Campus)"}}, {"type": "node", "id": 5524195162, "lat": 53.5464653, "lon": 10.023097, "tags": {"amenity": "school", "name": "Grone Schule"}}, {"type": "node", "id": 5524200481, "lat": 53.5467076, "lon": 10.0228932, "tags": {"amenity": "school", "name": "Grone Schule"}}, {"type": "node", "id": 5900036537, "lat": 53.5793461, "lon": 10.0426986, "tags": {"amenity": "school", "contact:website": "http://feine-künste.de", "name": "Feine Künste"}}, {"type": "node", "id": 6328613710, "lat": 53.5963282, "lon": 9.9958159, "tags": {"amenity": "school", "check_date": "2024-05-20", "name": "Grundschule Alsterdorfer Straße", "wikidata": "Q83181694"}}, {"type": "node", "id": 6416594767, "lat": 53.7324458, "lon": 9.9095045, "tags": {"addr:city": "Quickborn", "addr:housenumber": "55", "addr:postcode": "25451", "addr:street": "Feldbehnstraße", "amenity": "school", "name": "Freie Grunschule Quickborn", "website": "https://www.freie-grundschule-quickborn.de", "wikidata": "Q108170991"}}, {"type": "node", "id": 6530430328, "lat": 53.5484842, "lon": 9.998032, "tags": {"amenity": "school", "name": "Rackow Schule gGmbH"}}, {"type": "node", "id": 7080923645, "lat": 53.7326409, "lon": 9.9094534, "tags": {"addr:city": "Quickborn", "addr:country": "DE", "addr:housenumber": "55", "addr:postcode": "25451", "addr:street": "Feldbehnstraße", "amenity": "school", "name": "Freie Gesamtschule Quickborn", "website": "https://www.freie-gemeinschaftsschule-quickborn.de", "wikidata": "Q108171015"}}, {"type": "node", "id": 8050821521, "lat": 53.6028693, "lon": 10.044144, "tags": {"addr:city": "Hamburg", "addr:housenumber": "5", "addr:postcode": "22307", "addr:street": "Hartzlohplatz", "amenity": "school", "contact:email": "info@steff-idris-academy.com", "contact:facebook": "https://www.facebook.com/acbacreditagricolebank", "contact:phone": "+49 152 27241461", "contact:website": "http://www.steff-idris-academy.com", "name": "STEFF IDRIS - hair & make up artist academy", "operator": "Steff Idris"}}, {"type": "node", "id": 8564440441, "lat": 53.6664504, "lon": 9.9034742, "tags": {"addr:city": "Bönningstedt", "addr:housenumber": "119", "addr:postcode": "25474", "addr:street": "Kieler Straße", "amenity": "school", "craft": "atelier", "description": "Sowohl ein Atelier, als auch eine Kunstschule. Auch Auftragsarbeiten möglich", "email": "kontakt@werkstatt119.de", "name": "Werktstatt 119", "operator": "Regina Bubert", "operator:type": "private", "phone": "+49 1575 230 25 77", "school": "art", "website": "https://www.werkstatt119.de/"}}, {"type": "node", "id": 9061058243, "lat": 53.5799, "lon": 9.752236, "tags": {"amenity": "school", "name": "Stadtteilschule Rissen", "toilets:wheelchair": "no", "wheelchair": "no", "wikidata": "Q66133391"}}, {"type": "node", "id": 9061058244, "lat": 53.5799997, "lon": 9.7522384, "tags": {"amenity": "school", "name": "Gymnasium Rissen", "toilets:wheelchair": "no", "wheelchair": "no", "wikidata": "Q66133369"}}, {"type": "node", "id": 9149671437, "lat": 53.4683445, "lon": 9.9883914, "tags": {"addr:city": "Hamburg", "addr:housenumber": "10", "addr:postcode": "21079", "addr:street": "Zitadellenstraße", "amenity": "school", "email": "info@ps-harburg.de", "name": "Produktionsschule Harburg", "phone": "+49 40-21112-484", "start_date": "2010", "website": "https://www.produktionsschule-harburg.de/", "wikidata": "Q108027668", "wikipedia": "de:Produktionsschule Harburg"}}, {"type": "node", "id": 9464163711, "lat": 53.5997757, "lon": 9.9069275, "tags": {"amenity": "school", "contact:phone": "+49 40 57230", "contact:website": "https://www.bbw-hamburg.de", "name": "Berufsbildungswerk Hamburg", "operator": "Berufsbildungswerk Hamburg GmbH", "toilets:wheelchair": "yes", "wheelchair": "yes", "wikidata": "Q107389814"}}, {"type": "node", "id": 9483663293, "lat": 53.4956679, "lon": 10.1815318, "tags": {"amenity": "school", "name": "Staatliche Gewerbeschule Chemie, Pharmazie, Agrarwirtschaft", "ref": "G13", "wikidata": "Q105723361"}}, {"type": "node", "id": 9699827630, "lat": 53.5583025, "lon": 9.9721049, "tags": {"amenity": "school", "name": "Bühnenstudio der Darstellenden Künste", "website": "https://www.schauspielschule-buehnenstudio.de/"}}, {"type": "node", "id": 9737052672, "lat": 53.5263719, "lon": 10.3152931, "tags": {"addr:city": "Aumühle", "addr:country": "DE", "addr:housenumber": "2", "addr:postcode": "21521", "addr:street": "Im Winkel", "amenity": "school", "contact:email": "info@asta-akademie.de", "contact:fax": "+49 4104 9940599", "contact:phone": "+49 4104 9940667", "contact:website": "https://www.asta-akademie.de/", "name": "AStA Akademie"}}, {"type": "node", "id": 10031040889, "lat": 53.5466347, "lon": 9.9588633, "tags": {"amenity": "school", "name": "Ganztagsschule St. Pauli", "wheelchair": "limited"}}, {"type": "node", "id": 10051436910, "lat": 53.623919, "lon": 10.092656, "tags": {"amenity": "school", "contact:email": "grundschuleamgut@bsb.hamburg.de", "contact:phone": "+49 40 428932160", "contact:website": "https://grundschule-am-gut.hamburg.de/", "name": "Grundschule am Gut Zweigstelle Hohnerkamp", "operator": "Behörde für Schule und Berufsbildung", "operator:type": "public", "operator:wikidata": "Q814586", "operator:wikipedia": "de:Behörde für Schule und Berufsbildung", "wheelchair": "yes", "wikidata": "Q106611695"}}, {"type": "node", "id": 10051436911, "lat": 53.624177, "lon": 10.0925905, "tags": {"amenity": "school", "contact:email": "thomas.fritzsche@bsb.hamburg.de", "contact:fax": "+49 40 4288648-53", "contact:phone": "+49 40 4288648-40", "contact:website": "https://rebbz-wandsbek-nord.hamburg.de/standort-schule-a/", "description": "Anne-Frank-Schule im ReBBZ Wandsbek Nord", "name": "Anne- Frank-Schule", "opening_hours": "Mo-Th 07:45-15:30; Fr 07:45-14:00; PH off", "operator": "Behörde für Schule und Berufsbildung", "operator:type": "public", "operator:wikidata": "Q814586", "operator:wikipedia": "de:Behörde für Schule und Berufsbildung", "wheelchair": "yes", "wikidata": "Q106611695"}}, {"type": "node", "id": 10138195893, "lat": 53.5490808, "lon": 10.0339289, "tags": {"addr:city": "Hamburg", "addr:housenumber": "166", "addr:postcode": "20537", "addr:street": "Wendenstraße", "amenity": "school", "name": "Berufliche Schule Bautechnik (BS 08)", "note": "Ausweich-Standort bis vorraussichtlich 2024", "website": "https://bs08.de/", "wikidata": "Q105723288"}}, {"type": "node", "id": 10197993467, "lat": 53.6109501, "lon": 10.1190696, "tags": {"addr:city": "Hamburg", "addr:housenumber": "16", "addr:postcode": "22159", "addr:street": "Marie-Bautz-Weg", "amenity": "school", "name": "Berufsförderungswerk Hamburg", "operator": "BFW Berufsförderungswerk Hamburg gGmbH", "operator:type": "private", "website": "https://www.bfw-hamburg.de/", "wheelchair": "yes"}}, {"type": "node", "id": 10292822910, "lat": 53.5617171, "lon": 9.9193907, "tags": {"addr:housenumber": "71a", "addr:postcode": "22761", "addr:street": "Daimlerstraße", "amenity": "school", "contact:facebook": "erikakluetzschule", "contact:instagram": "erikakluetzschule", "email": "info@kluetzschule.de", "name": "Erika Klütz Schule", "phone": "+4940470062", "website": "https://www.kluetzschule.de/"}}, {"type": "node", "id": 11748405420, "lat": 53.5529692, "lon": 10.0337386, "tags": {"amenity": "school", "name": "Berufliche Schule für Wirtschaft und Handel Hamburg-Mitte"}}]}