{"version": 0.6, "generator": "Overpass API 0.7.62.1 084b4234", "osm3s": {"timestamp_osm_base": "2024-06-14T12:07:11Z", "copyright": "The data included in this document is from www.openstreetmap.org. The data is made available under ODbL."}, "elements": [{"type": "node", "id": 888499911, "lat": 53.5643301, "lon": 10.0569399, "tags": {"addr:city": "Hamburg", "addr:country": "DE", "addr:housenumber": "66", "addr:postcode": "20535", "addr:street": "Hammer Steindamm", "amenity": "clinic", "healthcare": "clinic", "name": "Medizinisches Versorgungszentrum am Marienkrankenhaus", "opening_hours": "Mo-Fr 08:00-12:00, Mo,Tu,Th 15:00-18:30"}}, {"type": "node", "id": 910385597, "lat": 53.5290311, "lon": 10.1478273, "tags": {"addr:city": "Hamburg", "addr:country": "DE", "addr:housenumber": "9-15", "addr:postcode": "22115", "addr:street": "Oskar-Schlemmer-Straße", "amenity": "clinic", "healthcare": "clinic", "name": "Praxisklinik Mümmelmannsberg", "wheelchair": "yes"}}, {"type": "node", "id": 1269116650, "lat": 53.494167, "lon": 10.2064905, "tags": {"addr:city": "Hamburg", "addr:housenumber": "2-16", "addr:postcode": "21031", "addr:street": "Alte Holstenstraße", "amenity": "clinic", "healthcare": "clinic", "name": "Praxisklinik Bergedorf", "website": "https://praxis-klinik-bergedorf.de/", "wheelchair": "yes"}}, {"type": "node", "id": 1564055724, "lat": 53.5484977, "lon": 9.9851133, "tags": {"addr:city": "Hamburg", "addr:country": "DE", "addr:housenumber": "3-4", "addr:postcode": "20459", "addr:street": "Admiralitätstraße", "amenity": "clinic", "check_date": "2023-06-24", "contact:phone": "+49 40 376710", "healthcare": "clinic", "name": "ATOS Klinik Fleetinsel", "operator": "ATOS Klinik Fleetinsel Hamburg GmbH & Co KG", "website": "https://atos-kliniken.com/de/hamburg/"}}, {"type": "node", "id": 3445310099, "lat": 53.6727453, "lon": 10.2414024, "tags": {"amenity": "clinic", "healthcare": "clinic", "healthcare:speciality": "psychiatry", "name": "Psychiatrische Tagesklinik Ahrensburg", "opening_hours": "Mo-Th 08:00-16:00, Fr 08:00-15:00", "website": "http://www.heinrich-sengelmann-krankenhaus.de/patienten/fachbereiche-und-behandlungsangebote/tageskliniken-und-institutsambulanzen/tagesklinik-ahrensburg/"}}, {"type": "node", "id": 3554555875, "lat": 53.5578644, "lon": 9.9883831, "tags": {"addr:city": "Hamburg", "addr:country": "DE", "addr:housenumber": "3", "addr:postcode": "20354", "addr:street": "Stephansplatz", "amenity": "clinic", "contact:email": "info@klinikum-stephansplatz.de", "contact:fax": "+49 40 3208831 30", "healthcare": "clinic", "name": "Klinikum Stephansplatz", "opening_hours": "Mo-Fr 8:00-18:00", "phone": "+49 40 3208831 0", "website": "http://www.klinikum-stephansplatz.de/", "wheelchair": "yes"}}, {"type": "node", "id": 3771948714, "lat": 53.588881, "lon": 9.9718492, "tags": {"addr:city": "Hamburg", "addr:country": "DE", "addr:housenumber": "52", "addr:postcode": "20251", "addr:street": "Martinistraße", "amenity": "clinic", "healthcare": "clinic", "healthcare:speciality": "psychiatry", "name": "Klinik für Psychiatrie", "source": "survey", "wheelchair": "yes"}}, {"type": "node", "id": 3893982170, "lat": 53.5840548, "lon": 10.0089261, "tags": {"addr:city": "Hamburg", "addr:country": "DE", "addr:housenumber": "2", "addr:postcode": "22303", "addr:street": "Goldbekplatz", "amenity": "clinic", "contact:email": "info@goldbek-medical.de", "contact:fax": "+49 40 6901408", "contact:phone": "+49 40 80600100;+49 40 616172", "contact:website": "https://www.goldbek-medical.de", "description": "Praxisklinik für Dermatologie, Kosmetik, Plastische und Ästhetische Chirurgie", "emergency": "no", "healthcare": "clinic", "healthcare:speciality": "surgery;plastic_surgery", "name": "Goldbek Medical", "opening_hours": "Mo,Tu,Th 08:00-13:00,14:30-18:00, We,Fr 08:00-15:00"}}, {"type": "node", "id": 4425042583, "lat": 53.5838323, "lon": 10.0208235, "tags": {"addr:city": "Hamburg", "addr:housenumber": "6", "addr:postcode": "22303", "addr:street": "Jarrestraße", "amenity": "clinic", "description": "Psychosomatische Tagesklinik", "emergency": "no", "healthcare": "clinic", "name": "Verhaltenstherapie Falkenried MVZ - Psychosomatische Tagesklinik", "opening_hours": "Mo-Th 10:00-13:00,14:00-16:30; Fr 10:00-13:00,14:00-16:00", "website": "https://www.vt-falkenried.de/"}}, {"type": "node", "id": 4425696946, "lat": 53.60127, "lon": 9.9902, "tags": {"amenity": "clinic", "emergency": "no", "healthcare": "clinic", "healthcare:speciality": "psychiatry", "name": "Psychosomatische Tagesklinik Ulmenhof", "operator": "Asklepios Kliniken", "operator:type": "private", "operator:wikidata": "Q732068", "operator:wikipedia": "de:Asklepios Kliniken"}}, {"type": "node", "id": 4935703063, "lat": 53.4698037, "lon": 9.7912807, "tags": {"amenity": "clinic", "healthcare": "clinic", "name": "Nu:lab Testzentrum"}}, {"type": "node", "id": 5268653388, "lat": 53.5647198, "lon": 9.9886664, "tags": {"addr:city": "Hamburg", "addr:country": "DE", "addr:housenumber": "7", "addr:postcode": "20148", "addr:street": "Rothenbaumchaussee", "amenity": "clinic", "check_date": "2024-01-22", "healthcare": "clinic", "healthcare:speciality": "plastic_surgery", "name": "Alster-Klinik", "opening_hours": "Mo-Th 08:00-18:30; Fr 08:00-17:00", "website": "https://alster-klinik.de/"}}, {"type": "node", "id": 5396035021, "lat": 53.6619857, "lon": 9.794797, "tags": {"amenity": "clinic", "emergency": "no", "healthcare": "clinic", "healthcare:speciality": "orthopaedics", "name": "Zentrum für Orthopädie und Chirurgie Pinneberg", "name:ru": "Ортопед", "opening_hours": "Mo-Fr 08:00-12:00, Mo-Th 14:00-17:30, Fr 13:00-16:00", "website": "https://www.zentrum-fuer-orthopaedie-und-chirurgie.de/"}}, {"type": "node", "id": 5762361780, "lat": 53.4627514, "lon": 9.9821969, "tags": {"amenity": "clinic", "emergency": "no", "fax": "+49 40 76 65 67 7", "healthcare": "clinic", "healthcare:speciality": "proctology;surgery", "level": "1", "name": "Asklepios Gesundheitszentrum Harburg – Schloßmühlendamm", "operator": "Asklepios Kliniken", "operator:type": "private", "operator:wikidata": "Q732068", "phone": "+49 40 76 56 26 2", "website": "https://www.asklepios.com/mvz-nord/hamburg/harburg/schlossmuehlendamm/fachrichtungen/chirurgie-und-proktologie/"}}, {"type": "node", "id": 6430148010, "lat": 53.5636861, "lon": 9.8120599, "tags": {"addr:city": "Hamburg", "addr:housenumber": "1a", "addr:postcode": "22587", "addr:street": "Sülldorfer Kirchenweg", "amenity": "clinic", "healthcare": "clinic", "healthcare:speciality": "plastic_surgery", "name": "Park-Klinik Blankenese"}}, {"type": "node", "id": 7084414245, "lat": 53.6494958, "lon": 10.0127653, "tags": {"amenity": "clinic", "email": "dr.rauhut@alster-lasik.de", "healthcare": "clinic", "healthcare:speciality": "ophthalmology", "level": "3", "name": "Alster Lasik", "opening_hours": "Mo 08:30-12:30,14:30-17:30; Tu 08:30-12:00,15:30-17:30; We,Th 08:30-12:30,14:00-17:30; Fr 09:00-11:00", "operator": "Dr. med. Wolfgang Rauhut - Praxisklinik am Langenhorner Markt", "phone": "+49 40 531 30 41", "source": "http://www.alster-lasik.de/impressum/", "website": "https://www.alster-lasik.de/"}}, {"type": "node", "id": 8709444320, "lat": 53.5837951, "lon": 10.0573491, "tags": {"amenity": "clinic", "healthcare": "dialysis", "healthcare:speciality": "nephrology", "name": "Diaverum Alter Teichweg", "opening_hours": "Mo,We,Fr 08:00-18:00; Tu,Th 08:00-12:00", "website": "https://de.diaverum.com/de/de/clinic-container/diaverum-alter-teichweg"}}, {"type": "node", "id": 9347616901, "lat": 53.6538317, "lon": 10.0929224, "tags": {"addr:city": "Hamburg", "addr:housenumber": "14", "addr:postcode": "22391", "addr:street": "Heegbarg", "amenity": "clinic", "email": "praxis@amcuro.de", "healthcare": "clinic", "healthcare:speciality": "urology;surgery", "image": "https://amcuro.de/wp-content/uploads/2021/06/amcuro_logo-1536x794.png", "level": "0", "name": "AMCURO - Ambulantes Centrum für Urologie - Dr. Aalamian-Mattheis und Dr. Tauber", "opening_hours": "Mo 09:00-13:00, 14:30-17:00; Tu 09:00-13:00, 15:00-17:00; We 09:00-13:00, 15:00-18:00; Th 09:00-13:00, 14:00-15:30; Fr 09:00-14:00", "payment:cash": "yes", "payment:contactless": "yes", "payment:girocard": "yes", "payment:mastercard": "yes", "payment:telephone_cards": "yes", "payment:visa": "yes", "phone": "+49 40 61192111", "website": "https://amcuro.de", "wheelchair": "yes"}}, {"type": "node", "id": 9489100756, "lat": 53.5580166, "lon": 9.9883549, "tags": {"addr:city": "Hamburg", "addr:housenumber": "5", "addr:postcode": "20354", "addr:street": "Stephansplatz", "amenity": "clinic", "check_date:opening_hours": "2024-01-12", "email": "info.hamburg@lanserhof.com", "healthcare": "clinic", "healthcare:speciality": "orthopaedics", "image": "https://lansmedicum.de/wp-content/uploads/2021/06/logo-top.svg", "name": "LANS Medicum Hamburg", "opening_hours": "Mo-Sa 08:00-18:00"}}, {"type": "node", "id": 9770432729, "lat": 53.4616459, "lon": 9.9758034, "tags": {"amenity": "clinic", "contact:email": "info.suederelbe@nephrocare.com", "contact:fax": "+49 40 771051", "contact:phone": "+49 40 7661320", "contact:website": "http://www.nephrocare-hamburg-harburg.de/WB/pages/harburg.php", "emergency": "no", "healthcare": "clinic", "healthcare:speciality": "internal;nephrology", "name": "Nephrocare Hamburg-Süderelbe", "operator": "Nephrocare Hamburg-Süderelbe GmbH", "wheelchair": "yes"}}, {"type": "node", "id": 9962503089, "lat": 53.5571827, "lon": 9.9093987, "tags": {"addr:city": "Hamburg", "addr:housenumber": "30", "addr:postcode": "22763", "addr:street": "Friesenweg", "amenity": "clinic", "healthcare": "clinic", "healthcare:speciality": "paediatrics", "name": "Zentrum für Kinderneurologie,", "opening_hours": "Mo 09:00-16:00; Tu,Th 09:00-18:00; We,Fr 09:00-13:00", "operator": "Dr. Caroline Maxton", "wheelchair": "yes"}}, {"type": "node", "id": 10076383887, "lat": 53.5802902, "lon": 9.974257, "tags": {"addr:city": "Hamburg", "addr:housenumber": "36", "addr:postcode": "20253", "addr:street": "Hoheluftchaussee", "amenity": "clinic", "check_date": "2024-03-22", "description": "Arbeitsmedizin, Betriebsmedizin, Vorsorgeuntersuchungen, Reisemedizin. Gutachten nach FeV, Führerscheinuntersuchungen", "healthcare": "clinic", "healthcare:speciality": "occupational", "level": "1", "name": "MATRIX :: Med & Consult", "opening_hours": "\"nach Vereinbarung\"", "operator": "MATRIX :: Med & Consult", "operator:type": "business", "phone": "+49 40 2372 4120 - 0", "website": "https://www.matmeco.com"}}, {"type": "node", "id": 10078063275, "lat": 53.521541, "lon": 10.2460759, "tags": {"addr:city": "Reinbek", "addr:housenumber": "9", "addr:postcode": "21465", "addr:street": "Kinauweg", "amenity": "clinic", "healthcare": "clinic", "healthcare:speciality": "psychiatry", "name": "Tagesklinik Reinbek", "operator": "Heinrich Sengelmann Kliniken gGmbH", "phone": "+49 40 731 287 20", "website": "https://www.heinrich-sengelmann-kliniken.de/tagesklinik-reinbek/"}}, {"type": "node", "id": 10078063276, "lat": 53.5214982, "lon": 10.2463635, "tags": {"amenity": "clinic", "healthcare": "clinic", "healthcare:speciality": "psychiatry", "name": "Psychiatrische Institutsambulanz Reinbek", "operator": "Heinrich Sengelmann Kliniken gGmbH", "phone": "+49 40 731 287 60", "website": "https://www.heinrich-sengelmann-kliniken.de/tagesklinik-reinbek/"}}, {"type": "node", "id": 10084981244, "lat": 53.6127089, "lon": 10.0257275, "tags": {"addr:city": "Hamburg", "addr:housenumber": "8", "addr:postcode": "22297", "addr:street": "Alsterdorfer Markt", "amenity": "clinic", "contact:fax": "+49 40 50773989", "contact:phone": "+49 40 50773989", "healthcare": "doctor", "level": "3", "name": "Tagesklinik der psychiatrisch-psychotherapeutischen Abteilung Ev. Krankenhaus Alsterdorf", "opening_hours": "Mo-Fr 09:00-15:00; PH off"}}, {"type": "node", "id": 10175686896, "lat": 53.572333, "lon": 10.0294374, "tags": {"addr:city": "Hamburg", "addr:housenumber": "23", "addr:postcode": "22083", "addr:street": "Hamburger Straße", "amenity": "clinic", "healthcare": "clinic", "level": "1", "name": "Ärztehaus"}}, {"type": "node", "id": 11025264864, "lat": 53.5618426, "lon": 9.9155178, "tags": {"addr:city": "Hamburg", "addr:housenumber": "6 B", "addr:postcode": "22761", "addr:street": "Gasstraße", "amenity": "clinic", "description": "Tagesklinik Altona (3. OG)\nPsychiatrische Institutsambulanz Altona (4. OG)", "healthcare": "clinic", "healthcare:speciality": "psychiatry", "name": "Fachzentrum Altona für Psychiatrie und Psychotherapie", "opening_hours": "Mo-Fr 09:30-12:00", "operator": "Asklepios Westklinikum Hamburg", "operator:type": "public", "website": "https://www.asklepios.com/hamburg/westklinikum/experten/psychiatrie_und_psychotherapie/", "wheelchair": "yes"}}, {"type": "node", "id": 11222931058, "lat": 53.4980342, "lon": 10.0074474, "tags": {"amenity": "clinic", "check_date:opening_hours": "2023-11-25", "healthcare": "clinic", "level": "1", "name": "Betriebsarztcentrum Merkel", "opening_hours:signed": "no"}}, {"type": "node", "id": 11310153952, "lat": 53.5522941, "lon": 9.9426331, "tags": {"amenity": "clinic", "branch": "MVZ für Hormon- und Stoffwechselerkrankung, Kinderwunsch und Genetik", "contact:fax": "+49 40 30628239", "contact:phone": "+49 40 30628200", "contact:website": "https://www.endokrinologikum-hamburg.de/", "healthcare": "clinic", "healthcare:speciality": "endocrinology;fertility", "name": "Endokrinologikum Hamburg"}}, {"type": "node", "id": 11370606997, "lat": 53.5523912, "lon": 10.0035917, "tags": {"addr:city": "Hamburg", "addr:housenumber": "8", "addr:postcode": "20095", "addr:street": "Spitalerstraße", "amenity": "clinic", "check_date:opening_hours": "2024-03-12", "healthcare": "clinic", "healthcare:speciality": "radiology", "name": "PET/CT-Zentrum Hamburg", "opening_hours:signed": "no"}}, {"type": "node", "id": 11375418370, "lat": 53.5579234, "lon": 9.9894274, "tags": {"amenity": "clinic", "healthcare": "clinic", "name": "Gesichtschirugie Dr. Axel Arlt"}}, {"type": "node", "id": 11756624188, "lat": 53.5803111, "lon": 9.9742355, "tags": {"addr:city": "Hamburg", "addr:housenumber": "36", "addr:postcode": "20253", "addr:street": "Hoheluftchaussee", "amenity": "clinic", "check_date": "2024-03-22", "description": "Gutachten nach FeV, Führerscheinuntersuchungen", "healthcare": "clinic", "healthcare:speciality": "verkehrsmedizin;occupational", "level": "1", "name": "verkehrsdocs.de", "opening_hours": "Termine online", "operator": "verkehrsdocs mady by MATRIX :: Med & Consult", "operator:type": "business", "phone": "+49 40 2372 4120 - 0", "website": "https://www.verkehrsdocs.de"}}, {"type": "node", "id": 11849666126, "lat": 53.6524276, "lon": 10.0934083, "tags": {"addr:city": "Hamburg", "addr:housenumber": "2", "addr:postcode": "22391", "addr:street": "Heegbarg", "alt_name": "Dr. Jörg Zimmermann & Dr. Petra Zimmermann", "amenity": "clinic", "contact:phone": "+49 40 54887325", "description": "Dr. Jörg Zimmermann: Brachytherapie bei Prostatakrebs, Dr. Petra Zimmermann: Hyperthermie", "fixme": "level; reposition", "healthcare": "clinic", "healthcare:speciality": "oncology;hyperthermia", "name": "Praxiszentrum Alstertal", "website": "https://praxiszentrum-alstertal.de"}}, {"type": "node", "id": 11883906880, "lat": 53.5535503, "lon": 10.0129087, "tags": {"amenity": "clinic", "healthcare": "clinic", "name": "Ärztehaus Steindamm 32"}}]}