{"version": 0.6, "generator": "Overpass API 0.7.62.1 084b4234", "osm3s": {"timestamp_osm_base": "2024-06-14T12:07:11Z", "copyright": "The data included in this document is from www.openstreetmap.org. The data is made available under ODbL."}, "elements": [{"type": "node", "id": 258006278, "lat": 53.5791689, "lon": 10.0962791, "tags": {"amenity": "bar", "description": "Shisha und Cocktailbar", "name": "My Way", "smoking": "yes", "wheelchair": "no"}}, {"type": "node", "id": 262390793, "lat": 53.5712359, "lon": 10.1153859, "tags": {"amenity": "bar", "name": "Amers"}}, {"type": "node", "id": 290636389, "lat": 53.5625379, "lon": 9.9643633, "tags": {"addr:city": "Hamburg", "addr:country": "DE", "addr:housenumber": "30", "addr:postcode": "20357", "addr:street": "Bartelsstraße", "amenity": "bar", "check_date:opening_hours": "2024-02-04", "email": "kontakt@goldfischglas.de", "indoor_seating": "yes", "name": "Goldfischglas", "opening_hours": "Su-Fr 14:00-24:00+; Sa 13:00-24:00+", "opening_hours:signed": "no", "operator": "GoldfischGlas GmbH", "outdoor_seating": "yes", "toilets:wheelchair": "no", "website": "http://goldfischglas.de", "wheelchair": "limited"}}, {"type": "node", "id": 300559694, "lat": 53.5679562, "lon": 9.9595521, "tags": {"addr:city": "Hamburg", "addr:country": "DE", "addr:housenumber": "31-33", "addr:postcode": "20259", "addr:street": "Bellealliancestraße", "amenity": "bar", "check_date": "2022-10-31", "name": "Gloria", "opening_hours": "Mo-Th 17:00+; Fr-Su 15:00+", "outdoor_seating": "yes", "payment:credit_cards": "yes", "payment:debit_cards": "yes", "payment:maestro": "yes", "payment:v_pay": "yes", "phone": "+49 40 43290464", "smoking": "no", "toilets:wheelchair": "no", "website": "https://gloriabar.de/", "wheelchair": "no"}}, {"type": "node", "id": 300904873, "lat": 53.576307, "lon": 9.9695479, "tags": {"addr:city": "Hamburg", "addr:country": "DE", "addr:housenumber": "95", "addr:postcode": "20253", "addr:street": "Bismarckstraße", "amenity": "bar", "cuisine": "mexican", "description": "Tapas, Salate, Pasta, Pizza, Toast, Sopas", "email": "corrado@baradona.de", "indoor_seating": "yes", "name": "Baradona", "opening_hours": "Su-Fr 18:00+; Sa 20:00+", "operator": "Corrado De Ponte", "outdoor_seating": "yes", "payment:credit_cards": "yes", "payment:debit_cards": "yes", "phone": "+49 40 42 10 20 50", "smoking": "no", "website": "http://baradona.com/", "wheelchair": "no"}}, {"type": "node", "id": 351138166, "lat": 53.5527507, "lon": 9.923955, "tags": {"addr:city": "Hamburg", "addr:country": "DE", "addr:housenumber": "81", "addr:postcode": "22763", "addr:street": "Große Brunnenstraße", "amenity": "bar", "check_date": "2024-02-22", "check_date:opening_hours": "2024-02-22", "indoor_seating": "yes", "name": "Nostalgia Bar", "opening_hours:signed": "no", "outdoor_seating": "no", "wheelchair": "no"}}, {"type": "node", "id": 364138847, "lat": 53.5534186, "lon": 9.9798395, "tags": {"addr:city": "Hamburg", "addr:country": "DE", "addr:housenumber": "29", "addr:postcode": "20355", "addr:street": "Kohlhöfen", "amenity": "bar", "name": "Oorlam", "opening_hours": "Tu-Su 16:00-00:00; Th-Sa 00:00-01:00; Sa, Su 15:00-16:00", "phone": "+49 176 34367697", "website": "https://www.oorlam.de/", "wheelchair": "yes"}}, {"type": "node", "id": 366994064, "lat": 53.5980635, "lon": 9.8614674, "tags": {"amenity": "bar", "name": "Musti"}}, {"type": "node", "id": 437355075, "lat": 53.5497482, "lon": 9.960888, "tags": {"addr:city": "Hamburg", "addr:country": "DE", "addr:housenumber": "102", "addr:postcode": "20359", "addr:street": "Reeperbahn", "amenity": "bar", "check_date:opening_hours": "2024-04-16", "name": "BeerPONG BAR", "opening_hours:signed": "no", "website": "https://www.albers-bar.de/", "wheelchair": "yes"}}, {"type": "node", "id": 448903886, "lat": 53.590172, "lon": 9.9878885, "tags": {"amenity": "bar", "indoor_seating": "yes", "name": "Paolas", "opening_hours": "Tu-Sa 12:00-24:00", "outdoor_seating": "yes"}}, {"type": "node", "id": 477335654, "lat": 53.5480649, "lon": 9.9609981, "tags": {"addr:city": "Hamburg", "addr:country": "DE", "addr:housenumber": "9", "addr:postcode": "20359", "addr:street": "Gerhardstraße", "amenity": "bar", "name": "Kiez Klause"}}, {"type": "node", "id": 477335655, "lat": 53.5481687, "lon": 9.9609756, "tags": {"addr:city": "Hamburg", "addr:country": "DE", "addr:housenumber": "10", "addr:postcode": "20359", "addr:street": "Gerhardstraße", "amenity": "bar", "name": "Chikago Bar"}}, {"type": "node", "id": 477335657, "lat": 53.5481137, "lon": 9.9612509, "tags": {"addr:city": "Hamburg", "addr:country": "DE", "addr:housenumber": "16", "addr:postcode": "20359", "addr:street": "Gerhardstraße", "amenity": "bar", "check_date:opening_hours": "2024-04-21", "name": "Der blaue Engel von St. Pauli", "opening_hours:signed": "no"}}, {"type": "node", "id": 490185871, "lat": 53.5492265, "lon": 9.9848943, "tags": {"amenity": "bar", "check_date": "2023-06-24", "indoor_seating": "yes", "name": "Erste Liebe Bar", "opening_hours": "Mo-Fr 08:00-18:00; Sa 09:30-18:00", "outdoor_seating": "yes", "wheelchair": "no"}}, {"type": "node", "id": 501590852, "lat": 53.5694668, "lon": 10.0275389, "tags": {"addr:city": "Hamburg", "addr:country": "DE", "addr:housenumber": "12", "addr:postcode": "22087", "addr:street": "Schürbeker Straße", "amenity": "bar", "contact:email": "kontakt@cocktrail.de", "contact:fax": "+49 (0)40 22692056", "contact:phone": "+49 (0)40 22692055", "contact:website": "http://www.cocktrail.de/", "indoor_seating": "yes", "level": "0", "name": "Cocktrail Bar", "opening_hours": "Mo-Su 16:00-23:00", "outdoor_seating": "no", "payment:credit_cards": "no", "payment:debit_cards": "yes", "toilets:wheelchair": "yes", "wheelchair": "yes"}}, {"type": "node", "id": 536391118, "lat": 53.5554045, "lon": 10.0158814, "tags": {"addr:city": "Hamburg", "addr:housenumber": "63", "addr:postcode": "20099", "addr:street": "Steindamm", "amenity": "bar", "indoor_seating": "yes", "internet_access": "yes", "level": "0", "name": "Arcotel Rubin", "opening_hours": "Su-Th 17:30-01:30, Fr,Sa 15:00-01:30", "operator": "ARCOTEL Rubin", "outdoor_seating": "no", "payment:coins": "yes", "payment:credit_cards": "no", "payment:debit_cards": "no", "payment:girocard": "no", "payment:maestro": "no", "payment:mastercard": "no", "payment:notes": "yes", "payment:visa": "no", "smoking": "outside", "wheelchair": "yes"}}, {"type": "node", "id": 537516635, "lat": 53.5575214, "lon": 10.012043, "tags": {"amenity": "bar", "check_date:opening_hours": "2024-03-04", "name": "Bellini Bar", "opening_hours": "Mo-Sa 18:00+", "payment:credit_cards": "no", "payment:debit_cards": "no", "smoking": "dedicated", "wheelchair": "no"}}, {"type": "node", "id": 544749914, "lat": 53.6552975, "lon": 10.0935559, "tags": {"amenity": "bar", "name": "del Vino", "opening_hours": "Mo-Sa 11:00-24:00", "wheelchair": "yes"}}, {"type": "node", "id": 586217084, "lat": 53.5939934, "lon": 10.0153583, "tags": {"amenity": "bar", "name": "Downtown Bluesclub", "wheelchair": "limited"}}, {"type": "node", "id": 592581944, "lat": 53.5942724, "lon": 10.0164008, "tags": {"amenity": "bar", "name": "El Ray", "wheelchair": "no"}}, {"type": "node", "id": 603248363, "lat": 53.5727173, "lon": 10.0161224, "tags": {"amenity": "bar", "email": "Kontakt@caipi-colada.de", "name": "Caipi Colada", "opening_hours": "Th-Su 17:00+", "phone": "+49 40 2296329", "website": "https://caipi-colada.de/", "wheelchair": "no"}}, {"type": "node", "id": 677298673, "lat": 53.5715458, "lon": 9.9860083, "tags": {"addr:city": "Hamburg", "addr:country": "DE", "addr:housenumber": "8", "addr:postcode": "20146", "addr:street": "Hallerplatz", "amenity": "bar", "indoor_seating": "yes", "name": "Windschirm", "outdoor_seating": "yes", "wheelchair": "limited"}}, {"type": "node", "id": 706304102, "lat": 53.706985, "lon": 9.9899916, "tags": {"addr:city": "Norderstedt", "addr:housenumber": "72-76", "addr:postcode": "22846", "addr:street": "Rathausallee", "amenity": "bar", "name": "Lenci´s DrinX", "wheelchair": "yes"}}, {"type": "node", "id": 761660789, "lat": 53.5932594, "lon": 9.9895526, "tags": {"amenity": "bar", "check_date": "2023-09-09", "name": "Kopps Bar", "smoking": "yes", "wheelchair": "no"}}, {"type": "node", "id": 768505770, "lat": 53.5652572, "lon": 9.9606653, "tags": {"addr:city": "Hamburg", "addr:country": "DE", "addr:housenumber": "66", "addr:postcode": "20357", "addr:street": "Amandastraße", "amenity": "bar", "name": "Er-Lis"}}, {"type": "node", "id": 778255350, "lat": 53.5697351, "lon": 9.9464713, "tags": {"amenity": "bar", "indoor_seating": "yes", "name": "Astra", "outdoor_seating": "yes"}}, {"type": "node", "id": 797563657, "lat": 53.5520333, "lon": 10.0178853, "tags": {"amenity": "bar", "name": "Queen Mum"}}, {"type": "node", "id": 817651042, "lat": 53.6181749, "lon": 10.091964, "tags": {"amenity": "bar", "name": "Dingsda"}}, {"type": "node", "id": 844588934, "lat": 53.5482126, "lon": 9.9650197, "tags": {"addr:city": "Hamburg", "addr:country": "DE", "addr:housenumber": "13", "addr:postcode": "20359", "addr:street": "Taubenstraße", "amenity": "bar", "contact:phone": "+49 40 35735130", "contact:website": "https://www.thechugclub.bar/", "name": "The Chug Club", "opening_hours": "Mo-Tu 18:00-01:00; Fr-Sa 18:00-02:00; Su 18:00-01:00", "wheelchair": "yes"}}, {"type": "node", "id": 938442575, "lat": 53.5418412, "lon": 10.1025218, "tags": {"addr:city": "Hamburg", "addr:country": "DE", "addr:housenumber": "22", "addr:postcode": "22111", "addr:street": "Schiffbeker Weg", "amenity": "bar", "cuisine": "german", "name": "Club Europa", "wheelchair": "yes"}}, {"type": "node", "id": 957178948, "lat": 53.5826371, "lon": 10.0551839, "tags": {"addr:city": "Hamburg", "addr:housenumber": "46", "addr:postcode": "22049", "addr:street": "Krausestraße", "amenity": "bar", "check_date:opening_hours": "2023-03-28", "image": "https://lh3.googleusercontent.com/p/AF1QipNT6RoYSIGN6u55Bm9dszeT9E_APSzg-gfhOOhQ=w1080-h608-p-no-v0", "level": "0", "name": "Homeland", "opening_hours": "Mo-Fr 16:00-02:00, Fr-Sa 16:00-03:00", "outdoor_seating": "no", "phone": "+49 1512 9484025", "website": "https://homeland-bar.business.site/"}}, {"type": "node", "id": 957281724, "lat": 53.581193, "lon": 10.0093063, "tags": {"addr:city": "Hamburg", "addr:country": "DE", "addr:housenumber": "33", "addr:postcode": "22301", "addr:street": "Dorotheenstraße", "amenity": "bar", "check_date:opening_hours": "2023-06-23", "name": "Bar du Nord", "opening_hours": "Oct-Mar: Mo-Th 19:00-03:00, Oct-Mar: Fr,Sa 19:00-05:00, Apr-Sep: Mo-Th 20:00-03:00, Apr-Sep: Fr,Sa 20:00-05:00", "phone": "+49 40 27806225", "website": "https://www.bardunord.de/", "wheelchair": "no"}}, {"type": "node", "id": 984999460, "lat": 53.5168428, "lon": 9.9888964, "tags": {"amenity": "bar", "name": "Pianola Bar"}}, {"type": "node", "id": 1004006265, "lat": 53.5512483, "lon": 9.9610691, "tags": {"amenity": "bar", "check_date": "2023-10-23", "name": "Blauer Peter", "toilets:wheelchair": "no", "wheelchair": "yes"}}, {"type": "node", "id": 1004006273, "lat": 53.5511629, "lon": 9.9610193, "tags": {"amenity": "bar", "check_date": "2023-12-28", "name": "Roschinskys", "wheelchair": "yes"}}, {"type": "node", "id": 1004006275, "lat": 53.5484273, "lon": 9.960365, "tags": {"addr:housenumber": "1", "addr:street": "Hans-Albers-Platz", "amenity": "bar", "check_date:opening_hours": "2023-10-29", "name": "20 Flight Rock", "opening_hours:signed": "no"}}, {"type": "node", "id": 1004006276, "lat": 53.5481798, "lon": 9.9602403, "tags": {"addr:housenumber": "29", "addr:street": "Friedrichstraße", "amenity": "bar", "name": "Chez Lorsin", "opening_hours": "Mo-Sa 18:00+"}}, {"type": "node", "id": 1004006286, "lat": 53.5508076, "lon": 9.9614461, "tags": {"amenity": "bar", "check_date": "2023-12-28", "check_date:opening_hours": "2024-05-12", "kicker": "yes", "name": "Lunacy", "opening_hours:signed": "no", "sport": "table_soccer", "wheelchair": "no"}}, {"type": "node", "id": 1022509474, "lat": 53.5475588, "lon": 9.9620406, "tags": {"amenity": "bar", "name": "Komet", "opening_hours": "We-Su 20:00+", "payment:cash": "only", "wheelchair": "no"}}, {"type": "node", "id": 1077515423, "lat": 53.5533976, "lon": 9.9293056, "tags": {"addr:city": "Hamburg", "addr:housenumber": "142", "addr:postcode": "22765", "addr:street": "Bahrenfelder Straße", "amenity": "bar", "check_date:opening_hours": "2024-03-17", "indoor_seating": "yes", "name": "Shisha Lounge La Vie", "opening_hours:signed": "no", "outdoor_seating": "yes", "source": "survey", "wheelchair": "no"}}, {"type": "node", "id": 1088043269, "lat": 53.55276, "lon": 9.961079, "tags": {"addr:housenumber": "2", "addr:street": "Wohlwillstraße", "amenity": "bar", "indoor_seating": "yes", "name": "Bar Wohlzimmer", "outdoor_seating": "yes"}}, {"type": "node", "id": 1184555741, "lat": 53.5587774, "lon": 9.9645758, "tags": {"addr:housenumber": "17", "addr:postcode": "20359", "addr:street": "Neuer Pferdemarkt", "air_conditioning": "yes", "amenity": "bar", "check_date": "2023-09-15", "check_date:opening_hours": "2023-10-03", "description": "viele alte Sofas", "indoor_seating": "yes", "name": "Zoë II", "opening_hours": "Tu-Th 18:00-01:00, Fr 18:00-03:00, Sa 14:00-03:00; Su-Mo off", "opening_hours:url": "https://zoebar.de/", "outdoor_seating": "yes", "payment:apple_pay": "yes", "payment:contactless": "yes", "payment:credit_cards": "yes", "payment:debit_cards": "yes", "smoking": "outside", "toilets": "yes", "toilets:access": "customers", "toilets:unisex": "no", "toilets:wheelchair": "no", "website": "https://zoebar.de/", "wheelchair": "limited"}}, {"type": "node", "id": 1285341783, "lat": 53.5308414, "lon": 10.2516, "tags": {"addr:city": "Reinbek", "addr:country": "DE", "addr:housenumber": "36", "addr:postcode": "21465", "addr:street": "Dorfstraße", "amenity": "bar", "name": "Kleiner Rasthof", "tourism": "guest_house"}}, {"type": "node", "id": 1342652460, "lat": 53.5539969, "lon": 9.9288916, "tags": {"amenity": "bar", "check_date:opening_hours": "2023-07-25", "indoor_seating": "yes", "name": "Bar Ottensen", "old_name": "Codos", "opening_hours:signed": "no", "outdoor_seating": "yes", "wheelchair": "limited"}}, {"type": "node", "id": 1398573535, "lat": 53.6725177, "lon": 10.2396151, "tags": {"amenity": "bar", "name": "Beards Pub"}}, {"type": "node", "id": 1411403282, "lat": 53.5503741, "lon": 9.9603235, "tags": {"amenity": "bar", "contact:email": "info@wunderbar-hamburg.de", "contact:facebook": "https://www.facebook.com/wunderbar.hamburg", "contact:instagram": "https://www.instagram.com/wunderbarhamburg/", "contact:twitter": "http://www.revenge.co.uk/home/bar-revenge/", "contact:website": "http://www.wunderbar-hamburg.de", "contact:youtube": "https://www.youtube.com/user/wunderbarhamburg", "indoor_seating": "yes", "lgbtq": "primary", "name": "WunderBar", "opening_hours": "Mo-Su 22:00+", "operator": "WunderBar GbR", "outdoor_seating": "yes", "wheelchair": "no"}}, {"type": "node", "id": 1426112777, "lat": 53.5591064, "lon": 9.8873719, "tags": {"amenity": "bar", "indoor_seating": "yes", "name": "Lütt Döns", "opening_hours": "PH,Mo-Su 10:00-18:00+", "outdoor_seating": "yes", "wheelchair": "limited"}}, {"type": "node", "id": 1475044480, "lat": 53.6142925, "lon": 10.0788032, "tags": {"addr:city": "Hamburg", "addr:country": "DE", "addr:housenumber": "11", "addr:postcode": "22179", "addr:street": "Bramfelder Dorfplatz", "amenity": "bar", "contact:phone": "+49 40 6424040", "name": "Break-Point Billard", "opening_hours": "Mo-Th 16:00-01:00, Fr 16:00-04:00, Sa 12:00-04:00, Su 12:00-01:00", "website": "http://www.breakpoint-hamburg.de", "wheelchair": "limited"}}, {"type": "node", "id": 1484580909, "lat": 53.5554464, "lon": 9.9876694, "tags": {"amenity": "bar", "indoor_seating": "yes", "name": "Meyer Lanskys American Bar", "opening_hours": "Mo-Th 16:00-03:00, Fr,Sa 16:00-05:00", "outdoor_seating": "yes"}}, {"type": "node", "id": 1490572313, "lat": 53.5551282, "lon": 10.0510788, "tags": {"addr:city": "Hamburg", "addr:country": "DE", "addr:housenumber": "70", "addr:postcode": "20537", "addr:street": "Hammer Landstraße", "amenity": "bar", "check_date:opening_hours": "2023-09-30", "indoor_seating": "yes", "name": "The Bar-on", "opening_hours:signed": "no", "outdoor_seating": "no"}}, {"type": "node", "id": 1503302191, "lat": 53.5720127, "lon": 9.9611937, "tags": {"addr:city": "Hamburg", "addr:housenumber": "10", "addr:postcode": "20259", "addr:street": "Bismarckstraße", "amenity": "bar", "check_date": "2024-05-26", "name": "Rye & Dry", "opening_hours": "Tu-Th 18:00-01:00, Fr,Sa 18:00-02:00; Su,Mo off", "payment:cash": "yes", "payment:credit_cards": "yes", "payment:debit_cards": "yes", "payment:maestro": "yes", "payment:mastercard": "yes", "payment:v_pay": "yes", "payment:visa": "yes", "wheelchair": "no"}}, {"type": "node", "id": 1539916918, "lat": 53.550623, "lon": 9.969368, "tags": {"addr:city": "Hamburg", "addr:housenumber": "1", "addr:postcode": "20359", "addr:street": "Millerntorplatz", "amenity": "bar", "atm": "yes", "check_date": "2023-08-10", "food": "yes", "indoor_seating": "yes", "internet_access": "wlan", "name": "Zwick", "opening_hours": "Mo-Fr 11:30+, Sa,Su 12:00+", "outdoor_seating": "yes", "smoking": "outside", "source": "survey; Bing", "toilets:wheelchair": "no", "url": "http://www.zwick4u.com/kontakt_anfahrt_de_692.html", "wheelchair": "yes", "wheelchair:description": "Die Bar ist zwar grundsätzlich rollstuhlgeeignet, die Einrichtung besteht aber fast ausschließlich aus Stehtischen und hohen Barhockern."}}, {"type": "node", "id": 1562385911, "lat": 53.563013, "lon": 9.9611318, "tags": {"addr:housenumber": "98", "addr:street": "Schulterblatt", "amenity": "bar", "check_date": "2023-12-25", "contact:facebook": "https://www.facebook.com/thier.hh", "indoor_seating": "yes", "name": "Thier", "opening_hours": "19:00+", "outdoor_seating": "yes", "phone": "+49 40 41369387", "toilets": "yes", "toilets:wheelchair": "no", "wheelchair": "limited"}}, {"type": "node", "id": 1564055707, "lat": 53.5504572, "lon": 9.9820739, "tags": {"addr:city": "Hamburg", "addr:country": "DE", "addr:housenumber": "10", "addr:postcode": "20459", "addr:street": "Alter Steinweg", "amenity": "bar", "contact:phone": "+49 40 343878", "contact:website": "http://www.cotton-club.de/", "indoor_seating": "yes", "name": "Cotton Club", "opening_hours": "Mo-Sa 20:00-24:00+, Su 11:00-15:00", "outdoor_seating": "yes"}}, {"type": "node", "id": 1615477045, "lat": 53.5535387, "lon": 10.0147065, "tags": {"amenity": "bar", "indoor_seating": "yes", "name": "Toms Saloon", "opening_hours": "Mo-Th 20:00-02:00+, Fr-Sa 20:00-05:00+, Su 20:00-02:00+", "outdoor_seating": "no", "url": "http://www.toms-hamburg.de", "wifi": "no"}}, {"type": "node", "id": 1640543955, "lat": 53.5459369, "lon": 10.0186269, "tags": {"amenity": "bar", "indoor_seating": "yes", "name": "Kai 10", "opening_hours:signed": "no", "outdoor_seating": "yes"}}, {"type": "node", "id": 1665251473, "lat": 53.4443394, "lon": 9.9989442, "tags": {"amenity": "bar", "name": "Bumerang", "opening_hours": "Mo-Sa 15:00+; Su 11:00+"}}, {"type": "node", "id": 1725859357, "lat": 53.4558348, "lon": 9.9844343, "tags": {"amenity": "bar", "indoor_seating": "yes", "name": "Olympia", "outdoor_seating": "no", "wheelchair": "no"}}, {"type": "node", "id": 1733904097, "lat": 53.5683069, "lon": 9.9617713, "tags": {"addr:city": "Hamburg", "addr:country": "DE", "addr:housenumber": "52", "addr:postcode": "20259", "addr:street": "Bellealliancestraße", "amenity": "bar", "check_date": "2024-06-03"}}, {"type": "node", "id": 1742837198, "lat": 53.5635864, "lon": 9.9592948, "tags": {"addr:city": "Hamburg", "addr:housenumber": "275", "addr:postcode": "22769", "addr:street": "Max-Brauer-Allee", "amenity": "bar", "brewery": "various", "check_date": "2023-09-17", "contact:facebook": "https://www.facebook.com/craftbierbarHH", "email": "info@craftbierbar.de", "indoor_seating": "yes", "internet_access": "wlan", "name": "Craft Bier Bar", "name:old": "Good Old Days", "opening_hours": "Tu-We 20:00-02:00, Th 20:00-03:00, Fr-Sa 20:00-05:00", "opening_hours:signed": "no", "outdoor_seating": "no", "payment:cards": "yes", "payment:credit_cards": "yes", "payment:debit_cards": "yes", "payment:visa": "yes", "phone": "+49 40 55775032", "smoking": "no", "toilets:wheelchair": "no", "website": "https://craftbierbar.de/index.php/hamburg/", "wheelchair": "limited"}}, {"type": "node", "id": 1752589579, "lat": 53.5455464, "lon": 9.974007, "tags": {"addr:city": "Hamburg", "addr:country": "DE", "addr:housenumber": "25", "addr:postcode": "20459", "addr:street": "Ditmar-Koel-Straße", "amenity": "bar", "description": "Reisebüro mit Bar, Cafe und Cocktails", "name": "Cruise Lounge Hamburg", "phone": "+49 40 609465660", "shop": "travel_agency", "website": "http://www.cruiseloungehamburg.de", "wheelchair": "yes", "wheelchair:description": "Die Einrichtung ist barrierefrei und hat ein Behindertengerechtes WC."}}, {"type": "node", "id": 1763361255, "lat": 53.5552389, "lon": 10.0399253, "tags": {"amenity": "bar", "check_date:opening_hours": "2023-12-12", "name": "Shabos 2", "opening_hours:signed": "no"}}, {"type": "node", "id": 1775997376, "lat": 53.5498254, "lon": 9.9625274, "tags": {"amenity": "bar", "name": "Old Sailor", "wheelchair": "no", "wheelchair:description": "Nur eine Stufe"}}, {"type": "node", "id": 1823160463, "lat": 53.573178, "lon": 10.071089, "tags": {"amenity": "bar", "description": "Shisha Café, Cocktail Bar", "lastcheck": "2012-07-12", "name": "Zahara Shisha", "opening_hours": "Mo-Th 12:00-02:00, Fr,Sa 12:00+, Su 14:00-02:00", "wheelchair": "no"}}, {"type": "node", "id": 1862001245, "lat": 53.6403956, "lon": 9.9468482, "tags": {"addr:city": "Hamburg", "addr:country": "DE", "addr:housenumber": "11", "addr:street": "Moorflagen", "addr:suburb": "Niendorf", "amenity": "bar", "name": "Bar Horizont Niendorf", "opening_hours": "Tu-Fr 17:00-22:00; Sa 15:00-22:00+; Su 15:00-19:00; Mo off"}}, {"type": "node", "id": 1867311173, "lat": 53.5521154, "lon": 9.9645852, "tags": {"addr:city": "Hamburg", "addr:country": "DE", "addr:housenumber": "18", "addr:postcode": "20359", "addr:street": "Clemens-Schultz-Straße", "amenity": "bar", "check_date": "2024-04-14", "contact:website": "https://www.klinker.bar/die-bar", "disused:shop": "yes", "name": "Feuerdrachen", "note": "ex. Kneipe/Restaurant Backboard St. Pauli", "wheelchair": "no"}}, {"type": "node", "id": 1869437941, "lat": 53.5534209, "lon": 9.9580457, "tags": {"addr:city": "Hamburg", "addr:country": "DE", "addr:housenumber": "2", "addr:postcode": "22767", "addr:street": "Am Brunnenhof", "amenity": "bar", "indoor_seating": "yes", "name": "Pelican", "opening_hours": "Fr,Sa 14:00-04:00, Su-We 18:00-02:00, Th 18:00-03:00", "outdoor_seating": "yes", "toilets:wheelchair": "no", "wheelchair": "yes"}}, {"type": "node", "id": 1887413582, "lat": 53.5489153, "lon": 9.9606348, "tags": {"amenity": "bar", "check_date:opening_hours": "2023-10-29", "name": "Quer Club", "opening_hours:signed": "no", "website": "https://quer-club.de/", "wheelchair": "limited"}}, {"type": "node", "id": 1909893880, "lat": 53.5501691, "lon": 9.9945708, "tags": {"amenity": "bar", "indoor_seating": "yes", "name": "Le Lion", "opening_hours": "Mo-Sa 19:00-01:00", "outdoor_seating": "yes", "wheelchair": "no"}}, {"type": "node", "id": 1912668192, "lat": 53.5554579, "lon": 9.987288, "tags": {"addr:postcode": "20354", "amenity": "bar", "check_date": "2024-01-21", "name": "Meyer Lanskys", "opening_hours": "Mo-Sa 16:00-03:00", "wheelchair": "no"}}, {"type": "node", "id": 1924913959, "lat": 53.5582333, "lon": 9.948773, "tags": {"addr:housenumber": "166", "addr:street": "Max-Brauer-Allee", "amenity": "bar", "check_date": "2023-08-16", "contact:phone": "+49 40 32510141", "highchair": "1", "internet_access": "wlan", "internet_access:fee": "no", "internet_access:password": "funky166", "internet_access:ssid": "PizzeriaFunky_Gast", "level": "0", "name": "Café Bar ILIRIDA", "opening_hours": "Tu-Th,Su 14:00-22:00; Fr-Sa 14:00-24:00", "outdoor_seating": "yes", "smoking": "outside", "toilets": "yes", "toilets:wheelchair": "no", "wheelchair": "yes"}}, {"type": "node", "id": 1953442959, "lat": 53.5624979, "lon": 9.961774, "tags": {"addr:city": "Hamburg", "addr:country": "DE", "addr:housenumber": "86", "addr:postcode": "20357", "addr:street": "Schulterblatt", "amenity": "bar", "check_date": "2023-12-25", "name": "7ieben Bar", "opening_hours": "We-Su 17:00+", "wheelchair": "no"}}, {"type": "node", "id": 1967097430, "lat": 53.4646258, "lon": 9.9601113, "tags": {"amenity": "bar", "check_date:opening_hours": "2024-03-09", "indoor_seating": "yes", "level": "0", "name": "Heimfelder Bar", "old_name": "Café Leben", "opening_hours": "Mo-Th 13:00-04:00, Fr 13:00-06:00, Sa 12:00-06:00, Su 12:00-04:00", "outdoor_seating": "yes", "smoking": "yes", "toilets": "yes", "toilets:access": "customers", "wheelchair": "limited"}}, {"type": "node", "id": 1967098794, "lat": 53.4632668, "lon": 9.9531285, "tags": {"amenity": "bar", "check_date:opening_hours": "2024-05-19", "description": "KöPi bei Angelo", "indoor_seating": "yes", "level": "0", "name": "Köpi Heimfeld", "opening_hours": "Mo-Su 11:00-02:00", "opening_hours:signed": "no", "outdoor_seating": "yes", "phone": "+49 40 70970898", "smoking": "yes", "toilets:wheelchair": "limited"}}, {"type": "node", "id": 2051207933, "lat": 53.5532908, "lon": 9.9578087, "tags": {"addr:city": "Hamburg", "addr:country": "DE", "addr:housenumber": "28", "addr:postcode": "22767", "addr:street": "Paul-Roosen-Straße", "amenity": "bar", "check_date": "2023-05-01", "name": "Ginst", "opening_hours": "Mo-Th 18:00-02:00; Fr-Sa 18:00-04:00; Su 18:00-24:00", "phone": "+49 40 76975926", "toilets:wheelchair": "no", "wheelchair": "yes"}}, {"type": "node", "id": 2070225228, "lat": 53.556329, "lon": 9.9634794, "tags": {"amenity": "bar", "name": "K - Bar & Hookah"}}, {"type": "node", "id": 2070259277, "lat": 53.5552094, "lon": 9.9618955, "tags": {"addr:city": "Hamburg", "addr:housenumber": "4", "addr:postcode": "22767", "addr:street": "Otzenstraße", "amenity": "bar", "check_date:opening_hours": "2023-07-29", "contact:email": "otzentreff@web.de", "contact:facebook": "https://www.facebook.com/Otzentreff-122658841124331", "contact:phone": "+49 151 10226184", "level": "0", "name": "Otzentreff", "opening_hours:signed": "no", "operator": "Christian Böse", "smoking": "yes", "wheelchair": "limited"}}, {"type": "node", "id": 2070271193, "lat": 53.5565414, "lon": 9.9603988, "tags": {"addr:housenumber": "47", "addr:street": "Thadenstraße", "amenity": "bar", "check_date:opening_hours": "2024-04-13", "indoor_seating": "yes", "name": "Q", "opening_hours:signed": "no", "outdoor_seating": "no"}}, {"type": "node", "id": 2070310984, "lat": 53.5538423, "lon": 9.9634297, "tags": {"addr:city": "Hamburg", "addr:country": "DE", "addr:housenumber": "78", "addr:postcode": "20359", "addr:street": "Hein-Hoyer-Straße", "amenity": "bar", "contact:facebook": "https://www.facebook.com/ShebeenSanktPauli/", "contact:phone": "+49 171 1248500", "name": "Shebeen", "opening_hours": "Tu-Th 20:00-02:00, Fr-Sa 20:00-05:00", "wheelchair": "no"}}, {"type": "node", "id": 2071556383, "lat": 53.5542194, "lon": 9.9989849, "tags": {"addr:housenumber": "14-15", "addr:postcode": "20095", "addr:street": "Ballindamm", "amenity": "bar", "check_date": "2024-02-27", "indoor_seating": "yes", "name": "Ciu Die Bar", "opening_hours": "Tu-Sa 17:00+", "outdoor_seating": "yes", "website": "https://www.ciudiebar.de/", "wheelchair": "no"}}, {"type": "node", "id": 2151596399, "lat": 53.5514138, "lon": 9.9813598, "tags": {"amenity": "bar", "name": "Bambus"}}, {"type": "node", "id": 2216791744, "lat": 53.5515422, "lon": 9.9562963, "tags": {"addr:city": "Hamburg", "addr:country": "DE", "addr:housenumber": "15-17", "addr:postcode": "22767", "addr:street": "Holstenstraße", "amenity": "bar", "check_date:opening_hours": "2023-05-12", "indoor_seating": "yes", "name": "ADAI", "opening_hours:signed": "no", "outdoor_seating": "yes"}}, {"type": "node", "id": 2218638257, "lat": 53.4870555, "lon": 10.2120102, "tags": {"amenity": "bar", "name": "November", "wheelchair": "limited"}}, {"type": "node", "id": 2218638269, "lat": 53.4848901, "lon": 10.218307, "tags": {"amenity": "bar", "name": "Bla Bla"}}, {"type": "node", "id": 2262102697, "lat": 53.5699402, "lon": 9.9505221, "tags": {"amenity": "bar", "brewery": "yes;Jever;Veltins;Andechs", "check_date": "2023-06-03", "check_date:opening_hours": "2023-05-29", "indoor_seating": "yes", "name": "Bar Jasou", "opening_hours": "PH,Mo-Su 16:00-22:00+", "outdoor_seating": "yes", "wheelchair": "yes"}}, {"type": "node", "id": 2304921253, "lat": 53.5561313, "lon": 9.9823198, "tags": {"amenity": "bar", "name": "H2O", "operator": "Scandic Emporio", "smoking": "no", "toilets:wheelchair": "yes", "wheelchair": "yes"}}, {"type": "node", "id": 2322117002, "lat": 53.5557074, "lon": 9.9521282, "tags": {"addr:housenumber": "10", "addr:postcode": "22767", "addr:street": "Steinheimplatz", "amenity": "bar", "brewery": "no", "indoor_seating": "yes", "min_age": "18", "name": "Bar La Notte", "opening_hours": "12:00+", "outdoor_seating": "no", "wheelchair": "no"}}, {"type": "node", "id": 2329586860, "lat": 53.546515, "lon": 10.0934048, "tags": {"addr:city": "Hamburg", "addr:country": "DE", "addr:housenumber": "85", "addr:postcode": "22111", "addr:street": "Washingtonallee", "amenity": "bar", "name": "85-Lounge", "opening_hours": "Mo-Th 16:00-24:00, Fr-Sa 16:00-02:00, Su 17:00-24:00", "website": "http://www.85-lounge.de/"}}, {"type": "node", "id": 2389213619, "lat": 53.5815607, "lon": 9.9493337, "tags": {"addr:city": "Hamburg", "addr:housenumber": "62", "addr:postcode": "20255", "addr:street": "Lutterothstraße", "amenity": "bar", "contact:email": "thenewribs@gmail.com", "contact:facebook": "https://www.facebook.com/TheNewRibs", "indoor_seating": "yes", "name": "Lux 62", "opening_hours": "Tu-Th,Su 17:00-01:00, Fr,Sa 17:00-23:00+", "outdoor_seating": "yes", "phone": "+49 172 3620660", "website": "https://lux62.business.site/", "wheelchair": "no"}}, {"type": "node", "id": 2410714109, "lat": 53.5581038, "lon": 10.0124983, "tags": {"amenity": "bar", "check_date:opening_hours": "2023-04-24", "name": "Weinbar Collio", "opening_hours:signed": "no", "wheelchair": "yes"}}, {"type": "node", "id": 2428571509, "lat": 53.5554909, "lon": 9.9860723, "tags": {"addr:city": "Hamburg", "addr:housenumber": "18", "addr:postcode": "20354", "addr:street": "Valentinskamp", "amenity": "bar", "check_date:opening_hours": "2024-03-13", "email": "moin@mens-needs.de", "indoor_seating": "yes", "name": "Mens Needs", "opening_hours": "Mo-Fr 10:00-19:00; Sa 10:00-16:00", "outdoor_seating": "yes", "payment:credit_cards": "yes", "payment:debit_cards": "yes", "phone": "+49 40 28008197", "ref:vatin": "DE344178882", "website": "https://shop.mens-needs.de"}}, {"type": "node", "id": 2457025699, "lat": 53.5429129, "lon": 9.9983205, "tags": {"addr:city": "Hamburg", "addr:country": "DE", "addr:housenumber": "6", "addr:postcode": "20457", "addr:street": "Osakaallee", "amenity": "bar", "indoor_seating": "yes", "name": "Club 20457", "opening_hours": "Mo-Fr 18:00-02:00; Sa 20:00-02:00", "outdoor_seating": "no", "wheelchair": "yes"}}, {"type": "node", "id": 2488926768, "lat": 53.5481339, "lon": 9.9634128, "tags": {"addr:city": "Hamburg", "addr:housenumber": "34", "addr:postcode": "20359", "addr:street": "Hopfenstraße", "amenity": "bar", "brewery": "no", "check_date:opening_hours": "2023-12-16", "music": "Punk", "name": "Semtex Kulturkollektiv", "opening_hours:signed": "no", "website": "https://semtex.blackblogs.org/", "wheelchair": "no"}}, {"type": "node", "id": 2495419425, "lat": 53.5625634, "lon": 9.9616887, "tags": {"addr:city": "Hamburg", "addr:country": "DE", "addr:housenumber": "88", "addr:postcode": "20357", "addr:street": "Schulterblatt", "amenity": "bar", "check_date": "2023-12-25", "indoor_seating": "yes", "name": "Katze", "opening_hours": "Mo-Th 15:00-24:00, Fr 18:00-03:00, Sa 13:00-03:00, Su 15:00-24:00", "outdoor_seating": "yes", "wheelchair": "no"}}, {"type": "node", "id": 2518063795, "lat": 53.5727464, "lon": 9.9593226, "tags": {"addr:housenumber": "1", "addr:street": "Henriettenweg", "amenity": "bar", "check_date": "2023-11-18", "drink:club-mate": "yes", "name": "Austerbar", "opening_hours": "Mo-Sa 20:00+", "toilets:wheelchair": "no", "wheelchair": "no", "wheelchair:description": "Stufe am Eingang, Toilette über Treppe im Keller."}}, {"type": "node", "id": 2525067928, "lat": 53.5980608, "lon": 10.0657516, "tags": {"addr:city": "Hamburg", "addr:country": "DE", "addr:housenumber": "78", "addr:postcode": "22177", "addr:street": "Bramfelder Chaussee", "amenity": "bar", "name": "Pina Bar", "opening_hours": "Mo-Su 08:00+", "phone": "+49 40 18167788", "wheelchair": "no"}}, {"type": "node", "id": 2546824098, "lat": 53.5627155, "lon": 9.9497263, "tags": {"addr:city": "Hamburg", "addr:housenumber": "163", "addr:postcode": "22769", "addr:street": "Stresemannstraße", "amenity": "bar", "name": "Kent Club", "website": "https://www.kentclub.de/"}}, {"type": "node", "id": 2558979893, "lat": 53.5585666, "lon": 9.9675098, "tags": {"addr:city": "Hamburg", "addr:country": "DE", "addr:housenumber": "4", "addr:postcode": "20357", "addr:street": "Sternstraße", "amenity": "bar", "name": "Dschungel", "opening_hours": "Tu-Sa 18:30-24:00+; Su off", "wheelchair": "yes"}}, {"type": "node", "id": 2573532791, "lat": 53.5523376, "lon": 9.9648819, "tags": {"addr:city": "Hamburg", "addr:housenumber": "96", "addr:postcode": "20359", "addr:street": "Clemens-Schultz-Straße", "amenity": "bar", "indoor_seating": "yes", "name": "Möwe Sturzflug", "opening_hours": "Tu-Th 19:00-23:00; Fr,Sa 19:00-24:00+; Su,Mo off", "outdoor_seating": "yes", "wheelchair": "no"}}, {"type": "node", "id": 2590306809, "lat": 53.5387375, "lon": 10.1221927, "tags": {"addr:city": "Hamburg", "addr:country": "DE", "addr:housenumber": "123", "addr:postcode": "22117", "addr:street": "Möllner Landstraße", "amenity": "bar", "name": "Treffpunkt"}}, {"type": "node", "id": 2599320173, "lat": 53.5714837, "lon": 9.9882298, "tags": {"addr:city": "Hamburg", "addr:housenumber": "107", "addr:postcode": "20148", "addr:street": "Rothenbaumchaussee", "amenity": "bar", "name": "CavaRo Weinbar", "source": "survey", "wheelchair": "no"}}, {"type": "node", "id": 2622684453, "lat": 53.5638832, "lon": 9.9652092, "tags": {"addr:housenumber": "99", "addr:street": "Schanzenstraße", "amenity": "bar", "name": "Absinth", "opening_hours": "Tu-Sa 20:00+", "opening_hours:signed": "no", "phone": "+49 176 2362 1956", "toilets": "yes", "toilets:wheelchair": "limited", "website": "https://absinth-bar.com/", "wheelchair": "limited"}}, {"type": "node", "id": 2660991563, "lat": 53.5814939, "lon": 10.0136338, "tags": {"addr:city": "Hamburg", "addr:country": "DE", "addr:housenumber": "14", "addr:postcode": "22303", "addr:street": "Gertigstraße", "amenity": "bar", "indoor_seating": "yes", "name": "Berglund", "opening_hours": "Su-Th 18:00-01:00, Fr,Sa 18:00-03:00", "outdoor_seating": "yes"}}, {"type": "node", "id": 2672082812, "lat": 53.4610261, "lon": 9.9780167, "tags": {"amenity": "bar", "name": "bataq", "opening_hours:signed": "no", "smoking": "yes", "wheelchair": "no"}}, {"type": "node", "id": 2674896620, "lat": 53.4602687, "lon": 9.9801455, "tags": {"amenity": "bar", "check_date:opening_hours": "2023-09-13", "name": "Hypnotized", "opening_hours:signed": "no", "outdoor_seating": "yes", "smoking": "yes", "wheelchair": "yes"}}, {"type": "node", "id": 2749654388, "lat": 53.555934, "lon": 9.8649825, "tags": {"addr:city": "Hamburg", "addr:country": "DE", "addr:housenumber": "75", "addr:postcode": "22609", "addr:street": "Baron-Voght-Straße", "amenity": "bar", "indoor_seating": "yes", "name": "Redroom", "opening_hours": "We-Su 18:00-24:00", "outdoor_seating": "no", "payment:credit_cards": "yes", "payment:debit_cards": "yes", "phone": "+49 40 82244604", "website": "https://www.redroom-bar.de/", "wheelchair": "limited"}}, {"type": "node", "id": 2878938194, "lat": 53.5053226, "lon": 9.9862077, "tags": {"addr:city": "Hamburg", "addr:country": "DE", "addr:housenumber": "156", "addr:postcode": "21107", "addr:street": "Veringstraße", "air_conditioning": "no", "amenity": "bar", "bar": "yes", "delivery": "no", "drive_through": "no", "internet_access": "yes", "internet_access:fee": "no", "name": "Deichdiele", "opening_hours": "Mo-So 10:00+", "outdoor_seating": "yes", "phone": "+494065864514", "smoking": "separated", "toilets": "yes", "website": "http://www.deichdiele-wilhelmsburg.de/"}}, {"type": "node", "id": 2894793540, "lat": 53.548885, "lon": 9.9614739, "tags": {"addr:city": "Hamburg", "addr:housenumber": "15", "addr:postcode": "20359", "addr:street": "Hans-Albers-Platz", "amenity": "bar", "name": "Drafthouse", "smoking": "yes"}}, {"type": "node", "id": 3011771833, "lat": 53.551108, "lon": 9.957165, "tags": {"addr:housenumber": "39", "addr:street": "Große Freiheit", "amenity": "bar", "name": "Kiez Alm Hamburg", "opening_hours": "Th,Fr,Sa 22:00-06:00", "wheelchair": "limited"}}, {"type": "node", "id": 3034379335, "lat": 53.5498869, "lon": 9.9955213, "tags": {"amenity": "bar", "check_date": "2023-06-02", "name": "Gugu", "opening_hours": "Mo-Th 16:00-24:00; Fr-Sa 16:00-02:00", "payment:cash": "yes", "payment:credit_cards": "no", "payment:debit_cards": "yes", "payment:girocard": "yes", "payment:maestro": "yes", "wheelchair": "yes"}}, {"type": "node", "id": 3141379529, "lat": 53.5506556, "lon": 9.9610528, "tags": {"addr:city": "Hamburg", "addr:country": "DE", "addr:housenumber": "11", "addr:postcode": "20359", "addr:street": "Hamburger Berg", "amenity": "bar", "check_date": "2023-12-28", "name": "Barbarabar", "opening_hours": "Th-Sa 20:00+", "smoking": "separated", "website": "https://www.barbarabar.de/", "wheelchair": "limited"}}, {"type": "node", "id": 3255892127, "lat": 53.5511305, "lon": 9.9620902, "tags": {"addr:city": "Hamburg", "addr:housenumber": "89", "addr:postcode": "20359", "addr:street": "Simon-von-Utrecht-Straße", "alt_name": "Koralle", "amenity": "bar", "name": "KorallBar", "opening_hours": "Tu-Su 20:00+", "smoking": "yes"}}, {"type": "node", "id": 3267789736, "lat": 53.5458787, "lon": 9.9308689, "tags": {"addr:city": "Hamburg", "addr:housenumber": "4", "addr:postcode": "22765", "addr:street": "Rainvilleterrasse", "amenity": "bar", "name": "Rainville Elbterassen", "opening_hours": "11:30 - 17:00, 18:00 - 22:30", "phone": "+49 40 43216020", "website": "http://www.rainville-restaurant.de"}}, {"type": "node", "id": 3271049096, "lat": 53.5777005, "lon": 9.9512552, "tags": {"addr:city": "Hamburg", "addr:housenumber": "9", "addr:postcode": "20255", "addr:street": "Stellinger Weg", "amenity": "bar", "indoor_seating": "yes", "internet_access": "wlan", "name": "Mr. Ape", "opening_hours": "Su-Th 16:00-24:00; Fr-Sa 16:00-02:00", "outdoor_seating": "no", "payment:cash": "yes", "payment:credit_cards": "yes", "payment:debit_cards": "yes", "payment:girocard": "yes", "phone": "+49 40 30729292", "smoking": "outside", "wheelchair": "limited"}}, {"type": "node", "id": 3280992081, "lat": 53.5471488, "lon": 9.9631083, "tags": {"addr:housename": "EMPIRE RIVERSIDE HOTEL", "addr:street": "Bernhard-Nocht-Straße", "amenity": "bar", "level": "0", "name": "DAVIDS", "opening_hours": "11:30-23:00", "opening_hours:kitchen": "15:00-21:00", "website": "https://www.empire-riverside.de/de/restaurant-und-bars/#davids", "wheelchair": "yes"}}, {"type": "node", "id": 3280992083, "lat": 53.5472091, "lon": 9.9633526, "tags": {"addr:housename": "EMPIRE RIVERSIDE HOTEL", "addr:housenumber": "97", "addr:street": "Bernhard-Nocht-Straße", "amenity": "bar", "check_date": "2024-02-25", "description": "Dresscode: elegant, nicht sportlich", "level": "20", "name": "20up", "opening_hours": "Mo-Th,Su 18:00-02:00; Fr-Sa 18:00-03:00", "toilets": "yes", "website": "https://www.empire-riverside.de/de/hotel-restaurant-bars-hamburg/", "wheelchair": "yes"}}, {"type": "node", "id": 3281180289, "lat": 53.558903, "lon": 10.0250454, "tags": {"amenity": "bar", "check_date": "2023-06-10", "indoor_seating": "yes", "internet_access": "yes", "internet_access:fee": "no", "level": "0", "name": "Novo2", "opening_hours": "10:00-01:00", "outdoor_seating": "yes", "wheelchair": "yes"}}, {"type": "node", "id": 3368407694, "lat": 53.5556558, "lon": 9.9904129, "tags": {"amenity": "bar", "level": "-1", "name": "comebuy", "opening_hours": "PH,Mo-Su 14:00-20:00"}}, {"type": "node", "id": 3389802016, "lat": 53.5711793, "lon": 10.0283061, "tags": {"addr:city": "Hamburg", "addr:country": "DE", "addr:housenumber": "13", "addr:postcode": "22083", "addr:street": "Hamburger Straße", "amenity": "bar", "check_date": "2023-08-31", "indoor_seating": "yes", "name": "Freundlich + Kompetent", "opening_hours": "Mo-Sa 17:00+", "outdoor_seating": "no", "smoking": "no", "toilets": "yes", "toilets:wheelchair": "no", "website": "https://www.freundlichundkompetent.de/", "wheelchair": "limited"}}, {"type": "node", "id": 3396311415, "lat": 53.5646391, "lon": 9.9705488, "tags": {"addr:city": "Hamburg", "addr:housenumber": "6", "addr:postcode": "20357", "addr:street": "Sternschanze", "amenity": "bar", "indoor_seating": "yes", "name": "Cave Bar", "opening_hours": "Fr 18:00-24:00; Sa 17:00-24:00", "operator": "Mövenpick", "outdoor_seating": "no", "phone": "+49 40 334411 3344", "website": "http://www.moevenpick-hotels.com/de/europe/germany/hamburg/hotel-hamburg/restaurants/restaurants/cave-bar/"}}, {"type": "node", "id": 3402326401, "lat": 53.4361615, "lon": 9.933786, "tags": {"amenity": "bar", "name": "Tapas Bar Mi Esperanza", "wheelchair": "limited"}}, {"type": "node", "id": 3404634572, "lat": 53.5750376, "lon": 9.8898211, "tags": {"air_conditioning": "yes", "amenity": "bar", "check_date:opening_hours": "2023-09-11", "indoor_seating": "yes", "name": "Arena Bar", "opening_hours:signed": "no", "outdoor_seating": "no", "payment:credit_cards": "yes", "payment:debit_cards": "yes", "smoking": "no", "wheelchair": "yes"}}, {"type": "node", "id": 3439023961, "lat": 53.4222257, "lon": 10.0244046, "tags": {"addr:city": "Seevetal", "addr:housenumber": "24", "addr:postcode": "21217", "addr:street": "An den Höfen", "amenity": "bar", "microbrewery": "no", "name": "Paparazzi Bar", "outdoor_seating": "yes"}}, {"type": "node", "id": 3448986384, "lat": 53.5479504, "lon": 9.9796696, "tags": {"amenity": "bar", "name": "Taifun"}}, {"type": "node", "id": 3452161108, "lat": 53.5590798, "lon": 9.964512, "tags": {"amenity": "bar", "name": "Pallas", "opening_hours:signed": "no", "wheelchair": "no"}}, {"type": "node", "id": 3452161109, "lat": 53.5586584, "lon": 9.9646053, "tags": {"addr:housenumber": "19", "addr:postcode": "20359", "addr:street": "Neuer Pferdemarkt", "air_conditioning": "yes", "amenity": "bar", "check_date:opening_hours": "2023-10-03", "description": "viele alte Sofas", "indoor_seating": "yes", "name": "Zoë III", "opening_hours": "We-Th 20:00-01:00, Fr 18:00-03:00, Sa 18:00-03:00; Su-Tu off", "opening_hours:url": "https://zoebar.de/", "outdoor_seating": "yes", "payment:credit_cards": "yes", "payment:debit_cards": "yes", "smoking": "outside", "website": "https://zoebar.de/", "wheelchair": "limited"}}, {"type": "node", "id": 3470964773, "lat": 53.5540162, "lon": 10.011417, "tags": {"amenity": "bar", "name": "Denis Bar", "wheelchair": "no"}}, {"type": "node", "id": 3470965942, "lat": 53.5541412, "lon": 10.0110777, "tags": {"amenity": "bar", "name": "Vanessa Bar", "wheelchair": "no"}}, {"type": "node", "id": 3470966038, "lat": 53.5541723, "lon": 10.0112185, "tags": {"amenity": "bar", "name": "Dschungel Bar", "wheelchair": "no"}}, {"type": "node", "id": 3470968596, "lat": 53.5540879, "lon": 10.0108698, "tags": {"amenity": "bar", "name": "WunderBar"}}, {"type": "node", "id": 3470976167, "lat": 53.5542031, "lon": 10.0120752, "tags": {"amenity": "bar", "name": "Windstärke 11", "wheelchair": "no"}}, {"type": "node", "id": 3470977308, "lat": 53.5541653, "lon": 10.0119523, "tags": {"amenity": "bar", "name": "Rund um die Uhr", "wheelchair": "no"}}, {"type": "node", "id": 3498018880, "lat": 53.5477172, "lon": 9.9617707, "tags": {"addr:housenumber": "16", "addr:street": "Erichstraße", "amenity": "bar", "description": "SM Night Club", "email": "akerchel@gmail.com", "min_age": "18", "name": "Touch", "opening_hours": "Tu-Sa 16:00+", "phone": "+49 40 316820", "website": "https://www.touchclub.de/"}}, {"type": "node", "id": 3534160884, "lat": 53.5663085, "lon": 9.9622079, "tags": {"addr:city": "Hamburg", "addr:country": "DE", "addr:housenumber": "34", "addr:postcode": "20357", "addr:street": "Vereinsstraße", "air_conditioning": "no", "alt_name": "Das Lemon", "amenity": "bar", "brewery": "various", "check_date": "2024-05-26", "check_date:opening_hours": "2024-03-24", "contact:email": "john_lemon@gmx.de", "contact:facebook": "https://www.facebook.com/DAS-LEMON-1531994273742199", "contact:phone": "+49 40 209 114 03", "min_age": "18", "name": "Lemon", "old_name": "John Lemon", "opening_hours": "Mo-Su 18:00-03:30", "opening_hours:signed": "no", "outdoor_seating": "yes", "payment:cards": "no", "payment:cash": "yes", "payment:credit_cards": "no", "payment:debit_cards": "no", "smoking": "yes", "wheelchair": "no"}}, {"type": "node", "id": 3659053848, "lat": 53.5957168, "lon": 9.99809, "tags": {"addr:city": "Hamburg", "addr:housenumber": "18-20", "addr:postcode": "22299", "addr:street": "Alsterdorfer Straße", "air_conditioning": "yes", "amenity": "bar", "brewery": "Heineken;various;Bier_d._Monats;Same_Same_Bier_(bayr._hell);pilsener_urquell;helles", "check_date": "03.04.2023", "email": "info@barsamesame.de", "indoor_seating": "yes", "min_age": "18", "name": "Bar Same Same", "opening_hours": "Tu-Sa 18:00-02:00", "outdoor_seating": "yes", "payment:american_express": "yes", "payment:apple_pay": "yes", "payment:cash": "yes", "payment:contactless": "yes", "payment:credit_cards": "yes", "payment:debit_cards": "yes", "payment:girocard": "yes", "payment:google_pay": "yes", "payment:maestro": "yes", "payment:mastercard": "yes", "payment:visa": "yes", "phone": "+49 40 59541818", "smoking": "yes", "toilets:wheelchair": "no", "website": "https://barsamesame.de/", "wheelchair": "limited"}}, {"type": "node", "id": 3664754335, "lat": 53.5772951, "lon": 9.9418688, "tags": {"alt_name": "Eims Dock", "amenity": "bar", "contact:email": "info@eimsdock.de", "contact:phone": "+49 40 20 911 742", "contact:website": "https://eimsdock.de", "description": "Kein Tagesbetrieb, nur für Feiern und Events buchbar.", "indoor_seating": "yes", "name": "Eimsdock", "opening_hours": "off", "outdoor_seating": "yes", "wheelchair": "limited"}}, {"type": "node", "id": 3673876622, "lat": 53.5563592, "lon": 10.0063245, "tags": {"addr:housenumber": "6-8", "addr:street": "Rautenbergstraße", "amenity": "bar", "description": "Shisha & Zigarren", "email": "info@barhh.com", "indoor_seating": "yes", "mobile": "+49 163 2102679", "name": "Bar Hamburg", "opening_hours": "Su-Th 16:00-01:00, Fr,Sa 16:00-03:00", "outdoor_seating": "yes", "phone": "+494036029393", "smoking": "dedicated", "toilets:wheelchair": "no", "website": "https://www.barhh.com/", "wheelchair": "no"}}, {"type": "node", "id": 3737001822, "lat": 53.5511984, "lon": 10.0358323, "tags": {"amenity": "bar", "check_date": "2024-02-24", "indoor_seating": "yes", "name": "Elissar", "opening_hours": "Mo-Th 16:00-24:00, Fr,Sa 16:00-05:00, Su 17:00-24:00", "outdoor_seating": "yes", "wheelchair": "limited"}}, {"type": "node", "id": 3758950380, "lat": 53.5054295, "lon": 9.9862238, "tags": {"addr:city": "Hamburg", "addr:housenumber": "156", "addr:postcode": "21107", "addr:street": "Veringstraße", "amenity": "bar", "check_date:opening_hours": "2023-12-09", "internet_access:fee": "customers", "name": "Starlight", "opening_hours": "So-Th 15:00-04:00, Fr-Sa 15:00-14:30", "opening_hours:signed": "no", "website": "https://starlight-cafe-bar.business.site"}}, {"type": "node", "id": 3768537428, "lat": 53.5515526, "lon": 9.9675732, "tags": {"addr:housenumber": "10", "addr:street": "Budapester Straße", "amenity": "bar", "check_date:opening_hours": "2024-04-15", "name": "Domschänke", "opening_hours:signed": "no", "outdoor_seating": "yes", "smoking": "yes"}}, {"type": "node", "id": 3769636430, "lat": 53.5397469, "lon": 10.1017126, "tags": {"addr:city": "Hamburg", "addr:country": "DE", "addr:housenumber": "48", "addr:postcode": "22111", "addr:street": "Billstedter Hauptstraße", "amenity": "bar", "name": "To Steki"}}, {"type": "node", "id": 3775015974, "lat": 53.5820557, "lon": 9.8828877, "tags": {"amenity": "bar", "check_date:opening_hours": "2023-06-24", "indoor_seating": "yes", "name": "Playoff Lounge", "opening_hours:signed": "no", "outdoor_seating": "yes", "wheelchair": "no"}}, {"type": "node", "id": 3775042457, "lat": 53.5525745, "lon": 9.9626285, "tags": {"addr:housenumber": "79", "addr:street": "Clemens-Schultz-Straße", "amenity": "bar", "cocktails": "yes", "contact:website": "http://www.cabana-stpauli.de/", "indoor_seating": "yes", "name": "Copa Cabana", "opening_hours": "Fr 14:00-20:00; Su 12:00-20:00; Sa 12:00-20:00; Mo-Th off", "outdoor_seating": "yes", "shisha": "yes", "smoking": "yes"}}, {"type": "node", "id": 3787329491, "lat": 53.5498031, "lon": 9.9629391, "tags": {"addr:city": "Hamburg", "addr:housenumber": "66", "addr:postcode": "20359", "addr:street": "Reeperbahn", "alt_name": "Cocktail Club", "amenity": "bar", "cocktails": "yes", "contact:facebook": "https://www.facebook.com/StoryHamburg", "contact:website": "https://story-reeperbahn.de/", "indoor_seating": "yes", "name": "Story", "opening_hours": "Tu-Fr 18:00+; Sa 14:00+; Su 18:00+", "outdoor_seating": "yes"}}, {"type": "node", "id": 3789710141, "lat": 53.5485884, "lon": 9.9616166, "tags": {"amenity": "bar", "check_date:opening_hours": "2023-12-30", "name": "Villa von St. Pauli", "opening_hours:signed": "no"}}, {"type": "node", "id": 3802077759, "lat": 53.5499569, "lon": 10.0042543, "tags": {"addr:housenumber": "5-7", "addr:street": "Steinstraße", "amenity": "bar", "indoor_seating": "yes", "name": "Central Congress", "opening_hours": "Mo-Sa 17:00-18:00+", "outdoor_seating": "yes", "website": "https://centralcongress.de/", "wheelchair": "no"}}, {"type": "node", "id": 3812511657, "lat": 53.5615496, "lon": 9.9552346, "tags": {"addr:city": "Hamburg", "addr:housenumber": "227", "addr:postcode": "22769", "addr:street": "Max-Brauer-Allee", "amenity": "bar", "check_date": "2023-12-25", "indoor_seating": "yes", "name": "Bar 227", "outdoor_seating": "no", "toilets:wheelchair": "no", "website": "http://www.bar227.de/", "wheelchair": "no", "wheelchair:description": "Die Bar ist nur über Stufen erreichbar"}}, {"type": "node", "id": 3875195428, "lat": 53.5835384, "lon": 10.0465537, "tags": {"amenity": "bar", "check_date": "2023-08-05", "check_date:opening_hours": "2024-03-09", "indoor_seating": "yes", "name": "Riverside", "opening_hours:signed": "no", "outdoor_seating": "no"}}, {"type": "node", "id": 3886742071, "lat": 53.5501657, "lon": 9.9611043, "tags": {"addr:housenumber": "4", "addr:street": "Hamburger Berg", "amenity": "bar", "name": "Berg 4", "opening_hours": "Mo-Su 20:00+", "toilets:wheelchair": "no", "website": "https://www.berg4-bar.de/", "wheelchair": "no"}}, {"type": "node", "id": 3914036029, "lat": 53.5805356, "lon": 10.0125513, "tags": {"amenity": "bar", "contact:email": "info@zazabar.de", "contact:phone": "+49 40 27880135", "name": "Zaza Bar", "opening_hours": "Mo-Sa 17:00+; Su 18:00+", "operator": "Donata Menard", "website": "http://www.zazabar.de/", "wheelchair": "no"}}, {"type": "node", "id": 3922372958, "lat": 53.5497492, "lon": 9.9602926, "tags": {"amenity": "bar", "check_date:opening_hours": "2023-12-17", "indoor_seating": "yes", "level": "0", "name": "Wodka Bombe", "opening_hours:signed": "no", "outdoor_seating": "yes", "smoking": "no"}}, {"type": "node", "id": 3928787887, "lat": 53.6327876, "lon": 10.0046307, "tags": {"amenity": "bar", "level": "1", "name": "Pier 2 Bar", "smoking": "no", "website": "https://www.hamburg-airport.de/en/pier_2_bar.php"}}, {"type": "node", "id": 3948984300, "lat": 53.5816837, "lon": 10.0088648, "tags": {"amenity": "bar", "check_date:opening_hours": "2022-06-12", "contact:email": "info@radiancebar.de", "contact:instagram": "radiance.bar", "contact:phone": "+49 1725229723", "contact:website": "http://radiancebar.de", "name": "Radiance Bar", "opening_hours": "Mo-Sa 07:00-22:00, Sa 10:00-19:00", "wheelchair": "no"}}, {"type": "node", "id": 3997637970, "lat": 53.5481356, "lon": 9.9635983, "tags": {"addr:city": "Hamburg", "addr:housenumber": "30", "addr:postcode": "20359", "addr:street": "Hopfenstraße", "amenity": "bar", "name": "Gun Club", "opening_hours": "Tu-Sa 20:00-24:00+", "wheelchair": "no"}}, {"type": "node", "id": 4046576435, "lat": 53.5422933, "lon": 9.9980541, "tags": {"amenity": "bar", "check_date": "2023-05-09", "name": "The Boilerman Bar", "opening_hours": "Su-Th 17:00-01:00, Fr,Sa 17:00-02:00"}}, {"type": "node", "id": 4070146316, "lat": 53.5631445, "lon": 10.0329877, "tags": {"addr:city": "Hamburg", "addr:country": "DE", "addr:housenumber": "121", "addr:postcode": "22087", "addr:street": "Lübecker Straße", "amenity": "bar", "check_date:opening_hours": "2024-05-04", "name": "Classic Coffee Hookah", "opening_hours:signed": "no"}}, {"type": "node", "id": 4082447664, "lat": 53.5539454, "lon": 9.9298568, "tags": {"addr:housenumber": "11", "addr:postcode": "22765", "addr:street": "Kleine Rainstraße", "amenity": "bar", "check_date:opening_hours": "2024-04-28", "indoor_seating": "yes", "internet_access": "no", "name": "Mathilde Bar", "opening_hours": "Mo-Su 17:00+", "outdoor_seating": "yes", "smoking": "no", "website": "https://www.mathilde-hh.de/mathilde-bar-ottensen/", "wheelchair": "limited"}}, {"type": "node", "id": 4103580497, "lat": 53.550658, "lon": 9.9603358, "tags": {"amenity": "bar", "check_date:opening_hours": "2024-04-16", "contact:phone": "+49 160 90361519", "indoor_seating": "yes", "name": "3 Zimmer Wohnung", "opening_hours:signed": "no", "outdoor_seating": "yes", "toilets:wheelchair": "no", "wheelchair": "no"}}, {"type": "node", "id": 4108544219, "lat": 53.5677919, "lon": 10.0465382, "tags": {"amenity": "bar", "name": "Highway", "opening_hours": "Mo-Th,Su 14:00-02:00; Fr-Sa 14:00-04:00"}}, {"type": "node", "id": 4131320272, "lat": 53.5470172, "lon": 9.9575471, "tags": {"addr:city": "Hamburg", "addr:country": "DE", "addr:housenumber": "4", "addr:postcode": "20359", "addr:street": "Antonistraße", "amenity": "bar", "check_date": "2020-07-19", "contact:phone": "+49 174 1007658", "contact:website": "https://www.dripbar.de/", "name": "Drip Bar", "opening_hours": "Mo-We 18:00-01:00; Th-Sa 18:00-02:00", "wheelchair": "no"}}, {"type": "node", "id": 4144383082, "lat": 53.452658, "lon": 9.9874309, "tags": {"addr:city": "Hamburg", "addr:country": "DE", "addr:housenumber": "112", "addr:postcode": "21073", "addr:street": "Wilstorfer Straße", "amenity": "bar", "name": "Alpha Sports", "source": "survey"}}, {"type": "node", "id": 4144383872, "lat": 53.4542689, "lon": 9.9874029, "tags": {"addr:city": "Hamburg", "addr:country": "DE", "addr:housenumber": "88", "addr:postcode": "21073", "addr:street": "Wilstorfer Straße", "amenity": "bar", "check_date:opening_hours": "2024-03-13", "name": "Hep Yek", "opening_hours:signed": "no", "source": "survey"}}, {"type": "node", "id": 4144383874, "lat": 53.4541187, "lon": 9.9874445, "tags": {"addr:city": "Hamburg", "addr:country": "DE", "addr:housenumber": "90", "addr:postcode": "21073", "addr:street": "Wilstorfer Straße", "amenity": "bar", "check_date": "2024-03-13", "name": "Casablanca", "source": "survey"}}, {"type": "node", "id": 4144506844, "lat": 53.4558714, "lon": 9.9863506, "tags": {"addr:city": "Hamburg", "addr:country": "DE", "addr:housenumber": "62", "addr:postcode": "21073", "addr:street": "Wilstorfer Straße", "amenity": "bar", "check_date:opening_hours": "2024-03-13", "name": "Miami Cafe bar", "opening_hours:signed": "no", "source": "survey"}}, {"type": "node", "id": 4179521649, "lat": 53.5826251, "lon": 9.7312998, "tags": {"addr:city": "Wedel", "addr:housenumber": "129", "addr:postcode": "22880", "addr:street": "Kronskamp", "amenity": "bar", "name": "Moskito Bar"}}, {"type": "node", "id": 4202284298, "lat": 53.515962, "lon": 9.9872177, "tags": {"addr:housenumber": "27", "addr:street": "Veringstraße", "amenity": "bar", "check_date": "2024-05-20", "check_date:opening_hours": "2024-05-23", "name": "Vering Sport e.V.", "opening_hours:signed": "no", "wheelchair": "no"}}, {"type": "node", "id": 4226881609, "lat": 53.6433401, "lon": 10.01368, "tags": {"addr:city": "Hamburg", "addr:housenumber": "1", "addr:postcode": "22415", "addr:street": "Beim Schäferhof", "amenity": "bar", "name": "Chillim", "opening_hours": "Mo-Su 16:00-01:00", "outdoor_seating": "yes", "phone": "+49 40 35770628", "smoking": "yes"}}, {"type": "node", "id": 4228143303, "lat": 53.6010996, "lon": 9.991283, "tags": {"amenity": "bar", "name": "Anleger Hamburg", "wheelchair": "limited"}}, {"type": "node", "id": 4235818994, "lat": 53.6544367, "lon": 9.7829603, "tags": {"addr:city": "Pinneberg", "addr:housenumber": "2", "addr:postcode": "25421", "addr:street": "Feldstraße", "amenity": "bar", "name": "Begas Bar", "opening_hours": "Th 17:00-23:00, Fr 17:00-01:00, Sa 15:00-01:00, Su 13:00-23:00", "smoking": "yes", "website": "https://begas.bar"}}, {"type": "node", "id": 4235942166, "lat": 53.5489424, "lon": 9.9997119, "tags": {"amenity": "bar", "contact:instagram": "diealtedruckerei", "email": "moin@die-alte-druckerei.de", "indoor_seating": "yes", "name": "Die alte Druckerei", "opening_hours": "Tu-Fr 16:30-01:00; Sa 11:00-01:00", "outdoor_seating": "yes", "phone": "+49 170 7013786", "website": "https://die-alte-druckerei.de/"}}, {"type": "node", "id": 4241767305, "lat": 53.5480807, "lon": 9.9629194, "tags": {"amenity": "bar", "check_date:opening_hours": "2023-12-16", "name": "La Fiesta", "opening_hours:signed": "no"}}, {"type": "node", "id": 4241768702, "lat": 53.5469972, "lon": 9.9615786, "tags": {"amenity": "bar", "name": "Museum Bar"}}, {"type": "node", "id": 4241769889, "lat": 53.5482432, "lon": 9.9628533, "tags": {"amenity": "bar", "check_date:opening_hours": "2023-12-16", "name": "Pinoy", "opening_hours:signed": "no", "wheelchair": "no"}}, {"type": "node", "id": 4247420020, "lat": 53.5499876, "lon": 9.9653913, "tags": {"amenity": "bar", "name": "Pyjama Bar"}}, {"type": "node", "id": 4336625190, "lat": 53.5538324, "lon": 10.0100966, "tags": {"amenity": "bar", "check_date": "2024-02-04", "name": "Chaplins Pub", "wheelchair": "no"}}, {"type": "node", "id": 4365438978, "lat": 53.5505474, "lon": 9.9614784, "tags": {"addr:city": "Hamburg", "addr:country": "DE", "addr:housenumber": "27", "addr:postcode": "20359", "addr:street": "Hamburger Berg", "amenity": "bar", "check_date:opening_hours": "2024-05-12", "name": "Berg Bombe", "opening_hours:signed": "no"}}, {"type": "node", "id": 4404057742, "lat": 53.5621165, "lon": 9.8123409, "tags": {"amenity": "bar", "name": "Chez Wilma", "toilets:wheelchair": "no", "wheelchair": "yes"}}, {"type": "node", "id": 4415556619, "lat": 53.56177, "lon": 9.9616627, "tags": {"air_conditioning": "no", "amenity": "bar", "indoor_seating": "yes", "name": "4Fäuste", "opening_hours:signed": "no", "outdoor_seating": "yes", "payment:credit_cards": "no", "payment:debit_cards": "yes", "smoking": "yes", "wheelchair": "no"}}, {"type": "node", "id": 4417829183, "lat": 53.5531214, "lon": 9.9628227, "tags": {"addr:city": "Hamburg", "addr:housenumber": "63", "addr:postcode": "20359", "addr:street": "Hein-Hoyer-Straße", "amenity": "bar", "name": "Collab", "opening_hours": "Tu-Th 18:00-24:00; Fr,Sa 18:00-01:00", "source": "http://alleselbe.de"}}, {"type": "node", "id": 4425715443, "lat": 53.5962256, "lon": 9.9977416, "tags": {"amenity": "bar", "name": "Sarsari Lounge", "wheelchair": "no"}}, {"type": "node", "id": 4425722107, "lat": 53.7039857, "lon": 10.0080628, "tags": {"addr:city": "Norderstedt", "addr:housenumber": "11", "addr:postcode": "22844", "addr:street": "Marktplatz", "amenity": "bar", "description": "Live Musik vom Feinsten - Das Beste was Norderstedt, der Kreis Segeberg und Schleswig-Holstein zu bieten hat!", "name": "Music Star", "opening_hours": "\"gemäß Veranstaltungskalender\"", "phone": "+49 172 4534248", "website": "https://www.harksheide.de/concerts.html"}}, {"type": "node", "id": 4434647857, "lat": 53.5713184, "lon": 9.98493, "tags": {"amenity": "bar", "name": "Leobar"}}, {"type": "node", "id": 4459275974, "lat": 53.457022, "lon": 9.9843516, "tags": {"amenity": "bar", "check_date:opening_hours": "2022-03-04", "contact:email": "info@b7hamburg.de", "contact:facebook": "b7hamburg", "contact:instagram": "b7hamburg", "contact:phone": "+49 40 71663324", "contact:website": "https://b7hamburg.de", "indoor_seating": "yes", "internet_access": "wlan", "internet_access:fee": "no", "name": "B7 Hamburg", "opening_hours": "Su-Th 14:00-01:00, Fr,Sa 14:00-03:00", "outdoor_seating": "yes", "payment:american_express": "yes", "payment:cash": "yes", "payment:contactless": "yes", "payment:diners_club": "yes", "payment:discover_card": "yes", "payment:girocard": "yes", "payment:jcb": "yes", "payment:maestro": "yes", "payment:mastercard": "yes", "payment:v_pay": "yes", "payment:visa": "yes", "smoking": "separated", "sport": "billiards", "wheelchair": "limited"}}, {"type": "node", "id": 4475020289, "lat": 53.5563621, "lon": 9.9887347, "tags": {"addr:housenumber": "10", "addr:postcode": "20354", "addr:street": "Kleine Theaterstraße", "amenity": "bar", "check_date:opening_hours": "2023-07-30", "contact:email": "post@metropolis-bar.de", "contact:facebook": "https://www.facebook.com/metropoliskinobar", "contact:phone": "+49 40 45035063", "internet_access": "wlan", "name": "Metropolis KINOBAR", "opening_hours": "Mo-Su 16:30-18:00,21:00-22:30"}}, {"type": "node", "id": 4585731361, "lat": 53.5556455, "lon": 10.0119628, "tags": {"amenity": "bar", "contact:website": "http://www.pickupgaybar.de/", "lgbtq": "primary", "name": "Pick Up Gay Bar", "opening_hours": "Mo-Su 15:00+"}}, {"type": "node", "id": 4634760092, "lat": 53.5155454, "lon": 9.993092, "tags": {"amenity": "bar", "check_date:opening_hours": "2024-04-20", "indoor_seating": "yes", "name": "Lions Bar", "opening_hours:signed": "no", "outdoor_seating": "yes", "wheelchair": "limited"}}, {"type": "node", "id": 4691967489, "lat": 53.5530994, "lon": 9.9580283, "tags": {"addr:city": "Hamburg", "addr:country": "DE", "addr:housenumber": "27", "addr:postcode": "22767", "addr:street": "Paul-Roosen-Straße", "amenity": "bar", "drink:wine": "yes", "email": "info@clockers.hamburg", "name": "clockers BAR St. Pauli", "opening_hours": "Mo-Th 19:00-01:00, Fr,Sa 19:00-03:00", "operator": "clockers GmbH", "phone": "+491799769435", "shop": "alcohol", "website": "https://clockers.hamburg/"}}, {"type": "node", "id": 4692631089, "lat": 53.5486035, "lon": 9.9596344, "tags": {"amenity": "bar", "name": "Chez Ronny s Lounge", "opening_hours": "Mo-Sa 18:00-04:00"}}, {"type": "node", "id": 4694198301, "lat": 53.5485214, "lon": 9.9595342, "tags": {"amenity": "bar", "name": "Silbersack Billard-Treff", "opening_hours:signed": "no"}}, {"type": "node", "id": 4708817816, "lat": 53.5584296, "lon": 9.9480791, "tags": {"amenity": "bar", "indoor_seating": "yes", "name": "CAFE GREKE", "opening_hours": "Mo-Su,PH 08:00-02:00", "outdoor_seating": "no"}}, {"type": "node", "id": 4758528801, "lat": 53.5554674, "lon": 9.9429206, "tags": {"amenity": "bar", "name": "Malto", "opening_hours": "Tu-Th 17:00-24:00; Fr,Sa 17:00-01:00", "payment:credit_cards": "yes", "payment:debit_cards": "yes", "surveillance": "indoor", "wheelchair": "no"}}, {"type": "node", "id": 4758529790, "lat": 53.5555317, "lon": 9.9430683, "tags": {"amenity": "bar", "check_date:opening_hours": "2023-04-26", "name": "Winners Play", "opening_hours:signed": "no", "surveillance": "indoor", "surveillance:type": "camera"}}, {"type": "node", "id": 4767729512, "lat": 53.5745976, "lon": 10.0213541, "tags": {"amenity": "bar", "check_date": "2023-09-03", "name": "Cafe Kö", "opening_hours": "Mo-Fr 18:00+, Sa,Su 12:00+"}}, {"type": "node", "id": 4794813789, "lat": 53.549936, "lon": 9.9645131, "tags": {"amenity": "bar", "email": "info@herzhamburg.com", "indoor_seating": "yes", "internet_access": "wlan", "internet_access:fee": "no", "level": "0", "name": "Herz Hamburg", "opening_hours": "Mo-Th 17:00+; Fr 15:00+; Sa-Su 12:00+", "outdoor_seating": "yes", "phone": "+49 40 84704207", "smoking": "yes", "website": "https://herzhamburg.com/"}}, {"type": "node", "id": 4912961213, "lat": 53.5545895, "lon": 9.8444482, "tags": {"addr:city": "Hamburg", "addr:housenumber": "7", "addr:postcode": "22609", "addr:street": "Nienstedtener Straße", "amenity": "bar", "name": "bar seven", "opening_hours": "Mo-Su 12:00-23:00; Sa 19:00-24:00", "outdoor_seating": "yes"}}, {"type": "node", "id": 4925161110, "lat": 53.548171, "lon": 9.9624902, "tags": {"amenity": "bar", "check_date:opening_hours": "2023-12-30", "name": "the Other Place", "opening_hours:signed": "no", "wheelchair": "no"}}, {"type": "node", "id": 4984703821, "lat": 53.5243106, "lon": 10.0157274, "tags": {"addr:housenumber": "10", "addr:postcode": "20539", "addr:street": "Veddeler Damm", "amenity": "bar", "name": "Café Zonck", "opening_hours": "Mo-Su 10:00-02:00"}}, {"type": "node", "id": 5048956986, "lat": 53.5480882, "lon": 9.9631017, "tags": {"amenity": "bar", "check_date:opening_hours": "2023-12-16", "name": "Tawan Daeng Karaoke Bar", "opening_hours:signed": "no", "wheelchair": "no"}}, {"type": "node", "id": 5048956991, "lat": 53.5481358, "lon": 9.9639087, "tags": {"amenity": "bar", "check_date:opening_hours": "2023-12-16", "name": "Maria Bar", "opening_hours:signed": "no", "wheelchair": "no"}}, {"type": "node", "id": 5056117591, "lat": 53.4908257, "lon": 10.2071812, "tags": {"amenity": "bar", "min_age": "18", "name": "Cutters Kajüte", "opening_hours": "Su-Th 12:00-23:00; Fr,Sa 12:00-23:00+", "outdoor_seating": "no", "payment:cash": "yes", "payment:credit_cards": "no", "payment:cryptocurrencies": "no", "payment:electronic_purses": "no", "payment:girocard": "yes", "smoking": "yes"}}, {"type": "node", "id": 5200356121, "lat": 53.5510114, "lon": 9.9575793, "tags": {"addr:housenumber": "35", "addr:street": "Große Freiheit", "amenity": "bar", "name": "Olivia Jones Bar", "name:en": "Olivia Jones Bar", "opening_hours": "Mo-Su 19:00-02:00", "phone": "+49 40 42103348"}}, {"type": "node", "id": 5339256230, "lat": 53.5778406, "lon": 10.0596517, "tags": {"amenity": "bar", "check_date": "2023-08-05", "name": "Emi Lounge", "smoking": "yes"}}, {"type": "node", "id": 5341006390, "lat": 53.5662282, "lon": 9.9584843, "tags": {"addr:city": "Hamburg", "addr:housenumber": "14", "addr:postcode": "20259", "addr:street": "Eimsbütteler Chaussee", "amenity": "bar", "name": "LiderSportbar", "opening_hours:signed": "no", "source": "rocketbeanstv;survey", "wheelchair": "yes"}}, {"type": "node", "id": 5456098002, "lat": 53.6472871, "lon": 9.9096173, "tags": {"addr:city": "Hamburg", "addr:housenumber": "2", "addr:postcode": "22457", "addr:street": "Roman-Zeller-Platz", "amenity": "bar", "name": "Bizim-Sportsbar e.V.", "outdoor_seating": "yes", "wheelchair": "no"}}, {"type": "node", "id": 5460118668, "lat": 53.5545459, "lon": 9.9689931, "tags": {"amenity": "bar", "contact:facebook": "https://www.facebook.com/1910Weinbar/", "description": "Geöffnet: 2 Stunden bis 20 Minuten vor Spielbeginn; 20 Minuten nach Spielende bis: 24 Uhr am Freitag und Samstag, 23:30 Uhr bei Wochentagsspielen; Abweichungen nach oben und unten je nach Andrang möglich", "internet_access": "wlan", "internet_access:fee": "no", "name": "1910 e.V. Weinbar", "operator": "1910 e.V. Museum für den FC St. Pauli", "wheelchair": "yes"}}, {"type": "node", "id": 5461564982, "lat": 53.5518131, "lon": 9.9564287, "tags": {"addr:city": "Hamburg", "addr:housenumber": "42", "addr:postcode": "22767", "addr:street": "Kleine Freiheit", "amenity": "bar", "description": "Cigarlounge", "email": "info@the-rabbithole.de", "name": "The Rabbithole", "opening_hours": "Mo-Fr 18:00-24:00; Sa,Su 00:00-02:00,18:00-24:00", "payment:cash": "yes", "payment:girocard": "yes", "payment:maestro": "yes", "payment:visa_debit": "yes", "phone": "+49 40 75364333", "smoking": "yes", "website": "https://www.the-rabbithole.de/"}}, {"type": "node", "id": 5631256768, "lat": 53.5183822, "lon": 9.9837978, "tags": {"amenity": "bar", "name": "M1", "opening_hours": "\"je nach Veranstaltungen\"", "wheelchair": "no"}}, {"type": "node", "id": 5634887692, "lat": 53.5991191, "lon": 9.9165414, "tags": {"addr:city": "Hamburg", "addr:country": "DE", "addr:housenumber": "561", "addr:postcode": "22525", "addr:street": "Kieler Straße", "amenity": "bar", "name": "WinnersPLAY Sportsbar", "opening_hours": "Mo-Su 10:00-24:00", "operator": "www.winnersplay.de", "smoking": "yes"}}, {"type": "node", "id": 5642417283, "lat": 53.6607049, "lon": 9.7927773, "tags": {"addr:city": "Pinneberg", "addr:country": "DE", "addr:housenumber": "24", "addr:postcode": "25421", "amenity": "bar", "check_date:opening_hours": "2023-03-19", "contact:phone": "+49 4101 8191353", "contact:website": "https://www.casaportugal-pinneberg.de", "name": "Casa Portugal", "opening_hours:signed": "no", "payment:credit_cards": "no", "payment:debit_cards": "no"}}, {"type": "node", "id": 5695849921, "lat": 53.540821, "lon": 9.9859471, "tags": {"amenity": "bar", "contact:website": "https://carls-brasserie.de/carls-weinbar/", "indoor_seating": "yes", "name": "CARLS Weinbar", "opening_hours": "We-Su 13:00-21:00", "outdoor_seating": "yes", "wheelchair": "limited"}}, {"type": "node", "id": 5759381282, "lat": 53.567545, "lon": 10.0452354, "tags": {"amenity": "bar", "indoor_seating": "yes", "name": "Days", "opening_hours": "Mo-Th 13:00-24:00; Fr,Sa 13:00+", "outdoor_seating": "yes"}}, {"type": "node", "id": 5766710097, "lat": 53.5458933, "lon": 9.9745319, "tags": {"addr:city": "Hamburg", "addr:country": "DE", "addr:housenumber": "24", "addr:postcode": "20459", "addr:street": "Ditmar-Koel-Straße", "amenity": "bar", "brewery": "various", "email": "info@bairro-bar.de", "fax": "+49 40 180 356 51", "level": "0", "name": "Bairro Bar", "opening_hours": "Mo-Th 12:00-01:00; Fr-Sa 12:00+; Su 12:00-24:00", "operator": "Chie-Yul Oh", "phone": "+49 40 180 356 50", "website": "https://www.bairro-bar.de/", "wheelchair": "limited"}}, {"type": "node", "id": 5785203304, "lat": 53.4614628, "lon": 9.9834848, "tags": {"amenity": "bar", "check_date:opening_hours": "2023-10-27", "name": "Maxim", "opening_hours:signed": "no"}}, {"type": "node", "id": 5835037894, "lat": 53.5576683, "lon": 9.9752366, "tags": {"addr:housenumber": "6", "addr:postcode": "20357", "addr:street": "Karolinenstraße", "amenity": "bar", "cuisine": "ice_cream;coffee_shop", "indoor_seating": "yes", "name": "Minus Gelato Bar", "opening_hours": "Su-Th 13:00-24:00; Fr-Sa 13:00-02:00", "outdoor_seating": "yes", "wheelchair": "limited"}}, {"type": "node", "id": 5846976255, "lat": 53.4794534, "lon": 9.8747165, "tags": {"addr:city": "Hamburg", "addr:housenumber": "50", "addr:postcode": "21147", "addr:street": "Rehrstieg", "amenity": "bar", "name": "Max Cafe & Bar"}}, {"type": "node", "id": 5909357473, "lat": 53.5555442, "lon": 9.9625263, "tags": {"addr:city": "Hamburg", "addr:housenumber": "47", "addr:postcode": "20359", "addr:street": "Wohlwillstraße", "amenity": "bar", "email": "w@thewalrusbar.de", "indoor_seating": "yes", "name": "The Walrus Bar", "opening_hours": "Mo-Sa 19:00-24:00+; Su off", "outdoor_seating": "yes", "smoking": "yes", "website": "http://thewalrusbar.de/", "wheelchair": "no"}}, {"type": "node", "id": 6061162952, "lat": 53.6737522, "lon": 10.2395367, "tags": {"amenity": "bar", "level": "1", "name": "Zahara"}}, {"type": "node", "id": 6061162957, "lat": 53.6737211, "lon": 10.2397023, "tags": {"amenity": "bar", "name": "Js Kellaa"}}, {"type": "node", "id": 6090949459, "lat": 53.5515168, "lon": 9.9864465, "tags": {"addr:city": "Hamburg", "addr:housenumber": "10", "addr:postcode": "20355", "addr:street": "Stadthausbrücke", "amenity": "bar", "level": "0", "name": "Bar Noir", "website": "https://www.tortue.de/de/bars/weinbar-hamburg-cafe-after-work.html", "wheelchair": "no"}}, {"type": "node", "id": 6090949460, "lat": 53.5515743, "lon": 9.9863132, "tags": {"addr:city": "Hamburg", "addr:housenumber": "10", "addr:postcode": "20355", "addr:street": "Stadthausbrücke", "amenity": "bar", "name": "Bar Bleu", "opening_hours": "We-Sa 18:00-22:00", "smoking": "yes", "website": "https://www.tortue.de/de/bars/bar-bleu.html", "wheelchair": "no"}}, {"type": "node", "id": 6106891386, "lat": 53.5581968, "lon": 9.9702234, "tags": {"addr:city": "Hamburg", "addr:country": "DE", "addr:housenumber": "41", "addr:postcode": "20357", "addr:street": "Marktstraße", "amenity": "bar", "check_date:opening_hours": "2024-03-31", "name": "the med bar", "opening_hours": "Fr 16:00-03:00; Sa 14:00-03:00; Tu-We 16:00-01:00; Th 16:00-02:00", "opening_hours:signed": "no", "phone": "+49 40 43092188", "website": "https://www.instagram.com/themedbarhamburg", "wheelchair": "no"}}, {"type": "node", "id": 6180431085, "lat": 53.5512929, "lon": 9.998534, "tags": {"amenity": "bar", "indoor_seating": "yes", "name": "Karstadt Champagne Bar", "outdoor_seating": "no"}}, {"type": "node", "id": 6274193363, "lat": 53.5604525, "lon": 9.9479252, "tags": {"addr:city": "Hamburg", "addr:housenumber": "190", "addr:postcode": "22765", "addr:street": "Holstenstraße", "amenity": "bar", "brewery": "no", "cocktails": "yes", "email": "info@taugenichts-bar.de", "name": "Taugenichts Bar", "opening_hours": "Fr,Sa 19:00-03:00, Tu-Th 19:00-01:00", "outdoor_seating": "no", "smoking": "outside", "website": "https://taugenichts-bar.de", "wheelchair": "no"}}, {"type": "node", "id": 6312368387, "lat": 53.5663779, "lon": 9.9629391, "tags": {"addr:city": "Hamburg", "addr:country": "DE", "addr:housenumber": "33", "addr:postcode": "20357", "addr:street": "Margaretenstraße", "air_conditioning": "no", "amenity": "bar", "brewery": "various", "check_date": "2024-05-26", "contact:email": "webmaster@margaretenkneipe.de", "contact:phone": "+49 40 435711", "contact:website": "https://margaretenkneipe.de", "internet_access": "no", "microbrewery": "no", "name": "Die Grete", "opening_hours": "Mo-Su 16:00+", "outdoor_seating": "yes", "payment:cards": "no", "payment:cash": "yes", "payment:credit_cards": "no", "payment:debit_cards": "no", "smoking": "yes", "wheelchair": "no"}}, {"type": "node", "id": 6356948897, "lat": 53.4410208, "lon": 9.9603487, "tags": {"addr:city": "Hamburg", "addr:housenumber": "55", "addr:postcode": "21077", "addr:street": "Ernst-Bergeest-Weg", "amenity": "bar", "name": "Fuchs Bar"}}, {"type": "node", "id": 6383796747, "lat": 53.5853177, "lon": 9.9803341, "tags": {"addr:city": "Hamburg", "addr:housenumber": "9", "addr:postcode": "20251", "addr:street": "Curschmannstraße", "amenity": "bar", "check_date": "2023-05-20", "name": "Black Forest Bar & Food", "opening_hours": "Mo-We 18:00-01:00, Th-Sa 18:00-02:00", "website": "https://www.blackforest-bar.de/", "wheelchair": "no"}}, {"type": "node", "id": 6397084045, "lat": 53.5552996, "lon": 10.0100558, "tags": {"amenity": "bar", "description": "Maliks bar usually opens after 18:00, but it varies. Malik is the owner and the bartender. There are various affordable homebrewn drinks. Its easy to create an event for yourself like a birthday. Downstairs there are changing art exhibitions.", "name": "Chez Maliks", "outdoor_seating": "yes", "toilets:wheelchair": "no", "wheelchair": "yes"}}, {"type": "node", "id": 6423477427, "lat": 53.5506108, "lon": 9.9620502, "tags": {"addr:city": "Hamburg", "addr:country": "DE", "addr:housenumber": "11", "addr:postcode": "20359", "addr:street": "Hein-Hoyer-Straße", "amenity": "bar", "contact:facebook": "https://www.facebook.com/pages/category/Gastropub/Lucky-Star-106515752746003/", "name": "Lucky Star"}}, {"type": "node", "id": 6426846220, "lat": 53.5658257, "lon": 9.9058798, "tags": {"addr:city": "Hamburg", "addr:country": "DE", "addr:housenumber": "30", "addr:postcode": "22761", "addr:street": "Von-Sauer-Straße", "amenity": "bar", "check_date:opening_hours": "2024-04-21", "indoor_seating": "yes", "name": "Medellin Lounge", "opening_hours": "Fr-Su 13:00-04:00, Su-Th 13:00-02:00", "outdoor_seating": "yes", "wheelchair": "yes"}}, {"type": "node", "id": 6427922354, "lat": 53.549112, "lon": 9.9630987, "tags": {"addr:city": "Hamburg", "addr:country": "DE", "addr:housenumber": "29", "addr:postcode": "20359", "addr:street": "Spielbudenplatz", "amenity": "bar", "check_date:opening_hours": "2023-12-17", "contact:email": "mail@sanktpaulibar.de", "contact:phone": "+49 40 315931", "contact:website": "https://www.sanktpaulibar.de/", "name": "sanktpaulibar", "opening_hours": "Mo-Th 18:00-01:00+, Fr 18:00-03:00+, Sa 17:00-05:00+, Su 17:00-01:00+"}}, {"type": "node", "id": 6442786664, "lat": 53.5507833, "lon": 9.9600001, "tags": {"amenity": "bar", "brewery": "yes", "contact:email": "kontakt@craneandcrane.de", "contact:facebook": "https://www.facebook.com/brewsbrothers.de/craneandcrane", "contact:phone": "+49 40 30751148", "indoor_seating": "yes", "internet_access": "wlan", "internet_access:fee": "no", "name": "Crane and Crane", "opening_hours": "Th-Sa 19:00-18:00+, We 18:00-24:00", "operator": "Dominik Großefeld;Oliver Wesseloh", "outdoor_seating": "yes", "payment:american_express": "yes", "payment:apple_pay": "yes", "payment:cash": "yes", "payment:maestro": "yes", "payment:mastercard": "yes", "payment:visa": "yes"}}, {"type": "node", "id": 6449285285, "lat": 53.5509464, "lon": 9.9614404, "tags": {"amenity": "bar", "name": "Sorgenbrecher", "smoking": "yes"}}, {"type": "node", "id": 6458752330, "lat": 53.5525637, "lon": 9.9607244, "tags": {"addr:city": "Hamburg", "addr:housenumber": "55", "addr:postcode": "20359", "addr:street": "Clemens-Schultz-Straße", "amenity": "bar", "indoor_seating": "yes", "name": "P&P - drinks & gude laube", "opening_hours": "Tu-Sa 17:00-24:00; PH,Su,Mo off", "outdoor_seating": "yes", "wheelchair": "no"}}, {"type": "node", "id": 6583262685, "lat": 53.5838403, "lon": 10.0187664, "tags": {"amenity": "bar", "check_date": "2023-06-10", "check_date:opening_hours": "2022-03-03", "indoor_seating": "yes", "name": "Bogys", "opening_hours:signed": "no", "outdoor_seating": "no"}}, {"type": "node", "id": 6597327104, "lat": 53.4634317, "lon": 9.9803015, "tags": {"amenity": "bar", "check_date:opening_hours": "2023-10-16", "name": "To Stéki", "opening_hours:signed": "no"}}, {"type": "node", "id": 6612673185, "lat": 53.5797869, "lon": 10.0131747, "tags": {"amenity": "bar", "check_date:opening_hours": "2024-02-18", "cuisine": "barbecue;german;chicken;burger;diner;regional;sausage;sandwich;local", "name": "Ratsherrn Bar Winterhude", "name:de": "Ratsherrn Bar Mühlenkamp", "name:en": "Ratsherrn Bar Mühlenkamp", "opening_hours": "Mo-Th 17:00-24:00, Fr,Sa 16:00-01:00, Su 16:00-22:00", "phone": "+49 40 278 07 427", "website": "https://www.ratsherrn.de/de/bars.html", "wheelchair": "limited"}}, {"type": "node", "id": 6640328608, "lat": 53.5751783, "lon": 9.9572878, "tags": {"addr:city": "Hamburg", "addr:country": "DE", "addr:housenumber": "52", "addr:postcode": "20259", "addr:street": "Osterstraße", "amenity": "bar", "indoor_seating": "yes", "name": "Scharleys Bar", "opening_hours": "Tu-Su 12:00-22:00; Mo off", "outdoor_seating": "yes", "wheelchair": "yes"}}, {"type": "node", "id": 6653332471, "lat": 53.5484157, "lon": 9.9617617, "tags": {"addr:city": "Hamburg", "addr:housenumber": "7b", "addr:postcode": "20359", "addr:street": "Friedrichstraße", "amenity": "bar", "brewery": "yes", "name": "Osborne", "opening_hours:signed": "no"}}, {"type": "node", "id": 6653939687, "lat": 53.5312136, "lon": 9.8826121, "tags": {"access": "private", "amenity": "bar", "name": "Finkenwerder Fährhaus", "opening_hours": "24/7", "outdoor_seating": "no", "payment:cash": "yes", "phone": "+49 176 10335265"}}, {"type": "node", "id": 6813077687, "lat": 53.4635901, "lon": 9.9804281, "tags": {"amenity": "bar", "check_date:opening_hours": "2023-10-16", "indoor_seating": "yes", "min_age": "18", "name": "crus", "opening_hours": "Su-Th 15:00-02:00, Fr,Sa 15:00+", "outdoor_seating": "yes", "wheelchair": "no"}}, {"type": "node", "id": 6952805285, "lat": 53.5484342, "lon": 9.9621601, "tags": {"addr:housenumber": "5", "addr:street": "Friedrichstraße", "amenity": "bar", "cuisine": "bavarian", "name": "Bayern Stüberl", "opening_hours": "Tu-Sa 18:00-05:00"}}, {"type": "node", "id": 6954342553, "lat": 53.5517533, "lon": 9.9626896, "tags": {"amenity": "bar", "indoor_seating": "yes", "name": "Santa Paula - Café & Bar", "outdoor_seating": "no"}}, {"type": "node", "id": 7058714085, "lat": 53.5555078, "lon": 9.9822283, "tags": {"addr:city": "Hamburg", "addr:housenumber": "47", "addr:postcode": "20355", "addr:street": "Valentinskamp", "amenity": "bar", "contact:facebook": "https://www.facebook.com/dieyoko/", "contact:instagram": "https://instagram.com/dieyoko", "email": "kontakt@dieyoko.de", "name": "yoko-club", "operator": "N. Garous Pour", "website": "http://dieyoko.de"}}, {"type": "node", "id": 7139979129, "lat": 53.5719518, "lon": 9.9949783, "tags": {"addr:city": "Hamburg", "addr:housenumber": "121b", "addr:postcode": "20148", "addr:street": "Mittelweg", "amenity": "bar", "name": "Zwick"}}, {"type": "node", "id": 7234981587, "lat": 53.5845015, "lon": 9.9818138, "tags": {"amenity": "bar", "name": "Brix"}}, {"type": "node", "id": 7235759215, "lat": 53.5494191, "lon": 9.9632777, "tags": {"amenity": "bar", "indoor_seating": "no", "name": "Heisse Ecke", "outdoor_seating": "yes"}}, {"type": "node", "id": 7306564285, "lat": 53.5075202, "lon": 10.001076, "tags": {"amenity": "bar", "name": "Wildwuchs Bar", "opening_hours": "Th-Fr 18:00-22:00", "website": "https://www.wildwuchs-brauwerk.de/"}}, {"type": "node", "id": 7721850688, "lat": 53.5606352, "lon": 10.0548448, "tags": {"addr:city": "Hamburg", "addr:housenumber": "108", "addr:postcode": "20535", "addr:street": "Hammer Steindamm", "amenity": "bar", "amenity_1": "restaurant", "indoor_seating": "yes", "name": "Zum Tanzenden Einhorn", "opening_hours": "We,Th,Su 17:00-02:00, Fr,Sa 17:00-05:00", "outdoor_seating": "yes", "phone": "+49 40 41622550", "website": "https://einhorn.bar/"}}, {"type": "node", "id": 7777713338, "lat": 53.5478906, "lon": 9.9610591, "tags": {"addr:city": "Hamburg", "addr:housenumber": "5", "addr:postcode": "20359", "addr:street": "Gerhardstraße", "amenity": "bar", "brewery": "Störtebeker", "internet_access": "wlan", "internet_access:description:de": "Der Name des WLANs wird öfter geändert", "min_age": "18", "name": "Night Light", "note": "Die fehlenden Biermarken trage ich in den kommenden Wochen nach, wenn ich mal wieder in der Stadt bin", "opening_hours": "Fr, Sa, PH -1 days 19:00+", "outdoor_seating": "yes", "payment:cash": "only", "smoking": "yes", "wheelchair": "no", "wheelchair:description:de": "Es sind mehrere Stufen zum Eingang, es gibt auch keine Rampe. Man wird jedoch vom Personal reingetragen."}}, {"type": "node", "id": 7999555840, "lat": 53.5511845, "lon": 9.9595214, "tags": {"addr:city": "Hamburg", "addr:housenumber": "5", "addr:postcode": "20359", "addr:street": "Schmuckstraße", "amenity": "bar", "min_age": "18", "name": "Taverne Bar Donatella", "opening_hours": "Do-Sa 22:00-04:00", "smoking": "yes"}}, {"type": "node", "id": 8661035729, "lat": 53.5641693, "lon": 9.9601769, "tags": {"addr:city": "Hamburg", "addr:housenumber": "110", "addr:postcode": "20357", "addr:street": "Schulterblatt", "amenity": "bar", "check_date": "2023-12-25", "indoor_seating": "yes", "name": "Blitz Bar", "opening_hours": "Tu-Th 16:00-01:30, Fr,Sa 15:00-02:30, Su 16:00-01:00; Mo off", "outdoor_seating": "yes", "wheelchair": "yes"}}, {"type": "node", "id": 8822025722, "lat": 53.6048685, "lon": 9.90922, "tags": {"amenity": "bar", "check_date:opening_hours": "2024-06-08", "indoor_seating": "yes", "name": "Grand", "opening_hours:signed": "no", "outdoor_seating": "yes"}}, {"type": "node", "id": 8931240164, "lat": 53.5141651, "lon": 9.9873654, "tags": {"addr:city": "Hamburg", "addr:housenumber": "32", "addr:postcode": "21107", "addr:street": "Mannesallee", "amenity": "bar", "contact:instagram": "zahara.sportsbar", "name": "Zahara"}}, {"type": "node", "id": 8998071785, "lat": 53.5962152, "lon": 10.0430854, "tags": {"addr:city": "Hamburg", "addr:country": "DE", "addr:housenumber": "229", "addr:postcode": "22307", "addr:street": "Fuhlsbüttler Straße", "amenity": "bar", "check_date:opening_hours": "2023-07-23", "microbrewery": "no", "name": "Bellevue", "opening_hours:signed": "no", "outdoor_seating": "yes"}}, {"type": "node", "id": 9152508310, "lat": 53.5505524, "lon": 9.9535329, "tags": {"amenity": "bar", "charge": "4.00 EUR/day", "contact:email": "info@kixx-hamburg.de", "contact:facebook": "https://www.facebook.com/KIXXhamburg/", "contact:phone": "+49 40 36199198", "contact:website": "https://www.kixx-hamburg.de/", "fee": "yes", "indoor_seating": "yes", "name": "Kixx", "opening_hours": "We-Sa 18:00+; Su-Tu,PH off", "outdoor_seating": "yes", "sport": "table_soccer", "wheelchair": "limited"}}, {"type": "node", "id": 9163447251, "lat": 53.606775, "lon": 9.9033783, "tags": {"addr:housenumber": "5", "addr:street": "Alte Elbgaustraße", "amenity": "bar", "check_date": "2023-08-15", "name": "Café Bar Pulcinella", "opening_hours": "Mo-Th 10:00-20:00; Fr 10:00-22:00; Sa 10:00-20:00; Su 13:30-18:00", "payment:cards": "no", "payment:credit_cards": "no", "payment:debit_cards": "no"}}, {"type": "node", "id": 9165494607, "lat": 53.6010808, "lon": 10.0278689, "tags": {"addr:city": "Hamburg", "addr:housenumber": "2a", "addr:postcode": "22297", "addr:street": "Kapstadtring", "amenity": "bar", "email": "info@hi-city-nord.de", "indoor_seating": "yes", "name": "Pier", "opening_hours": "\"please call us\"", "outdoor_seating": "no", "phone": "+49 40 99999 0", "takeaway": "yes", "website": "https://www.hi-city-nord.de/de/essen-und-trinken.html", "website:menu": "https://www.hi-city-nord.de/Speise-und-Getraenkekarte.pdf?m=1635843503&"}}, {"type": "node", "id": 9177298317, "lat": 53.5489622, "lon": 9.9606858, "tags": {"addr:city": "Hamburg", "addr:housenumber": "9", "addr:postcode": "20359", "addr:street": "Hans-Albers-Platz", "amenity": "bar"}}, {"type": "node", "id": 9214586954, "lat": 53.5503027, "lon": 9.9610997, "tags": {"addr:housenumber": "6", "addr:street": "Hamburger Berg", "amenity": "bar", "name": "Bermuda", "opening_hours": "Tu 20:00-03:00;We 20:00-05:00;Tu-Fr 20:00-06:00;Sa20:00-07:00", "website": "https://bermuda-stpauli.de/"}}, {"type": "node", "id": 9595339693, "lat": 53.536885, "lon": 10.0165619, "tags": {"amenity": "bar", "check_date": "2023-07-02", "contact:email": "cesur@cocktailooo.de", "contact:website": "https://hamburg.cocktailooo.de/", "name": "Cocktailooo", "opening_hours": "Th 17:00-22:00, Fr,Sa 17:00-23:30, Su 15:00-20:00", "operator": "Cocktailooo UG"}}, {"type": "node", "id": 9620456061, "lat": 53.5646913, "lon": 9.9834209, "tags": {"amenity": "bar", "contact:email": "Grace.hamburg@hotmail.com", "contact:facebook": "https://www.facebook.com/GRACE-Bar-Lounge-970999043099434/", "contact:phone": "+49 170 666 60 61", "contact:website": "https://grace-bar-lounge.eatbu.com", "name": "GRACE - Bar & Lounge", "opening_hours": "Mo-Fr 00:00-02:00,11:00-24:00; Sa 00:00-04:00,11:00-24:00; Su 00:00-04:00,13:00-24:00"}}, {"type": "node", "id": 9656367007, "lat": 53.5823573, "lon": 9.9709926, "tags": {"addr:city": "Hamburg", "addr:housenumber": "97", "addr:postcode": "20253", "addr:street": "Hoheluftchaussee", "amenity": "bar", "name": "Sunset Billard Hoheluft", "opening_hours": "Mo 17:00-20:00, Tu-Th 17:00-24:00, Fr 17:00-01:30, Sa 15:00-01:30, Su 15:00-01:30"}}, {"type": "node", "id": 9692930865, "lat": 53.5561894, "lon": 10.0141454, "tags": {"amenity": "bar", "name": "S.L.U.T", "opening_hours": "Mo,Th 20:00-02:00, Fr,Sa 22:00-05:00, Su 18:00-24:00"}}, {"type": "node", "id": 9704925710, "lat": 53.5519701, "lon": 9.9378861, "tags": {"addr:housenumber": "5", "addr:street": "Neue Große Bergstraße", "amenity": "bar", "description": "Listening Bar im Hinterhof. Erreichbar über Große Bergstraße.", "name": "RIAA", "opening_hours": "Mo-Su 11:00-22:00", "website": "https://t.me/RIAA_BAR"}}, {"type": "node", "id": 9705896063, "lat": 53.5155927, "lon": 9.9919238, "tags": {"addr:city": "Hamburg", "addr:housenumber": "15", "addr:postcode": "21107", "addr:street": "Fährstraße", "air_conditioning": "yes", "amenity": "bar", "check_date:opening_hours": "2024-05-23", "email": "reinam.hamburg@gmail.com", "internet_access": "wlan", "internet_access:fee": "customers", "level": "0", "min_age": "18", "name": "Reinam Shisha Cafe", "opening_hours": "Mo-Th 15:00-02:00; Fr 15:00-03:00; Sa 14:00-03:00; So 14:00-02:00", "opening_hours:signed": "no", "payment:cash": "yes", "payment:debit_cards": "yes", "payment:paypal": "yes", "phone": "+4904046640455", "smoking": "isolated", "source": "survey;osm notes;local knowledge", "website": "https://reinam-shisha-cafe.eatbu.com/?lang=de#"}}, {"type": "node", "id": 9705956550, "lat": 53.5156575, "lon": 9.9898222, "tags": {"addr:housenumber": "41", "addr:street": "Fährstraße", "amenity": "bar", "check_date:opening_hours": "2024-05-23", "name": "Rodos Café Bar", "opening_hours:signed": "no"}}, {"type": "node", "id": 9833781518, "lat": 53.5508599, "lon": 9.9575437, "tags": {"addr:housenumber": "29", "addr:street": "Große Freiheit", "amenity": "bar", "name": "Gretel & Alfons", "opening_hours": "Mo-Su 18:00-04:00"}}, {"type": "node", "id": 9861749597, "lat": 53.5496102, "lon": 10.0012432, "tags": {"addr:housenumber": "6", "addr:street": "Mohlenhofstraße", "amenity": "bar", "indoor_seating": "yes", "name": "Liquid Garden", "outdoor_seating": "yes", "website": "https://liquidgarden.de", "wheelchair": "no"}}, {"type": "node", "id": 9894942025, "lat": 53.4858582, "lon": 10.2145544, "tags": {"addr:city": "Hamburg", "addr:housenumber": "150", "addr:postcode": "21029", "addr:street": "Bergedorfer Straße", "amenity": "bar", "name": "Töpferkrug", "opening_hours": "Tu-Th 15:00-24:00; Fr-Sa 15:00-02:00; Su 15:00-23:00"}}, {"type": "node", "id": 9895608144, "lat": 53.5562466, "lon": 9.9630505, "tags": {"amenity": "bar", "changing_table": "no", "indoor_seating": "yes", "internet_access:fee": "no", "level": "0", "name": "Toast bar", "outdoor_seating": "yes", "smoking": "outside", "toilets": "yes", "toilets:access": "customers", "toilets:wheelchair": "no", "wheelchair": "limited"}}, {"type": "node", "id": 9960735883, "lat": 53.5576316, "lon": 9.954897, "tags": {"amenity": "bar", "name": "The Local", "website": "https://www.thelocal.bar/"}}, {"type": "node", "id": 9980688017, "lat": 53.543343, "lon": 10.0004475, "tags": {"amenity": "bar", "name": "Kumpin"}}, {"type": "node", "id": 9980688019, "lat": 53.5403599, "lon": 10.0075976, "tags": {"addr:housenumber": "2", "addr:postcode": "20457", "addr:street": "Versmannstraße", "amenity": "bar", "level": "15", "name": "Puzzle Bar", "opening_hours": "Tu-Sa 18:00-01:00", "phone": "+49 40 32082838", "website": "https://puzzle-bar.de/"}}, {"type": "node", "id": 9990965725, "lat": 53.6931936, "lon": 10.3217699, "tags": {"amenity": "bar"}}, {"type": "node", "id": 10061969188, "lat": 53.5118127, "lon": 10.2509549, "tags": {"addr:city": "Reinbek", "addr:housenumber": "5", "addr:postcode": "21465", "addr:street": "Am Rosenplatz", "amenity": "bar", "name": "Palmyra", "note": "cocktail & smokebar", "opening_hours": "Su-Th 16:00-24:00; Fr+Sa 16:00-02:00", "phone": "+49 40 987 688 44", "smoking": "dedicated", "website": "https://palmyra-cocktail-smokebar.business.site/"}}, {"type": "node", "id": 10061969214, "lat": 53.5082713, "lon": 10.2521977, "tags": {"addr:city": "Reinbek", "addr:housenumber": "6", "addr:postcode": "21465", "addr:street": "Sophienstraße", "amenity": "bar", "name": "BAR 23"}}, {"type": "node", "id": 10174104135, "lat": 53.5730502, "lon": 10.0309287, "tags": {"amenity": "bar", "indoor": "yes", "indoor_seating": "yes", "level": "0", "name": "Wine Bar", "opening_hours": "Mo-Sa 10:00-20:00", "outdoor_seating": "no"}}, {"type": "node", "id": 10248232171, "lat": 53.5557187, "lon": 10.0122617, "tags": {"amenity": "bar", "name": "Extratour"}}, {"type": "node", "id": 10290896630, "lat": 53.4863691, "lon": 10.2152911, "tags": {"amenity": "bar", "indoor_seating": "yes", "name": "Dart Sporttreff e.V.", "outdoor_seating": "no"}}, {"type": "node", "id": 10685362766, "lat": 53.5177682, "lon": 9.9866478, "tags": {"amenity": "bar", "check_date:opening_hours": "2024-05-23", "name": "Deja Vu", "opening_hours:signed": "no"}}, {"type": "node", "id": 10685362768, "lat": 53.517623, "lon": 9.9871521, "tags": {"amenity": "bar", "check_date:opening_hours": "2024-05-23", "name": "Relax Lounge", "opening_hours:signed": "no"}}, {"type": "node", "id": 10685362769, "lat": 53.517654, "lon": 9.9870769, "tags": {"amenity": "bar", "check_date:opening_hours": "2024-05-23", "contact:instagram": "theroomwilly", "name": "The Room", "old_name": "Yurdum Kulturverein", "opening_hours:signed": "no", "website": "https://www.instagram.com/theroomwilly/"}}, {"type": "node", "id": 10719394630, "lat": 53.5876809, "lon": 10.0467446, "tags": {"amenity": "bar", "name": "Wohnzimmer"}}, {"type": "node", "id": 10745127318, "lat": 53.6604406, "lon": 9.7931015, "tags": {"amenity": "bar", "name": "Black Pearl", "opening_hours": "Mo-Th 11:00-01:00, Fr,Sa 10:00-18:00+, Su 10:00-01:00"}}, {"type": "node", "id": 10771255812, "lat": 53.5504652, "lon": 9.9576695, "tags": {"addr:housenumber": "14", "addr:street": "Große Freiheit", "amenity": "bar", "check_date:opening_hours": "2024-03-30", "name": "Shooters", "opening_hours:signed": "no"}}, {"type": "node", "id": 10771255815, "lat": 53.5506163, "lon": 9.9577192, "tags": {"addr:housenumber": "18", "addr:street": "Große Freiheit", "amenity": "bar", "check_date:opening_hours": "2024-03-30", "name": "Brooklyn Bar", "opening_hours:signed": "no"}}, {"type": "node", "id": 10772932593, "lat": 53.5510822, "lon": 9.9575981, "tags": {"addr:housenumber": "39", "addr:street": "Große Freiheit", "amenity": "bar", "check_date:opening_hours": "2024-03-30", "level": "0", "name": "Highway", "opening_hours:signed": "no"}}, {"type": "node", "id": 10773012023, "lat": 53.5506589, "lon": 9.9574513, "tags": {"amenity": "bar", "check_date:opening_hours": "2024-03-30", "level": "0", "name": "Dollhouse Beach Club", "opening_hours:signed": "no"}}, {"type": "node", "id": 10773065821, "lat": 53.5512153, "lon": 9.9578905, "tags": {"addr:housenumber": "36", "addr:street": "Große Freiheit", "amenity": "bar", "level": "-1", "live_music": "yes", "name": "Kaiserkeller", "opening_hours": "\"lt. Veranstaltungsplakat\"", "website": "https://www.grossefreiheit36.com/"}}, {"type": "node", "id": 10773065823, "lat": 53.5511217, "lon": 9.9579069, "tags": {"addr:housenumber": "36", "addr:street": "Große Freiheit", "amenity": "bar", "level": "1", "name": "Galeria 36", "tourism": "gallery", "website": "https://www.grossefreiheit36.com/"}}, {"type": "node", "id": 10778118030, "lat": 53.5498299, "lon": 9.9591674, "tags": {"addr:housenumber": "140", "addr:street": "Reeperbahn", "amenity": "bar", "check_date:opening_hours": "2023-10-29", "level": "-1", "name": "Titty Twister", "opening_hours:signed": "no"}}, {"type": "node", "id": 10778118031, "lat": 53.5497127, "lon": 9.9590854, "tags": {"addr:housenumber": "142", "addr:street": "Reeperbahn", "amenity": "bar", "check_date:opening_hours": "2023-10-29", "name": "Grizzlys", "opening_hours:signed": "no"}}, {"type": "node", "id": 10995862312, "lat": 53.5491456, "lon": 9.9636085, "tags": {"addr:city": "Hamburg", "addr:country": "DE", "addr:housenumber": "26", "addr:postcode": "20359", "addr:street": "Spielbudenplatz", "amenity": "bar", "contact:instagram": "https://www.instagram.com/sechsundzwanzig_weingarten/", "contact:website": "https://weingarten26.de/", "drink:wine": "served", "facebook": "https://www.facebook.com/people/Sechsundzwanzig-Weingarten/100092638004461/", "name": "Sechsundzwanzig Weingarten", "opening_hours": "Tu-Fr 16:00-22:00; Sa,Su 13:00-22:00", "operator": "Schmidts Tivoli GmbH Kultur- und Gaststättenbetriebe", "website": "https://weingarten26.de/"}}, {"type": "node", "id": 11022830899, "lat": 53.5676754, "lon": 9.9593461, "tags": {"addr:housenumber": "37", "addr:street": "Lindenallee", "amenity": "bar", "check_date": "2024-05-26", "name": "ALL Bar", "payment:cards": "no", "payment:cash": "yes", "payment:credit_cards": "no", "payment:debit_cards": "no", "wheelchair": "no"}}, {"type": "node", "id": 11025602782, "lat": 53.5674151, "lon": 9.965004, "tags": {"addr:housenumber": "24", "addr:street": "Weidenallee", "amenity": "bar", "check_date": "2024-06-03", "indoor_seating": "yes", "name": "Sonnenseite", "opening_hours": "Mo off; Tu-Th,Su 18:00-24:00; Fr-Sa 18:00-01:00", "outdoor_seating": "yes", "payment:cards": "no", "payment:cash": "yes", "payment:credit_cards": "no", "payment:debit_cards": "no", "wheelchair": "no"}}, {"type": "node", "id": 11063581081, "lat": 53.568284, "lon": 10.0513881, "tags": {"amenity": "bar", "name": "Rendez-Vous", "opening_hours": "Su-Th 13:00-02:00, Fr,Sa 13:00+"}}, {"type": "node", "id": 11110442425, "lat": 53.4603018, "lon": 9.9803269, "tags": {"addr:city": "Hamburg", "addr:housenumber": "18", "addr:postcode": "21073", "addr:street": "Harburger Rathausstraße", "amenity": "bar", "check_date:opening_hours": "2024-01-02", "min_age": "18", "name": "Hugo", "opening_hours": "Su-Th 11:00-00:00; Fr,Sa 11:00-04:00", "opening_hours:signed": "no", "wheelchair": "yes"}}, {"type": "node", "id": 11151671850, "lat": 53.5585283, "lon": 10.0080313, "tags": {"addr:housenumber": "52", "addr:street": "An der Alster", "amenity": "bar", "contact:website": "https://productmate.de/concierge/heritage-bar/main", "level": "7", "name": "HERITAGE Bar", "opening_hours": "15:00-00:00", "outdoor_seating": "yes", "payment:cash": "no", "payment:coins": "no", "payment:credit_cards": "yes", "payment:debit_cards": "yes", "toilets:access": "customers"}}, {"type": "node", "id": 11197456590, "lat": 53.5497957, "lon": 9.9583412, "tags": {"addr:housenumber": "160", "addr:street": "Reeperbahn", "amenity": "bar", "check_date:opening_hours": "2023-10-29", "name": "A-Club", "opening_hours:signed": "no"}}, {"type": "node", "id": 11329738116, "lat": 53.4596753, "lon": 9.9831805, "tags": {"amenity": "bar", "check_date:opening_hours": "2023-11-06", "name": "Casanova Club", "opening_hours:signed": "no"}}, {"type": "node", "id": 11367144300, "lat": 53.5494265, "lon": 9.9580108, "tags": {"amenity": "bar", "check_date:opening_hours": "2023-12-30", "level": "1", "name": "Black Bar", "opening_hours:signed": "no"}}, {"type": "node", "id": 11367144306, "lat": 53.5494455, "lon": 9.957646, "tags": {"amenity": "bar", "check_date:opening_hours": "2024-03-31", "name": "INKA CLUB", "opening_hours:signed": "no"}}, {"type": "node", "id": 11390010349, "lat": 53.5166708, "lon": 9.9900032, "tags": {"amenity": "bar", "name": "Millenium Bar"}}, {"type": "node", "id": 11410788369, "lat": 53.5544866, "lon": 10.0129633, "tags": {"addr:street": "Stralsunder Straße", "amenity": "bar", "name": "Holgers Treff", "opening_hours": "24/7"}}, {"type": "node", "id": 11443688405, "lat": 53.4581191, "lon": 9.982305, "tags": {"addr:housenumber": "5", "addr:street": "Krummholzberg", "amenity": "bar", "name": "Harburger Lounge"}}, {"type": "node", "id": 11444848895, "lat": 53.5876846, "lon": 9.8771854, "tags": {"amenity": "bar", "check_date:opening_hours": "2024-01-02", "indoor_seating": "yes", "name": "Sebastian", "opening_hours:signed": "no", "outdoor_seating": "no"}}, {"type": "node", "id": 11467272831, "lat": 53.5622656, "lon": 9.9903571, "tags": {"addr:city": "Hamburg", "addr:housenumber": "2", "addr:postcode": "20148", "addr:street": "Rothenbaumchaussee", "amenity": "bar", "indoor_seating": "yes", "name": "Turmbar", "opening_hours": "Di-Do 18:00-00:00; Fr 18:00-02:00; Sa 18:30-02:00", "outdoor_seating": "yes", "phone": "+4940444567", "website": "https://turmbar.de"}}, {"type": "node", "id": 11470243332, "lat": 53.5483843, "lon": 10.009817, "tags": {"addr:city": "Hamburg", "addr:housenumber": "4", "addr:postcode": "20097", "addr:street": "Schultzweg", "amenity": "bar", "level": "12", "name": "RoofDrop Bar", "opening_hours": "Su-We 17:00-00:00; Th-Sa 17:00-01:00"}}, {"type": "node", "id": 11471107607, "lat": 53.5504462, "lon": 9.9543257, "tags": {"amenity": "bar", "check_date:opening_hours": "2023-12-30", "name": "FAME", "opening_hours:signed": "no"}}, {"type": "node", "id": 11534760477, "lat": 53.5523825, "lon": 9.9643404, "tags": {"addr:city": "Hamburg", "addr:country": "DE", "addr:housenumber": "93", "addr:postcode": "20359", "addr:street": "Clemens-Schulz-Straße", "amenity": "bar", "name": "Nachthafen", "smoking": "yes", "toilets": "yes", "toilets:access": "customers"}}, {"type": "node", "id": 11611402429, "lat": 53.5470117, "lon": 9.9616931, "tags": {"amenity": "bar", "name": "Washington-Bar", "website": "https://www.washingtonbar.de/"}}, {"type": "node", "id": 11727098928, "lat": 53.4539055, "lon": 9.9875593, "tags": {"amenity": "bar", "name": "Sportsbar"}}, {"type": "node", "id": 11786696175, "lat": 53.5483057, "lon": 9.961218, "tags": {"amenity": "bar", "check_date:opening_hours": "2024-05-10", "name": "Reitclub", "opening_hours:signed": "no"}}, {"type": "node", "id": 11786696176, "lat": 53.5482195, "lon": 9.9612328, "tags": {"amenity": "bar", "check_date:opening_hours": "2024-04-21", "name": "Peggy Sue", "opening_hours:signed": "no"}}, {"type": "node", "id": 11786696177, "lat": 53.548183, "lon": 9.9612388, "tags": {"amenity": "bar", "check_date:opening_hours": "2024-04-21", "name": "Inside 80s Club", "opening_hours:signed": "no"}}, {"type": "node", "id": 11799692369, "lat": 53.5492654, "lon": 9.9604151, "tags": {"amenity": "bar", "check_date:opening_hours": "2024-05-11", "name": "Vodka Boom", "opening_hours:signed": "no"}}, {"type": "node", "id": 11799692377, "lat": 53.5493216, "lon": 9.9594759, "tags": {"amenity": "bar", "check_date:opening_hours": "2024-04-26", "name": "24 Carat", "opening_hours:signed": "no"}}, {"type": "node", "id": 11809606509, "lat": 53.5362882, "lon": 10.0331756, "tags": {"amenity": "bar", "name": "Belle Vie"}}, {"type": "node", "id": 11816891025, "lat": 53.5528345, "lon": 9.9584091, "tags": {"addr:city": "Hamburg", "addr:country": "DE", "addr:housenumber": "90", "addr:postcode": "22767", "addr:street": "Große Freiheit", "amenity": "bar", "contact:website": "https://standard.hamburg/", "name": "Standard", "opening_hours": "Tu-Sa 17:00-22:00"}}, {"type": "node", "id": 11835678775, "lat": 53.5509731, "lon": 9.9600131, "tags": {"amenity": "bar", "name": "Große Liebe"}}, {"type": "node", "id": 11835678776, "lat": 53.5510232, "lon": 9.9599489, "tags": {"amenity": "bar", "name": "Moes Vodka Bombe to go", "takeaway": "only"}}, {"type": "node", "id": 11883865748, "lat": 53.5496904, "lon": 9.9589269, "tags": {"amenity": "bar", "check_date:opening_hours": "2024-05-08", "name": "NO.MA.", "opening_hours:signed": "no"}}, {"type": "node", "id": 11897591050, "lat": 53.5507161, "lon": 9.961118, "tags": {"amenity": "bar", "check_date:opening_hours": "2024-05-12", "name": "paaca", "opening_hours:signed": "no"}}, {"type": "node", "id": 11897598028, "lat": 53.5502333, "lon": 9.9614956, "tags": {"amenity": "bar", "check_date:opening_hours": "2024-05-12", "name": "Berg Store, Bar + Kiosk", "opening_hours:signed": "no"}}, {"type": "node", "id": 11897605574, "lat": 53.5500106, "lon": 9.961511, "tags": {"amenity": "bar", "check_date:opening_hours": "2024-05-12", "name": "Berg Dreamz", "opening_hours:signed": "no"}}, {"type": "node", "id": 11897622102, "lat": 53.5506226, "lon": 9.9611184, "tags": {"amenity": "bar", "name": "Bergsteiger Bar", "opening_hours": "closed \"geschlossen wegen Umbau\""}}, {"type": "node", "id": 11931454244, "lat": 53.7292905, "lon": 9.8977938, "tags": {"addr:city": "Quickborn", "addr:country": "DE", "addr:housenumber": "84", "addr:postcode": "25451", "addr:street": "Kieler Straße", "amenity": "bar", "contact:facebook": "https://www.facebook.com/joy.quickborn/", "name": "Joy"}}, {"type": "node", "id": 11932687172, "lat": 53.5588176, "lon": 9.9752002, "tags": {"addr:housenumber": "18", "addr:street": "Karolinenstraße", "amenity": "bar", "check_date": "2024-05-25", "contact:instagram": "https://www.instagram.com/a_wolf_will_never_be_a_pet", "name": "A WOLF WILL NEVER BE A PET", "opening_hours": "Mo,Su off; Tu-Th 18:00-23:00; Fr-Sa 18:00-01:00", "payment:cash": "no", "payment:visa": "yes", "website": "https://dokuwa-communications.com/content/wolf-menu/wolfmenu.pdf", "wheelchair": "no"}}, {"type": "node", "id": 11933326948, "lat": 53.5666127, "lon": 9.9641251, "tags": {"addr:housenumber": "41a", "addr:street": "Margaretenstraße", "amenity": "bar", "check_date": "2024-06-03", "name": "Elbwein", "payment:cash": "yes", "payment:mastercard": "yes", "payment:visa": "yes", "website": "http://elbwein.com", "wheelchair": "no"}}, {"type": "node", "id": 11934891668, "lat": 53.5666309, "lon": 9.9619724, "tags": {"addr:housenumber": "38", "addr:street": "Vereinsstraße", "amenity": "bar", "brewery": "various", "check_date": "2024-05-26", "name": "Vier Drei Neun", "website": "http://bar439.de", "wheelchair": "no"}}, {"type": "node", "id": 11951639335, "lat": 53.5484049, "lon": 9.9615242, "tags": {"amenity": "bar", "name": "frau holle"}}, {"type": "node", "id": 11967461770, "lat": 53.5683677, "lon": 9.9617392, "tags": {"addr:city": "Hamburg", "addr:housenumber": "52", "addr:postcode": "20259", "addr:street": "Bellealliancestraße", "amenity": "bar", "name": "Luna Limetta", "opening_hours": "Mo-Su 13:00-23:00+"}}]}