{"version": 0.6, "generator": "Overpass API 0.7.62.1 084b4234", "osm3s": {"timestamp_osm_base": "2024-06-14T12:07:11Z", "copyright": "The data included in this document is from www.openstreetmap.org. The data is made available under ODbL."}, "elements": [{"type": "node", "id": 266565824, "lat": 53.5716292, "lon": 9.8368332, "tags": {"amenity": "place_of_worship", "denomination": "protestant", "religion": "christian", "wheelchair": "yes"}}, {"type": "node", "id": 282958121, "lat": 53.6271812, "lon": 10.1695951, "tags": {"addr:city": "Hamburg", "addr:country": "DE", "addr:housenumber": "5", "addr:postcode": "22145", "addr:street": "Wildschwanbrook", "amenity": "place_of_worship", "denomination": "lutheran", "name": "Rogate-Kirche", "religion": "christian"}}, {"type": "node", "id": 289779687, "lat": 53.5414382, "lon": 10.040307, "tags": {"amenity": "place_of_worship", "denomination": "hindu", "description": "Hindu-Tempel", "religion": "hindu"}}, {"type": "node", "id": 297474316, "lat": 53.5834704, "lon": 10.1133523, "tags": {"amenity": "place_of_worship", "denomination": "lutheran", "name": "Friedhofskapelle Tonndorf", "religion": "christian", "wheelchair": "limited"}}, {"type": "node", "id": 361493592, "lat": 53.5147036, "lon": 10.2435615, "tags": {"amenity": "place_of_worship", "name": "Friedhofskapelle", "religion": "christian", "wikidata": "Q58404427"}}, {"type": "node", "id": 361655043, "lat": 53.5892759, "lon": 10.0449678, "tags": {"addr:city": "Hamburg", "addr:country": "DE", "addr:housenumber": "113", "addr:postcode": "22305", "addr:street": "Fuhlsbüttler Straße", "amenity": "place_of_worship", "denomination": "pentecostal", "name": "Christus Gemeinde Barmbek Nord", "religion": "christian", "service_times": "Su 11:00", "website": "https://www.cgbn.de/", "wheelchair": "yes"}}, {"type": "node", "id": 367051650, "lat": 53.5132714, "lon": 10.2467194, "tags": {"addr:city": "Reinbek", "addr:housenumber": "38", "addr:postcode": "21465", "addr:street": "Jahnstraße", "amenity": "place_of_worship", "denomination": "new_apostolic", "name": "Neuapostolische Kirche", "religion": "christian", "website": "https://reinbek.nak-nordost.de/"}}, {"type": "node", "id": 367051734, "lat": 53.5160274, "lon": 10.2500068, "tags": {"addr:city": "Reinbek", "addr:housenumber": "7", "addr:postcode": "21465", "addr:street": "Jahnckeweg", "amenity": "place_of_worship", "denomination": "baptist", "name": "Evangelisch-Freikirchliche Gemeinde", "phone": "+49 40 7223335", "religion": "christian", "website": "https://www.efg-reinbek.de/"}}, {"type": "node", "id": 384482272, "lat": 53.5922094, "lon": 9.8703268, "tags": {"addr:city": "Hamburg", "addr:country": "DE", "addr:housenumber": "1", "addr:postcode": "22549", "addr:street": "Flurstraße", "amenity": "place_of_worship", "denomination": "lutheran", "name": "Auferstehungskirche", "network": "Nordelbien", "phone": "+49 40 8314004", "religion": "christian", "website": "http://www.auferstehung-hh.de", "wheelchair": "yes"}}, {"type": "node", "id": 419847305, "lat": 53.6580297, "lon": 9.7885557, "tags": {"addr:city": "Pinneberg", "addr:country": "DE", "addr:housenumber": "11", "addr:postcode": "25421", "addr:street": "Saarlandstraße", "amenity": "place_of_worship", "denomination": "mormon", "name": "Kirche Jesu Christi der Heiligen der Letzten Tage", "religion": "christian"}}, {"type": "node", "id": 431933313, "lat": 53.4618213, "lon": 9.8000689, "tags": {"amenity": "place_of_worship", "name": "Kreuzkirche", "note": "freikirchlich?", "religion": "christian"}}, {"type": "node", "id": 633030561, "lat": 53.5791022, "lon": 10.0389512, "tags": {"addr:city": "Hamburg", "addr:country": "DE", "addr:housenumber": "199", "addr:postcode": "22083", "addr:street": "Hamburger Straße", "amenity": "place_of_worship", "check_date": "2024-02-11", "name": "Ali Paşa Camii", "religion": "muslim"}}, {"type": "node", "id": 698302433, "lat": 53.5555575, "lon": 10.0073715, "tags": {"amenity": "place_of_worship", "check_date": "2023-10-14", "name": "Muha Jirien Moschee", "religion": "muslim", "wheelchair": "no"}}, {"type": "node", "id": 747148853, "lat": 53.6423013, "lon": 9.9005902, "tags": {"amenity": "place_of_worship", "denomination": "methodist", "name": "Friedenskirche", "religion": "christian"}}, {"type": "node", "id": 747148862, "lat": 53.6425817, "lon": 9.8933978, "tags": {"addr:city": "Ellerbek", "addr:housenumber": "5", "addr:postcode": "25474", "addr:street": "Verbindungsweg", "amenity": "place_of_worship", "denomination": "lutheran", "name": "Gemeindehaus Dietrich-Bonhoeffer-Gemeinde", "religion": "christian"}}, {"type": "node", "id": 825108243, "lat": 53.5550328, "lon": 10.0141878, "tags": {"amenity": "place_of_worship", "name": "Pak-Alem Moschee", "religion": "muslim"}}, {"type": "node", "id": 825108270, "lat": 53.5550122, "lon": 10.014654, "tags": {"amenity": "place_of_worship", "check_date": "2024-03-30", "name": "Vahdet Moschee", "religion": "muslim"}}, {"type": "node", "id": 1075002548, "lat": 53.6057209, "lon": 9.8279441, "tags": {"addr:city": "Schenefeld", "addr:country": "DE", "addr:housenumber": "12", "addr:postcode": "22869", "addr:street": "Achter de Weiden", "amenity": "place_of_worship", "denomination": "evangelical", "name": "Anskar Kirche HH-West", "religion": "christian", "website": "https://anskar-west.de/", "wheelchair": "yes"}}, {"type": "node", "id": 1075002585, "lat": 53.6059442, "lon": 9.8275529, "tags": {"addr:city": "Schenefeld", "addr:country": "DE", "addr:housenumber": "10", "addr:postcode": "22869", "addr:street": "Achter de Weiden", "amenity": "place_of_worship", "denomination": "baptist", "name": "Josua Gemeinde Schenefeld", "religion": "christian", "wheelchair": "no"}}, {"type": "node", "id": 1151025615, "lat": 53.7267856, "lon": 9.9348596, "tags": {"amenity": "place_of_worship", "denomination": "evangelical", "name": "Kapelle", "religion": "christian", "survey:date": "2021-07-10"}}, {"type": "node", "id": 1170116494, "lat": 53.5694857, "lon": 10.0870729, "tags": {"amenity": "place_of_worship", "check_date": "2023-08-07", "name": "Raum der Stille", "opening_hours": "24/7", "place_of_worship:type": "chapel", "religion": "christian", "wheelchair": "yes"}}, {"type": "node", "id": 1241463270, "lat": 53.5429835, "lon": 10.2011072, "tags": {"amenity": "place_of_worship", "name": "Islamische Gemeinde Glinde", "religion": "muslim"}}, {"type": "node", "id": 1372980698, "lat": 53.5499323, "lon": 9.9475097, "tags": {"amenity": "place_of_worship", "denomination": "vineyard_charismatic", "name": "Vineyard Altona", "religion": "christian", "service_times": "Su 11:00", "website": "http://www.vineyard-altona.de", "wheelchair": "yes"}}, {"type": "node", "id": 1500273126, "lat": 53.5659651, "lon": 9.9810895, "tags": {"addr:city": "Hamburg", "addr:housenumber": "43", "addr:postcode": "20146", "addr:street": "Grindelallee", "amenity": "place_of_worship", "denomination": "protestant", "name": "Evangelische Studierendengemeinde Hamburg", "religion": "christian", "website": "https://www.esg-hamburg.de/"}}, {"type": "node", "id": 1504456936, "lat": 53.5736992, "lon": 9.9771187, "tags": {"addr:city": "Hamburg", "addr:housenumber": "17", "addr:postcode": "20144", "addr:street": "Grindelberg", "amenity": "place_of_worship", "check_date": "2024-03-24", "denomination": "adventist", "email": "hansa@adventisten.de", "name": "Adventhaus", "phone": "+49 40 414682-0", "religion": "christian", "toilets:wheelchair": "yes", "website": "https://www.adventgemeinde-grindelberg.de/", "wheelchair": "yes"}}, {"type": "node", "id": 1665807657, "lat": 53.5414999, "lon": 10.1711189, "tags": {"amenity": "place_of_worship", "denomination": "lutheran", "name": "Auferstehungskirche", "religion": "christian"}}, {"type": "node", "id": 1777498923, "lat": 53.5741678, "lon": 9.9769677, "tags": {"addr:housenumber": "1", "addr:street": "Helene-Lange-Straße", "amenity": "place_of_worship", "denomination": "adventist", "name": "Freikirche der Siebenten Tags Adventisten", "note": "Russian_speaking_SDA_Church", "phone": "+49 151 5822 9491", "religion": "christian", "website": "http://blagovestnik.de/"}}, {"type": "node", "id": 1777498927, "lat": 53.5742104, "lon": 9.9770972, "tags": {"addr:housenumber": "17a", "addr:street": "Grindelallee", "amenity": "place_of_worship", "denomination": "adventist", "name": "Freikirche der Siebenten Tags Adventisten", "note": "serbo_croatian_sda_church", "phone": "+49 151 5822 9491", "religion": "christian", "website": "http://hamburg-eimsbuettel.adventist.eu/"}}, {"type": "node", "id": 1879697992, "lat": 53.5453605, "lon": 9.9750895, "tags": {"addr:city": "Hamburg", "addr:country": "DE", "addr:housenumber": "12", "addr:postcode": "20459", "addr:street": "Reimarusstraße", "amenity": "place_of_worship", "denomination": "roman_catholic", "name": "Kapelle der Katholischen Seemannsmission", "name:hu": "Katolikus tengerészeti misszió kápolnája", "religion": "christian"}}, {"type": "node", "id": 1895336117, "lat": 53.6016368, "lon": 9.8904415, "tags": {"amenity": "place_of_worship", "denomination": "apostolic", "name": "Apostolische Gemeinde Hamburg", "religion": "christian", "wheelchair": "yes"}}, {"type": "node", "id": 1910749013, "lat": 53.5330806, "lon": 10.0387779, "tags": {"amenity": "place_of_worship", "denomination": "roman_catholic", "name": "Kapelle St. Hildegard", "religion": "christian", "wheelchair": "yes"}}, {"type": "node", "id": 1946264168, "lat": 53.5763835, "lon": 9.9370424, "tags": {"addr:city": "Hamburg", "addr:country": "DE", "addr:housenumber": "3", "addr:postcode": "22525", "addr:street": "Torstraße", "amenity": "place_of_worship", "check_date": "2023-07-26", "denomination": "church_of_god", "name": "Evangelische Freikirche Torstraße", "note": "http://www.torstr.de/uber-uns/unser-gemeindebund/ --> wikipedia", "religion": "christian", "website": "http://www.torstr.de/uber-uns/unser-gemeindebund/", "wikidata": "Q485823", "wikipedia": "de:Freikirchlicher Bund der Gemeinde Gottes"}}, {"type": "node", "id": 2019926785, "lat": 53.4723987, "lon": 9.8555093, "tags": {"amenity": "place_of_worship", "name": "Yildiz Camii", "operator": "Islamische Gemeinde Neugraben e.V.", "religion": "muslim"}}, {"type": "node", "id": 2298622766, "lat": 53.5408755, "lon": 10.2280047, "tags": {"amenity": "place_of_worship", "denomination": "new_apostolic", "name": "Neuapostolische Kirche", "religion": "christian"}}, {"type": "node", "id": 2628394778, "lat": 53.5010637, "lon": 10.2070501, "tags": {"amenity": "place_of_worship", "denomination": "new_apostolic", "name:signed": "no", "religion": "christian"}}, {"type": "node", "id": 2665020005, "lat": 53.5296683, "lon": 10.1127682, "tags": {"addr:city": "Hamburg", "addr:country": "DE", "addr:housenumber": "307", "addr:postcode": "22113", "addr:street": "Billbrookdeich", "amenity": "place_of_worship", "check_date": "2024-04-05", "name": "Pagode Bao Quang", "phone": "+49 40 32961520", "religion": "buddhist", "website": "http://www.baoquang.de"}}, {"type": "node", "id": 2798438745, "lat": 53.5395827, "lon": 10.1020613, "tags": {"addr:city": "Hamburg", "addr:country": "DE", "addr:housenumber": "50", "addr:postcode": "22111", "addr:street": "Billstedter Hauptstraße", "amenity": "place_of_worship", "name": "Ibrahim-Khalil-Moschee", "religion": "muslim"}}, {"type": "node", "id": 3059317450, "lat": 53.5559653, "lon": 9.9388141, "tags": {"amenity": "place_of_worship", "name": "Ev. Gemeinschaft", "religion": "christian"}}, {"type": "node", "id": 3067674402, "lat": 53.526109, "lon": 9.8004689, "tags": {"addr:city": "Hamburg", "addr:housenumber": "19", "addr:postcode": "21129", "addr:street": "Neuenfelder Fährdeich", "amenity": "place_of_worship", "description": "Islamische Gemeinde Neuenfelde e.V.", "name": "Küçük İstanbul Camii", "religion": "muslim"}}, {"type": "node", "id": 3118056287, "lat": 53.7065949, "lon": 10.0076096, "tags": {"addr:city": "Norderstedt", "addr:housenumber": "17-21", "addr:postcode": "22844", "addr:street": "Falkenbergstraße", "amenity": "place_of_worship", "check_date": "2024-05-18", "denomination": "pentecostal", "name": "Christliche Gemeinde Norderstedt", "religion": "christian", "toilets:wheelchair": "no", "website": "https://www.cg-n.de/", "wheelchair": "yes"}}, {"type": "node", "id": 3210272868, "lat": 53.4572258, "lon": 9.9819712, "tags": {"amenity": "place_of_worship", "name": "DITIB Türkisch Islamische Kultur Verein e.V.", "phone": "+49 40 7664795", "religion": "muslim"}}, {"type": "node", "id": 3211168006, "lat": 53.5041621, "lon": 10.0112077, "tags": {"addr:housenumber": "4", "addr:street": "Korallusstraße", "amenity": "place_of_worship", "name": "Yeni Camii", "religion": "muslim"}}, {"type": "node", "id": 3470507014, "lat": 53.7359579, "lon": 9.9782415, "tags": {"addr:housenumber": "126", "addr:street": "Quickborner Straße", "amenity": "place_of_worship", "name": "Darul-Erkam-Moschee", "operator": "Islamische Gemeinde Norderstedt Darul Erkam e. V.", "religion": "muslim"}}, {"type": "node", "id": 3506270637, "lat": 53.5911351, "lon": 9.9739979, "tags": {"amenity": "place_of_worship", "level": "2", "name": "Raum der Stille", "phone": "+49 40 7410 24100", "religion": "multifaith", "source": "survey", "website": "https://www.uke.de/", "wheelchair": "yes"}}, {"type": "node", "id": 3676395208, "lat": 53.572887, "lon": 9.9336732, "tags": {"addr:city": "Hamburg", "addr:country": "DE", "addr:housenumber": "10", "addr:postcode": "22525", "addr:street": "Kleine Bahnstraße", "amenity": "place_of_worship", "check_date": "2024-04-15", "name": "Bethel-Gemeinde Hamburg", "religion": "christian"}}, {"type": "node", "id": 3685121668, "lat": 53.5133535, "lon": 9.9889147, "tags": {"amenity": "place_of_worship", "name": "Muradiye Camii", "religion": "muslim"}}, {"type": "node", "id": 3729696457, "lat": 53.5487956, "lon": 10.0132829, "tags": {"amenity": "place_of_worship", "check_date": "2023-07-22", "name": "Islamischer Verein Tawba", "religion": "muslim", "wheelchair": "no"}}, {"type": "node", "id": 3733752504, "lat": 53.5255522, "lon": 9.9743169, "tags": {"amenity": "place_of_worship", "denomination": "roman_catholic", "name": "Kapelle Stella Maris", "religion": "christian"}}, {"type": "node", "id": 3764089709, "lat": 53.5568921, "lon": 9.9652614, "tags": {"amenity": "place_of_worship", "contact:email": "info@moschee-mevlana.de", "contact:fax": "+49 40 43182591", "contact:phone": "+49 40 23517911", "contact:website": "http://www.moschee-mevlana.de", "level": "2", "name": "Mevlana Moschee", "opening_hours": "Mo-Su 10:00-01:00", "opening_hours:note": "vor Ort erfasst", "religion": "muslim"}}, {"type": "node", "id": 3837117921, "lat": 53.5874885, "lon": 10.0639283, "tags": {"amenity": "place_of_worship", "check_date": "2024-04-22", "name": "Nasr-ul-Faida-Moschee", "religion": "muslim"}}, {"type": "node", "id": 3923262100, "lat": 53.5382874, "lon": 10.1228552, "tags": {"addr:city": "Hamburg", "addr:country": "DE", "addr:housenumber": "2a", "addr:postcode": "22117", "addr:street": "Setzergasse", "amenity": "place_of_worship", "check_date": "2024-05-15", "name": "Sultan Ahmed Moschee", "religion": "muslim"}}, {"type": "node", "id": 3958264566, "lat": 53.4575188, "lon": 9.7952226, "tags": {"amenity": "place_of_worship", "name": "Friedhofskapelle Neu Wulmstorf", "religion": "christian"}}, {"type": "node", "id": 4076589292, "lat": 53.5859834, "lon": 10.0508753, "tags": {"addr:housenumber": "62-64", "addr:street": "Bramfelder Straße", "amenity": "place_of_worship", "check_date": "2024-01-04", "name": "Selimiye Camii Moschee", "religion": "muslim", "website": "https://www.moscheesuche.de/moschee/Hamburg/Selimiye_Camii_Moschee/15709"}}, {"type": "node", "id": 4100040270, "lat": 53.5749833, "lon": 10.0837595, "tags": {"addr:city": "Hamburg", "addr:country": "DE", "addr:housenumber": "19", "addr:postcode": "22041", "addr:street": "Efftingestraße", "amenity": "place_of_worship", "denomination": "shia", "name": "Belal-Moschee", "name:fa": "مسجد بلال", "religion": "muslim", "subdenomination": "ithna_ashari", "website": "https://belal-moschee.de/"}}, {"type": "node", "id": 4155893105, "lat": 53.4560709, "lon": 9.9886015, "tags": {"addr:city": "Hamburg", "addr:country": "DE", "addr:housenumber": "86", "addr:postcode": "21079", "addr:street": "Hannoversche Straße", "amenity": "place_of_worship", "level": "0", "name": "Raum der Stille", "opening_hours": "Mo-Sa 09:30-20:00", "religion": "all", "source": "survey", "wheelchair": "yes"}}, {"type": "node", "id": 4234169989, "lat": 53.6560474, "lon": 9.8110926, "tags": {"amenity": "place_of_worship", "denomination": "baptist", "name": "Kirche am Fahlt", "name:ru": "Баптистская церковь", "religion": "christian", "website": "https://kirche-am-fahlt.de/"}}, {"type": "node", "id": 4253353895, "lat": 53.4602286, "lon": 9.7923098, "tags": {"addr:city": "Neu Wulmstorf", "addr:housenumber": "32", "addr:postcode": "21629", "addr:street": "Immenweg", "amenity": "place_of_worship", "denomination": "protestant", "description": "Wir sind eine Gemeinschaft von Menschen, die persönlich erfahren haben, dass Gott uns durch Jesus Christus Orientierung, Hilfe und Perspektiven für unser Leben schenkt, und das möchten wir weitergeben.", "name": "Evangelische Gemeinschaft Neu Wulmstorf", "phone": "+49 40 22869136", "religion": "christian", "website": "https://www.lkg-nw.de/"}}, {"type": "node", "id": 4283654453, "lat": 53.4513908, "lon": 9.9857299, "tags": {"addr:city": "Hamburg", "addr:housenumber": "10", "addr:postcode": "21073", "addr:street": "Außenmühlenweg", "amenity": "place_of_worship", "name": "Vineyard Hamburg - Harburg", "religion": "christian"}}, {"type": "node", "id": 4324090066, "lat": 53.5962669, "lon": 10.0436849, "tags": {"addr:city": "Hamburg", "addr:country": "DE", "addr:housenumber": "230", "addr:postcode": "22307", "addr:street": "Fuhlsbüttler Straße", "amenity": "place_of_worship", "denomination": "sunni", "name": "Assahaba Moschee", "name:ar": "مسجد الصحابة", "religion": "muslim", "website": "https://assahaba.de/", "wheelchair": "yes"}}, {"type": "node", "id": 4525371829, "lat": 53.6333623, "lon": 10.0048405, "tags": {"amenity": "place_of_worship", "level": "1", "name": "Flughafen-Kapelle", "religion": "christian", "wheelchair": "yes"}}, {"type": "node", "id": 4835245718, "lat": 53.5560403, "lon": 10.0153698, "tags": {"amenity": "place_of_worship", "name": "Gurdwara Sri Guru Nanak Darbar", "phone": "+49 40 29892045", "religion": "sikh"}}, {"type": "node", "id": 4947327809, "lat": 53.6057395, "lon": 10.0018571, "tags": {"addr:city": "Hamburg", "addr:housenumber": "210", "addr:postcode": "22297", "addr:street": "Alsterdorfer Straße", "amenity": "place_of_worship", "denomination": "catholic", "name": "St. Theresia v. Avila", "operator": "Priesterbruderschaft St. Pius X", "religion": "christian", "service_times": "Su 08:45, 10:30", "website": "https://fsspx.de/de/hamburg-%E2%80%93-kapelle-st-theresia-von-avila"}}, {"type": "node", "id": 4959734935, "lat": 53.5545722, "lon": 10.0695625, "tags": {"amenity": "place_of_worship", "denomination": "protestant", "name": "Kapelle der Wichernschule", "religion": "christian"}}, {"type": "node", "id": 5124211073, "lat": 53.6790516, "lon": 9.8508022, "tags": {"addr:city": "Tangstedt", "addr:housenumber": "110a", "addr:postcode": "25499", "addr:street": "Dorfstraße", "amenity": "place_of_worship", "denomination": "shia", "email": "wissam66@hotmail.com", "name": "Kham-i-Sadat e.V.", "name:ar": "مسجد سادات علي خان ١", "operator": "Islamische Gemeinschaft der schiitischen Gemeinden Deutschlands e.V. (IGS)", "religion": "muslim", "source": "http://www.igs-deutschland.org/die-igs/moscheekarte"}}, {"type": "node", "id": 5971848592, "lat": 53.4577419, "lon": 9.9827966, "tags": {"amenity": "place_of_worship", "check_date": "2023-12-11", "name": "El-Iman Moschee e.V.", "religion": "muslim", "service_times": "Fr 13:30, 14:30"}}, {"type": "node", "id": 5981574216, "lat": 53.5244581, "lon": 10.0188641, "tags": {"amenity": "place_of_worship", "name": "islamische Gemeinde - Vatan Camii e.v.", "religion": "muslim"}}, {"type": "node", "id": 7082466571, "lat": 53.6411023, "lon": 10.1510275, "tags": {"amenity": "place_of_worship", "indoor": "yes", "name": "Raum der Stille"}}, {"type": "node", "id": 7635812720, "lat": 53.5778075, "lon": 9.7321032, "tags": {"amenity": "place_of_worship", "name": "Al-Iman Moschee Wedel", "religion": "muslim"}}, {"type": "node", "id": 7709591335, "lat": 53.5427012, "lon": 10.0022808, "tags": {"amenity": "place_of_worship", "check_date": "2023-07-26", "name": "Ökumenisches Forum Hafencity", "religion": "christian"}}, {"type": "node", "id": 7733487350, "lat": 53.5911956, "lon": 9.9818356, "tags": {"amenity": "place_of_worship", "check_date": "2023-07-30", "denomination": "methodist", "name": "Evangelisch-methodistische Kirche Bethanien", "religion": "christian"}}, {"type": "node", "id": 8781416629, "lat": 53.5475028, "lon": 9.9282084, "tags": {"addr:city": "Hamburg", "addr:country": "DE", "addr:housenumber": "31a", "addr:postcode": "22765", "addr:street": "Holländische Reihe", "amenity": "place_of_worship", "denomination": "zen", "email": "info@zendojohamburg.de", "name": "Zen-Dojo Hamburg", "religion": "buddhist", "website": "https://www.zendojohamburg.de/", "wheelchair": "no"}}, {"type": "node", "id": 8781427639, "lat": 53.5520679, "lon": 10.0448299, "tags": {"addr:city": "Hamburg", "addr:country": "DE", "addr:housenumber": "422", "addr:postcode": "20537", "addr:street": "Eiffestraße", "amenity": "place_of_worship", "denomination": "zen", "email": "information@ryumon.de", "name": "Zen-Dōjō Ryū-Mon Hamburg", "phone": "+49 40 250 51 61", "religion": "buddhist", "website": "http://www.zendojo-hamburg.de/"}}, {"type": "node", "id": 8891186459, "lat": 53.719011, "lon": 9.7982313, "tags": {"amenity": "place_of_worship", "name": "Ruheforst", "religion": "christian"}}, {"type": "node", "id": 9048061392, "lat": 53.6903459, "lon": 9.9810094, "tags": {"amenity": "place_of_worship", "denomination": "sunni", "name": "Norderstedt Camii", "operator": "BIN e. V.", "religion": "muslim"}}, {"type": "node", "id": 9221973726, "lat": 53.6051227, "lon": 10.0244618, "tags": {"amenity": "place_of_worship", "name": "Internat. Christengemeinde Fountain Gate Chapel", "religion": "christian", "wheelchair": "yes"}}, {"type": "node", "id": 9632873276, "lat": 53.5585303, "lon": 9.9395697, "tags": {"addr:country": "DE", "addr:housenumber": "4", "addr:postcode": "22765", "addr:street": "Harkortstieg", "amenity": "place_of_worship", "contact:website": "https://meditationszentrum-ttc.de", "denomination": "tibetan", "name": "Theksum Tashi Chöling", "religion": "buddhist"}}, {"type": "node", "id": 10725331262, "lat": 53.6022602, "lon": 9.9909567, "tags": {"addr:housenumber": "11", "addr:street": "Deelböge", "amenity": "place_of_worship", "name": "Wort+Geist Zentrum", "phone": "+49 40 52980322", "religion": "christian", "website": "https://hamburg.wortundgeist.de/"}}, {"type": "node", "id": 10766402716, "lat": 53.6238557, "lon": 10.1408388, "tags": {"addr:city": "Hamburg", "addr:housenumber": "106", "addr:postcode": "22147", "addr:street": "Hermann-Balk-Straße", "amenity": "place_of_worship", "denomination": "tibetan", "name": "Tibetisches Zentrum", "religion": "buddhist", "website": "https://www.tibet.de/"}}, {"type": "node", "id": 11165297493, "lat": 53.5544969, "lon": 10.0179218, "tags": {"addr:city": "Hamburg", "addr:housenumber": "2", "addr:postcode": "20099", "addr:street": "Alexanderstraße", "amenity": "place_of_worship", "name": "Christliche Wissenschaft K.d.ö.R. Erste Kirche Christi", "religion": "christian", "service_times": "Su 10:00; We 19:00", "website": "http://www.christian-science-deutschland.de/"}}, {"type": "node", "id": 11443818055, "lat": 53.5055659, "lon": 9.9851117, "tags": {"amenity": "place_of_worship", "name": "Ayasofya Moschee", "religion": "muslim", "website": "https://www.igw-ayasofya.de/"}}, {"type": "node", "id": 11737268253, "lat": 53.5163956, "lon": 9.9894948, "tags": {"amenity": "place_of_worship", "religion": "muslim"}}]}