{"version": 0.6, "generator": "Overpass API 0.7.62.1 084b4234", "osm3s": {"timestamp_osm_base": "2024-06-14T12:07:11Z", "copyright": "The data included in this document is from www.openstreetmap.org. The data is made available under ODbL."}, "elements": [{"type": "node", "id": 25903669, "lat": 53.5338482, "lon": 9.8660342, "tags": {"addr:city": "Hamburg", "addr:housenumber": "18a", "addr:postcode": "21129", "addr:street": "Finkenwerder Norderdeich", "amenity": "pub", "name": "Bar 380", "opening_hours": "Mo-Su 12:00-03:00", "smoking": "yes"}}, {"type": "node", "id": 26113229, "lat": 53.5371443, "lon": 9.7805476, "tags": {"amenity": "pub", "bar": "yes", "name": "Bei Chico"}}, {"type": "node", "id": 88875206, "lat": 53.5468423, "lon": 9.9694831, "tags": {"amenity": "pub", "capacity": "80", "email": "towerbar@hotel-hamburg.de", "name": "Tower Bar", "opening_hours": "Su-Th 18:00-01:00, Fr,Sa 18:00-02:00", "phone": "+49 40 31113 70450", "smoking": "no"}}, {"type": "node", "id": 267624123, "lat": 53.5521434, "lon": 9.9294904, "tags": {"addr:city": "Hamburg", "addr:country": "DE", "addr:housenumber": "30", "addr:postcode": "22765", "addr:street": "Ottenser Hauptstraße", "alt_name": "Cafereisebar", "amenity": "pub", "brewery": "yes", "check_date": "2024-02-04", "indoor_seating": "yes", "name": "Reisebar", "opening_hours": "Mo-Su 10:00+", "outdoor_seating": "sidewalk", "payment:credit_cards": "yes", "payment:debit_cards": "yes", "toilets:wheelchair": "no", "website": "http://www.cafereisebar.de/", "wheelchair": "limited"}}, {"type": "node", "id": 267624293, "lat": 53.5538147, "lon": 9.9284008, "tags": {"addr:city": "Hamburg", "addr:country": "DE", "addr:housenumber": "157", "addr:postcode": "22765", "addr:street": "Bahrenfelder Straße", "amenity": "pub", "indoor_seating": "yes", "name": "Aurel", "opening_hours": "Mo-Su 12:00-24:00+", "outdoor_seating": "yes", "smoking": "yes", "toilets:wheelchair": "no", "wheelchair": "limited"}}, {"type": "node", "id": 267625943, "lat": 53.561234, "lon": 9.9602864, "tags": {"addr:city": "Hamburg", "addr:country": "DE", "addr:housenumber": "16", "addr:postcode": "22769", "addr:street": "Juliusstraße", "amenity": "pub", "indoor_seating": "yes", "name": "Cafe Unter den Linden", "opening_hours": "Mo-Su,PH 09:30-01:00", "outdoor_seating": "yes", "wheelchair": "no"}}, {"type": "node", "id": 267626214, "lat": 53.5610295, "lon": 9.9606179, "tags": {"addr:city": "Hamburg", "addr:country": "DE", "addr:housenumber": "15", "addr:postcode": "22769", "addr:street": "Juliusstraße", "amenity": "pub", "name": "Berliner Betrüger", "opening_hours:signed": "no", "phone": "+49 40 40135735", "website": "https://berlinerbetrueger.de/", "wheelchair": "limited"}}, {"type": "node", "id": 267626220, "lat": 53.5623128, "lon": 9.9630847, "tags": {"addr:city": "Hamburg", "addr:country": "DE", "addr:housenumber": "36", "addr:postcode": "20357", "addr:street": "Susannenstraße", "amenity": "pub", "check_date": "2023-10-24", "indoor_seating": "yes", "name": "Kostbar", "opening_hours": "08:30-22:00", "opening_hours:signed": "no", "operator": "Abbas Teherani, Armin Behpour", "outdoor_seating": "yes", "payment:cash": "yes", "payment:mastercard": "yes", "payment:visa": "yes", "phone": "+49 176 631 558 51", "smoking": "no", "toilets:wheelchair": "no", "website": "http://kostbar-schanze.de", "wheelchair": "no"}}, {"type": "node", "id": 270727947, "lat": 53.5545699, "lon": 9.9287796, "tags": {"addr:city": "Hamburg", "addr:country": "DE", "addr:housenumber": "180", "addr:postcode": "22765", "addr:street": "Bahrenfelder Straße", "amenity": "pub", "check_date:opening_hours": "2023-06-12", "indoor_seating": "yes", "name": "Quer", "opening_hours": "Mo-Su 14:00+", "outdoor_seating": "sidewalk", "smoking": "yes", "toilets:wheelchair": "no", "wheelchair": "yes"}}, {"type": "node", "id": 271363141, "lat": 53.551803, "lon": 9.927173, "tags": {"addr:city": "Hamburg", "addr:country": "DE", "addr:housenumber": "52", "addr:postcode": "22765", "addr:street": "Ottenser Hauptstraße", "amenity": "pub", "indoor_seating": "yes", "internet_access": "wlan", "name": "Reh-Bar", "name:de": "Reh-Bar AUTO SMO OSTAVILI", "opening_hours": "Mo-Su 10:00-18:00+", "outdoor_seating": "street", "payment:credit_cards": "no", "payment:debit_cards": "yes", "smoking": "outside", "wheelchair": "no"}}, {"type": "node", "id": 272653877, "lat": 53.5542278, "lon": 9.928227, "tags": {"addr:city": "Hamburg", "addr:country": "DE", "addr:housenumber": "2 - 4", "addr:postcode": "22765", "addr:street": "Friedensallee", "amenity": "pub", "email": "xavalopez@hotmail.com", "indoor_seating": "yes", "name": "Familien-Eck", "opening_hours": "Mo-Su 16:00-06:00", "outdoor_seating": "sidewalk", "phone": "+49 40 98237896", "smoking": "yes", "website": "https://www.familieneck.de/", "wheelchair": "no"}}, {"type": "node", "id": 272654230, "lat": 53.5543814, "lon": 9.9274966, "tags": {"addr:city": "Hamburg", "addr:country": "DE", "addr:housenumber": "7", "addr:postcode": "22765", "addr:street": "Friedensallee", "amenity": "pub", "check_date": "2024-02-04", "check_date:opening_hours": "2024-02-22", "cuisine": "german;pasta", "indoor_seating": "yes", "name": "Filmhaus-Kneipe", "opening_hours": "Mo-Su 12:00-01:00", "opening_hours:signed": "no", "outdoor_seating": "yes", "phone": "+49 40 39908025", "website": "http://www.filmhauskneipe.de/", "wheelchair": "limited"}}, {"type": "node", "id": 272654331, "lat": 53.5546275, "lon": 9.9276234, "tags": {"addr:city": "Hamburg", "addr:country": "DE", "addr:housenumber": "14 - 16", "addr:postcode": "22765", "addr:street": "Friedensallee", "amenity": "pub", "indoor_seating": "yes", "name": "Scottys", "opening_hours": "Mo-Fr 11:00-24:00, Sa 12:00-01:00, Su 10:00-23:00", "outdoor_seating": "sidewalk", "wheelchair": "no"}}, {"type": "node", "id": 278487896, "lat": 53.5952145, "lon": 10.0440803, "tags": {"addr:city": "Hamburg", "addr:country": "DE", "addr:housenumber": "220", "addr:postcode": "22307", "addr:street": "Fuhlsbüttler Straße", "amenity": "pub", "check_date:opening_hours": "2022-12-06", "contact:phone": "+49 40 27965659", "indoor_seating": "yes", "min_age": "18", "name": "La Belle 2", "opening_hours": "Mo-Sa 17:00+", "outdoor_seating": "yes", "real_fire": "no", "smoking": "yes", "wheelchair": "yes"}}, {"type": "node", "id": 278943489, "lat": 53.5623976, "lon": 9.9612198, "tags": {"addr:city": "Hamburg", "addr:country": "DE", "addr:housenumber": "73", "addr:postcode": "20357", "addr:street": "Schulterblatt", "amenity": "pub", "name": "Haus 73", "opening_hours": "Su-Th 09:00-18:00; Fr,Sa 09:00-19:00+", "toilets:wheelchair": "no", "wheelchair": "no"}}, {"type": "node", "id": 281352996, "lat": 53.6496537, "lon": 10.0268699, "tags": {"amenity": "pub", "name": "Vereinsheim", "opening_hours": "Th,Su 10:00-13:00", "smoking": "yes"}}, {"type": "node", "id": 287860170, "lat": 53.5459439, "lon": 9.9621444, "tags": {"addr:housenumber": "89", "addr:postcode": "20359", "addr:street": "St. Pauli Hafenstraße", "amenity": "pub", "email": "info@strandpauli.de", "name": "StrandPauli", "note": "Beachclub", "opening_hours": "Mo-Th 12:00-23:00; PH,Fr,Sa 12:00-24:00; Su 10:00-23:00", "toilets:wheelchair": "no", "website": "https://www.strandpauli.de/", "wheelchair": "limited"}}, {"type": "node", "id": 288785843, "lat": 53.4468948, "lon": 9.9915991, "tags": {"amenity": "pub", "name": "Im Tivoli", "opening_hours": "Tu,Th,Fr 17:00-23:00"}}, {"type": "node", "id": 288785844, "lat": 53.4455155, "lon": 9.9906998, "tags": {"amenity": "pub", "name": "Wilstorfer Hof", "source": "knowledge", "wheelchair": "no"}}, {"type": "node", "id": 289155989, "lat": 53.4476234, "lon": 9.9896717, "tags": {"amenity": "pub", "name": "Schnulze", "smoking": "yes", "wheelchair": "no"}}, {"type": "node", "id": 290635282, "lat": 53.5614162, "lon": 9.9615311, "tags": {"addr:city": "Hamburg", "addr:country": "DE", "addr:housenumber": "33", "addr:postcode": "22769", "addr:street": "Juliusstraße", "amenity": "pub", "indoor_seating": "yes", "name": "Le Fonque", "opening_hours": "21:00+", "outdoor_seating": "yes", "phone": "+49 40 4307515", "smoking": "yes", "toilets:wheelchair": "no", "website": "http://fonque.de/", "wheelchair": "limited"}}, {"type": "node", "id": 292133429, "lat": 53.5674743, "lon": 9.982269, "tags": {"addr:city": "Hamburg", "addr:postcode": "20146", "addr:street": "Allende-Platz", "amenity": "pub", "indoor_seating": "yes", "name": "Pony Bar", "opening_hours": "Mo-Fr 12:00-23:00+; Sa 14:00-23:00+; PH,Su off", "outdoor_seating": "yes", "website": "http://www.ponybar.com/", "wheelchair": "no"}}, {"type": "node", "id": 293068601, "lat": 53.5620242, "lon": 9.962467, "tags": {"addr:city": "Hamburg", "addr:country": "DE", "addr:housenumber": "42", "addr:postcode": "20357", "addr:street": "Susannenstraße", "amenity": "pub", "check_date": "2023-12-25", "check_date:opening_hours": "2024-02-05", "name": "Susanne 42", "old_name": "Presse", "opening_hours:signed": "no", "wheelchair": "no"}}, {"type": "node", "id": 293131916, "lat": 53.6718846, "lon": 9.9996429, "tags": {"addr:city": "Hamburg", "addr:housenumber": "14 a", "addr:postcode": "22419", "addr:street": "Käkenflur", "amenity": "pub", "min_age": "18", "name": "Bistro Europa", "smoking": "dedicated", "wheelchair": "yes"}}, {"type": "node", "id": 295259712, "lat": 53.5453223, "lon": 9.952241, "tags": {"addr:city": "Hamburg", "addr:country": "DE", "addr:housenumber": "3", "addr:postcode": "22767", "addr:street": "Fischmarkt", "amenity": "pub", "brewery": "Ratsherrn", "cuisine": "regional;fish", "name": "Eier Carl", "outdoor_seating": "yes", "toilets:wheelchair": "no", "wheelchair": "no"}}, {"type": "node", "id": 298579406, "lat": 53.6413282, "lon": 10.0371978, "tags": {"addr:city": "Hamburg", "addr:country": "DE", "addr:housenumber": "55 e", "addr:postcode": "22339", "addr:street": "Hummelsbüttler Hauptstraße", "amenity": "pub", "name": "Come In", "wheelchair": "no"}}, {"type": "node", "id": 301997305, "lat": 53.5577591, "lon": 9.990525, "tags": {"amenity": "pub", "name": "Klimperkiste", "opening_hours": "We-Fr 16:00-04:00, Sa 18:00-04:00; Su-Tu off", "website": "http://www.die-klimperkiste.de", "wheelchair": "no"}}, {"type": "node", "id": 306526219, "lat": 53.4634855, "lon": 9.9813117, "tags": {"amenity": "pub", "indoor_seating": "yes", "level": "0", "min_age": "18", "name": "Antik", "old_name": "Harburger Schmiede", "outdoor_seating": "yes", "smoking": "yes", "toilets:wheelchair": "no", "wheelchair": "no"}}, {"type": "node", "id": 306526225, "lat": 53.4635704, "lon": 9.9805502, "tags": {"amenity": "pub", "check_date:opening_hours": "2024-03-20", "contact:facebook": "https://www.facebook.com/OldDubliner/", "contact:twitter": "https://twitter.com/Old_DublinerHH/", "delivery": "no", "email": "info@olddubliner.de", "indoor_seating": "yes", "internet_access": "no", "name": "The Old Dubliner - Irish Pub", "opening_hours": "Mo-Th 18:00-24:00; Fr,Sa 18:00-02:00; Su off", "operator": "Kirsten Czeskleba-Huuck & Christina Lürken GbR", "outdoor_seating": "yes", "payment:cash": "yes", "payment:credit_cards": "no", "payment:debit_cards": "no", "phone": "+49 40 77110445", "smoking": "outside", "takeaway": "no", "website": "https://www.olddubliner.de/", "wheelchair": "no"}}, {"type": "node", "id": 309819839, "lat": 53.5926147, "lon": 9.9297722, "tags": {"addr:city": "Hamburg", "addr:housenumber": "47", "addr:street": "Sportplatzring", "amenity": "pub", "name": "TSV Vereinsheim", "opening_hours": "Tu-Fr 15:00-22:00; Sa,Su 12:00-15:00; Mo off"}}, {"type": "node", "id": 315107813, "lat": 53.5509136, "lon": 9.9794813, "tags": {"addr:housenumber": "17", "addr:postcode": "20355", "addr:street": "Markusstraße", "amenity": "pub", "check_date": "2023-12-10", "name": "VielHarmonie", "note": "ex Markus Eck", "opening_hours": "Mo 12:00-20:00; Tu-Sa 12:00+; Su 12:00-22:00"}}, {"type": "node", "id": 315346664, "lat": 53.5463202, "lon": 9.9733162, "tags": {"amenity": "pub", "check_date": "2023-09-16", "name": "Zur gemütlichen Ecke", "smoking": "yes", "wheelchair": "no"}}, {"type": "node", "id": 330506887, "lat": 53.5716355, "lon": 9.9767388, "tags": {"addr:city": "Hamburg", "addr:country": "DE", "addr:housenumber": "5", "addr:postcode": "20144", "addr:street": "Bogenstraße", "amenity": "pub", "brewery": "Guinness;jever;weizen", "cuisine": "coffee_shop", "email": "mail@mathilde-hh.de", "indoor_seating": "yes", "name": "Mathilde Literatur & Café", "opening_hours": "Mo-Sa 17:00+", "outdoor_seating": "yes", "phone": "+49 40 41495384", "smoking": "outside", "website": "https://www.mathilde-hh.de/mathilde-bar-eimsb%C3%BCttel/", "wheelchair": "no"}}, {"type": "node", "id": 342038087, "lat": 53.5463649, "lon": 9.9541482, "tags": {"amenity": "pub", "check_date": "2024-04-30", "cocktails": "yes", "name": "Christiansens", "opening_hours": "Tu-Th 20:00-01:00, Fr 20:00-02:00, Sa 20:00-03:00", "wheelchair": "no"}}, {"type": "node", "id": 360689907, "lat": 53.5632752, "lon": 9.9289595, "tags": {"amenity": "pub", "indoor_seating": "yes", "name": "Titanic Irish Pub", "opening_hours": "Mo-Fr 17:00-24:00, Sa,Su 15:00-01:00", "outdoor_seating": "yes", "theme": "irish", "toilets:wheelchair": "no", "wheelchair": "limited"}}, {"type": "node", "id": 360732713, "lat": 53.4579072, "lon": 9.9738814, "tags": {"addr:city": "Hamburg", "addr:housenumber": "37", "addr:postcode": "21073", "addr:street": "Marienstraße", "amenity": "pub", "name": "Goescheneck", "opening_hours": "Mo-Su 16:00-18:00+", "phone": "+4917610335265", "smoking": "yes", "source": "Website", "website": "http://www.goescheneck-harburg.de/"}}, {"type": "node", "id": 360732715, "lat": 53.4585705, "lon": 9.9762264, "tags": {"amenity": "pub", "check_date:opening_hours": "2022-03-22", "name": "Marien Eck", "opening_hours": "Mo-Su 09:00-18:00+", "wheelchair": "no"}}, {"type": "node", "id": 365997933, "lat": 53.5689739, "lon": 10.1735936, "tags": {"addr:city": "Barsbüttel", "addr:country": "DE", "addr:housenumber": "11a", "addr:postcode": "22885", "addr:street": "Willinghusener Landstraße", "amenity": "pub", "name": "Barsbütteler Bierstübchen", "phone": "+49-40-6702690", "wheelchair": "yes"}}, {"type": "node", "id": 370257374, "lat": 53.6054827, "lon": 9.8431478, "tags": {"addr:city": "Schenefeld", "addr:country": "DE", "addr:housenumber": "88", "addr:postcode": "22869", "addr:street": "Lornsenstraße", "amenity": "pub", "name": "scheene Perle", "opening_hours": "Tu-Fr 17:00+; Sa 18:00+", "smoking": "yes"}}, {"type": "node", "id": 373451004, "lat": 53.575941, "lon": 9.8471715, "tags": {"amenity": "pub", "check_date:opening_hours": "2023-05-21", "name": "Rugen-Eck", "opening_hours": "Mo-Su 11:00-24:00"}}, {"type": "node", "id": 384426307, "lat": 53.5880814, "lon": 9.8749084, "tags": {"addr:city": "Hamburg", "addr:country": "DE", "addr:postcode": "22549", "addr:street": "Rugenbarg", "amenity": "pub", "indoor_seating": "yes", "name": "Janssens", "opening_hours": "Mo-Su 16:00-20:00", "outdoor_seating": "no", "wheelchair": "no"}}, {"type": "node", "id": 386901985, "lat": 53.5563329, "lon": 9.9680793, "tags": {"addr:housenumber": "73", "addr:postcode": "20359", "addr:street": "Feldstraße", "amenity": "pub", "name": "Bertels"}}, {"type": "node", "id": 388849682, "lat": 53.5362372, "lon": 10.0330654, "tags": {"amenity": "pub", "cuisine": "regional", "name": "Zur Mühlenklause", "smoking": "yes"}}, {"type": "node", "id": 388849693, "lat": 53.5340089, "lon": 10.043123, "tags": {"amenity": "pub", "name": "Robis Island", "opening_hours": "Mo-Fr 16:00+; Sa 20:00+", "wheelchair": "limited"}}, {"type": "node", "id": 391784966, "lat": 53.5512758, "lon": 9.9822892, "tags": {"amenity": "pub", "check_date": "2024-03-17", "name": "Kamm In", "opening_hours": "Tu-Fr 09:00-18:00;Sa 09:00-13:00", "operator": "Knut Harms", "shop": "hairdresser", "wheelchair": "no"}}, {"type": "node", "id": 392108537, "lat": 53.4707001, "lon": 9.8534071, "tags": {"amenity": "pub", "name": "Marktschänke"}}, {"type": "node", "id": 403775087, "lat": 53.5978676, "lon": 9.8625322, "tags": {"addr:city": "Hamburg", "addr:country": "DE", "addr:housenumber": "250a", "addr:postcode": "22547", "addr:street": "Luruper Hauptstraße", "amenity": "pub", "name": "Holsten-Eck"}}, {"type": "node", "id": 404819725, "lat": 53.6017946, "lon": 9.8430047, "tags": {"addr:city": "Schenefeld", "addr:country": "DE", "addr:housenumber": "19", "addr:postcode": "22869", "addr:street": "Parkgrund", "amenity": "pub", "name": "Bei Mike"}}, {"type": "node", "id": 410438495, "lat": 53.5726134, "lon": 9.9510086, "tags": {"amenity": "pub", "darts": "yes", "indoor_seating": "yes", "name": "Dreißig", "note": "Raucherkneipe ab 18 Jahren, So,Mo nur bei BVB Dortmund-Spielen", "opening_hours": "Tu-Fr 18:00+; Sa 14:00+", "opening_hours:signed": "no", "outdoor_seating": "yes", "smoking": "yes", "wheelchair": "yes"}}, {"type": "node", "id": 411016989, "lat": 53.5794042, "lon": 10.0412816, "tags": {"addr:city": "Hamburg", "addr:country": "DE", "addr:housenumber": "2", "addr:postcode": "22081", "addr:street": "Dehnhaide", "amenity": "pub", "name": "Metro Bar"}}, {"type": "node", "id": 412469674, "lat": 53.5337414, "lon": 10.0451387, "tags": {"amenity": "pub", "name": "Cheers & Sasa"}}, {"type": "node", "id": 438032644, "lat": 53.5488785, "lon": 9.9599637, "tags": {"addr:city": "Hamburg", "addr:country": "DE", "addr:housenumber": "9", "addr:postcode": "20359", "addr:street": "Silbersackstraße", "amenity": "pub", "check_date": "2023-09-16", "name": "Zum Silbersack", "opening_hours": "Su-We 18:00-01:00; Th 18:00-02:00; Fr-Sa 18:00-03:00", "website": "https://zumsilbersack.de/", "wheelchair": "no", "wikidata": "Q2604966"}}, {"type": "node", "id": 439294580, "lat": 53.5906869, "lon": 9.9888758, "tags": {"addr:postcode": "20249", "amenity": "pub", "indoor_seating": "yes", "name": "Schramme 10", "opening_hours": "Mo-Th 16:00-02:00, Fr 16:00-04:00, Sa 12:00-04:00, PH,Su 12:00-02:00", "outdoor_seating": "yes", "toilets:wheelchair": "no", "website": "https://schramme10.com/", "wheelchair": "no"}}, {"type": "node", "id": 440624353, "lat": 53.5794546, "lon": 9.9794565, "tags": {"addr:city": "Hamburg", "addr:country": "DE", "addr:postcode": "20144", "addr:street": "Klosterallee", "amenity": "pub", "brewery": "Guinness;various", "check_date": "2023-09-25", "name": "Die Glocke", "outdoor_seating": "yes", "smoking": "yes", "wheelchair": "no"}}, {"type": "node", "id": 440878719, "lat": 53.5890651, "lon": 10.2917261, "tags": {"amenity": "pub", "name": "Timmermanns Gasthof"}}, {"type": "node", "id": 441767732, "lat": 53.5962792, "lon": 10.040512, "tags": {"addr:city": "Hamburg", "addr:country": "DE", "addr:housenumber": "34", "addr:postcode": "22307", "addr:street": "Oldachstraße", "amenity": "pub", "check_date:opening_hours": "2022-10-05", "indoor_seating": "yes", "name": "Pavlos-Eck", "opening_hours:signed": "no", "outdoor_seating": "yes"}}, {"type": "node", "id": 442007936, "lat": 53.5466845, "lon": 9.9600022, "tags": {"amenity": "pub", "check_date:opening_hours": "2024-05-11", "name": "Onkel Otto", "opening_hours:signed": "no", "toilets:wheelchair": "no", "wheelchair": "no"}}, {"type": "node", "id": 442007939, "lat": 53.5465514, "lon": 9.9600445, "tags": {"amenity": "pub", "name": "ahoi", "toilets:wheelchair": "no", "wheelchair": "no"}}, {"type": "node", "id": 442148727, "lat": 53.6916012, "lon": 10.1659198, "tags": {"addr:city": "Ammersbek", "addr:housenumber": "1", "addr:postcode": "22949", "addr:street": "Am Gutshof", "addr:suburb": "Hoisbüttel", "amenity": "pub", "indoor_seating": "yes", "name": "Croque Bistro am Pferdestall", "opening_hours": "We-Fr 12:00-15:00,17:00-21:30; Sa 12:00-22:00; Su 10:00-21:30", "outdoor_seating": "yes", "website": "http://www.zumdorfkrugamgutshof.de/", "wheelchair": "yes"}}, {"type": "node", "id": 443236859, "lat": 53.5581398, "lon": 10.0125642, "tags": {"amenity": "pub", "check_date:opening_hours": "2023-04-01", "name": "KytiVoo", "opening_hours": "Tu-Sa 17:00-18:00+", "payment:credit_cards": "yes", "payment:debit_cards": "yes", "toilets:wheelchair": "no", "website": "https://www.kytivoo.com", "wheelchair": "limited"}}, {"type": "node", "id": 457890269, "lat": 53.5535609, "lon": 10.0088008, "tags": {"addr:city": "Hamburg", "addr:country": "DE", "addr:housenumber": "47", "addr:postcode": "20099", "addr:street": "Kirchenallee", "amenity": "pub", "name": "Paulaners Miraculum", "opening_hours": "Mo-Su 00:00-01:00,11:30-24:00", "wheelchair": "no"}}, {"type": "node", "id": 457891861, "lat": 53.5559035, "lon": 10.009589, "tags": {"addr:city": "Hamburg", "addr:country": "DE", "addr:housenumber": "22", "addr:postcode": "20099", "addr:street": "Lange Reihe", "amenity": "pub", "name": "M&V Gaststätte", "toilets:wheelchair": "no", "wheelchair": "limited"}}, {"type": "node", "id": 482848775, "lat": 53.544474, "lon": 9.9459206, "tags": {"addr:city": "Hamburg", "addr:country": "DE", "addr:housenumber": "128", "addr:postcode": "22767", "addr:street": "Große Elbstraße", "amenity": "pub", "name": "Haifischbar", "opening_hours": "11:00-04:00", "outdoor_seating": "yes", "phone": "+49 40 3809342", "website": "http://www.haifischbar.net", "wheelchair": "limited"}}, {"type": "node", "id": 482848776, "lat": 53.5445819, "lon": 9.9461236, "tags": {"addr:city": "Hamburg", "addr:country": "DE", "addr:housenumber": "62", "addr:postcode": "22767", "addr:street": "Carsten-Rehder-Straße", "amenity": "pub", "name": "Zum Schellfischposten", "opening_hours": "Mo,We-Th 12:00-01:00; Fr-Sa 12:00-01:00; Su 08:00-23:00", "outdoor_seating": "yes", "phone": "+49 40 383422", "website": "http://www.schellfischposten.de", "wheelchair": "no"}}, {"type": "node", "id": 490185867, "lat": 53.5480941, "lon": 9.9821122, "tags": {"addr:city": "Hamburg", "addr:housenumber": "4", "addr:postcode": "20459", "addr:street": "Martin-Luther-Straße", "amenity": "pub", "name": "Gaststätte Dreyer", "phone": "+49 40 36090553", "wheelchair": "limited"}}, {"type": "node", "id": 514838145, "lat": 53.5943078, "lon": 9.986988, "tags": {"addr:city": "Hamburg", "addr:country": "DE", "addr:housenumber": "1-3", "addr:postcode": "20251", "addr:street": "Geschwister-Scholl-Straße", "amenity": "pub", "contact:fax": "+49 40 46779328", "contact:phone": "+49 40 462677", "contact:website": "https://borchers-hamburg.de/", "diet:vegan": "no", "diet:vegetarian": "yes", "indoor_seating": "yes", "internet_access": "yes", "name": "Café Borchers", "opening_hours": "Mo-Fr 12:00-01:00, Sa 10:00-03:00, Su 10:00-23:00", "outdoor_seating": "yes", "payment:credit_cards": "yes", "payment:debit_cards": "yes", "service_times": "Mo-Fr 12:00-23:00, Sa 10:00-23:00, Su 10:00-22:00", "toilets:wheelchair": "no", "wheelchair": "limited", "wheelchair:description": "Step at entrance but mobile ramp available for wheelchair access"}}, {"type": "node", "id": 540290062, "lat": 53.6151268, "lon": 10.1355929, "tags": {"amenity": "pub", "name": "Zum Spritzenhaus", "opening_hours": "Mo-Sa 16:00-20:00+"}}, {"type": "node", "id": 568082304, "lat": 53.6267002, "lon": 10.1403941, "tags": {"addr:housenumber": "4", "addr:postcode": "22147", "addr:street": "Kriegkamp", "amenity": "pub", "name": "Moni´s Treff"}}, {"type": "node", "id": 575175283, "lat": 53.5520661, "lon": 9.9651603, "tags": {"addr:city": "Hamburg", "addr:country": "DE", "addr:housenumber": "16", "addr:postcode": "20359", "addr:street": "Detlev-Bremer-Straße", "amenity": "pub", "contact:phone": "+49 40 315719", "contact:website": "http://www.cafe-miller.de/", "cuisine": "breakfast;cake;coffee_shop", "diet:vegan": "yes", "diet:vegetarian": "yes", "food": "yes", "indoor_seating": "yes", "internet_access": "wlan", "internet_access:fee": "no", "name": "Café Miller", "opening_hours": "Mo-Th 09:00-24:00, Fr,Sa 09:00-01:00, Su 09:00-22:00", "outdoor_seating": "yes", "smoking": "no", "toilets:wheelchair": "no", "wheelchair": "no"}}, {"type": "node", "id": 598263491, "lat": 53.5560177, "lon": 10.008123, "tags": {"addr:city": "Hamburg", "addr:country": "DE", "addr:housenumber": "1", "addr:postcode": "20099", "addr:street": "Spadenteich", "amenity": "pub", "indoor_seating": "yes", "name": "Max und Consorten", "opening_hours": "Mo-Fr 11:00+; Sa-Su 10:00+", "outdoor_seating": "yes", "phone": "+49 40 2802228", "toilets:wheelchair": "no", "website": "https://maxundconsorten.de/", "wheelchair": "limited", "wheelchair:description": "WC ebenerdig, aber sehr eng"}}, {"type": "node", "id": 606136479, "lat": 53.574561, "lon": 10.0709319, "tags": {"amenity": "pub", "name": "Feierabend"}}, {"type": "node", "id": 611052824, "lat": 53.5507084, "lon": 9.9809458, "tags": {"addr:city": "Hamburg", "addr:country": "DE", "addr:housenumber": "8", "addr:postcode": "20459", "addr:street": "Großneumarkt", "amenity": "pub", "check_date": "2024-03-17", "contact:phone": "+49 40 35714663", "contact:website": "http://www.irishrover.de/", "indoor_seating": "yes", "name": "The Irish Rover", "opening_hours": "We-Sa 17:00-24:00; PH,Su 16:00-24:00+", "outdoor_seating": "yes", "source": "survey", "toilets:wheelchair": "no", "wheelchair": "yes"}}, {"type": "node", "id": 611334608, "lat": 53.489388, "lon": 10.1581177, "tags": {"amenity": "pub", "level": "0", "name": "SportsBar"}}, {"type": "node", "id": 613106740, "lat": 53.5922398, "lon": 10.0023746, "tags": {"amenity": "pub", "check_date": "2023-11-20", "check_date:opening_hours": "2022-10-24", "name": "Dorotheen-Eck", "opening_hours": "Mo-Fr 15:00-24:00+; Sa,Su 11:00-24:00+", "wheelchair": "no"}}, {"type": "node", "id": 619781193, "lat": 53.7294973, "lon": 9.9129877, "tags": {"addr:city": "Quickborn", "addr:country": "DE", "addr:housenumber": "57", "addr:postcode": "25451", "addr:street": "Kampstraße", "amenity": "pub", "name": "Kamphuis", "website": "http://www.das-kamphuis.de/", "wheelchair": "limited"}}, {"type": "node", "id": 631831415, "lat": 53.5687961, "lon": 9.9951333, "tags": {"amenity": "pub", "name": "Gurke", "payment:cash": "yes", "payment:credit_cards": "no", "payment:ep_geldkarte": "yes", "payment:maestro": "yes", "wheelchair": "no"}}, {"type": "node", "id": 649176009, "lat": 53.6233851, "lon": 9.9544067, "tags": {"amenity": "pub", "name": "Tibarg Treff", "opening_hours": "Mo-Sa 11:00-23:30; PH,Su 12:00-20:00"}}, {"type": "node", "id": 651431531, "lat": 53.5708839, "lon": 10.027745, "tags": {"amenity": "pub", "indoor_seating": "yes", "name": "Louisiana", "outdoor_seating": "no", "wheelchair": "yes", "wheelchair:description": "Tipp: Glastisch reservieren, diese sind mit Platz am Gang und unterfahrbar"}}, {"type": "node", "id": 677043942, "lat": 53.7098402, "lon": 10.1016415, "tags": {"amenity": "pub", "name": "Zum Duvenstedter"}}, {"type": "node", "id": 684220905, "lat": 53.625761, "lon": 9.94615, "tags": {"addr:city": "Hamburg", "addr:country": "DE", "addr:housenumber": "57", "addr:postcode": "22459", "addr:street": "Hadermanns Weg", "addr:suburb": "Niendorf", "amenity": "pub", "check_date:opening_hours": "2023-04-06", "indoor_seating": "yes", "name": "Schweizer Haus", "opening_hours": "Mo-Fr 16:30-24:00; Sa 15:00-24:00; Su 15:00-21:00", "outdoor_seating": "yes", "source": "website", "website": "https://schweizer-haus.eatbu.com", "wheelchair": "no"}}, {"type": "node", "id": 684220913, "lat": 53.636311, "lon": 9.9443318, "tags": {"addr:city": "Hamburg", "addr:country": "DE", "addr:housenumber": "84", "addr:postcode": "22455", "addr:street": "Quedlinburger Weg", "addr:suburb": "Niendorf", "amenity": "pub", "name": "Victors Bratkartoffel Restaurant", "opening_hours": "Mo-Sa 12:00-23:00; PH,Su off", "opening_hours:kitchen": "Mo-Fr 17:00-22:00; Sa 12:00-22:00", "outdoor_seating": "yes", "phone": "+49 40 5517422", "source": "website", "website": "http://www.victors-niendorf.de"}}, {"type": "node", "id": 692085286, "lat": 53.6043637, "lon": 10.0422771, "tags": {"amenity": "pub", "name": "Fuchsbau", "wheelchair": "limited"}}, {"type": "node", "id": 697598832, "lat": 53.5831808, "lon": 10.0122982, "tags": {"amenity": "pub", "name": "Montys", "opening_hours": "Mo-Su 10:00-02:00", "phone": "+49 40 273793", "smoking": "yes", "source": "https://www.hamburg.de/branchenbuch/hamburg/eintrag/10240528/"}}, {"type": "node", "id": 702592337, "lat": 53.5779738, "lon": 9.8142227, "tags": {"amenity": "pub", "name": "Aalreuse"}}, {"type": "node", "id": 704522445, "lat": 53.5500889, "lon": 9.966405, "tags": {"amenity": "pub", "check_date:opening_hours": "2023-12-17", "name": "Kuhstall", "opening_hours:signed": "no", "wheelchair": "limited"}}, {"type": "node", "id": 708183784, "lat": 53.5609514, "lon": 9.9169923, "tags": {"amenity": "pub", "check_date:opening_hours": "2023-09-15", "indoor_seating": "yes", "name": "Shovel Road", "opening_hours": "Mo-Sa 15:00+; Su 14:00+", "outdoor_seating": "yes", "source": "survey", "website": "http://www.shovelroad.de", "wheelchair": "limited"}}, {"type": "node", "id": 767919941, "lat": 53.5617709, "lon": 9.9651662, "tags": {"addr:city": "Hamburg", "addr:country": "DE", "addr:housenumber": "6", "addr:postcode": "20357", "addr:street": "Bartelsstraße", "amenity": "pub", "contact:website": "http://www.fritzbauch.de/", "indoor_seating": "yes", "name": "Fritz Bauch", "opening_hours": "Mo-Sa 17:00-18:00+", "outdoor_seating": "yes", "toilets:wheelchair": "no", "wheelchair": "no"}}, {"type": "node", "id": 767919947, "lat": 53.5628044, "lon": 9.9636049, "tags": {"addr:city": "Hamburg", "addr:country": "DE", "addr:housenumber": "55", "addr:postcode": "20357", "addr:street": "Bartelsstraße", "amenity": "pub", "check_date": "2023-12-25", "indoor_seating": "yes", "name": "Astro Drink Bombe", "opening_hours": "Mo-Th 11:00-00:30; Fr-Su 15:00+", "outdoor_seating": "yes", "phone": "+49 40 55775922", "smoking": "designated", "wheelchair": "limited"}}, {"type": "node", "id": 773369923, "lat": 53.6053077, "lon": 10.0406713, "tags": {"addr:city": "Hamburg", "addr:housenumber": "7", "addr:postcode": "22307", "addr:street": "Elligersweg", "amenity": "pub", "name": "No Name", "opening_hours": "Mo-Fr 17:00-18:00+, Sa 15:00-18:00+, Su 16:00-18:00+", "wheelchair": "yes"}}, {"type": "node", "id": 786623774, "lat": 53.5584379, "lon": 9.9285634, "tags": {"addr:city": "Hamburg", "addr:housenumber": "260", "addr:postcode": "22765", "addr:street": "Bahrenfelder Straße", "amenity": "pub", "brewery": "yes;veltins", "check_date:opening_hours": "2023-11-28", "email": "info@barvivo.de", "fixme": "Angaben vor Ort prüfen!", "indoor_seating": "yes", "name": "Bar Vivo", "opening_hours": "Mo-Fr 08:30-24:00; Sa 10:00-24:00", "outdoor_seating": "no", "phone": "+49 40 39198676", "website": "https://www.barvivo.de/", "wheelchair": "yes"}}, {"type": "node", "id": 799205100, "lat": 53.558978, "lon": 9.9626451, "tags": {"addr:housenumber": "11", "addr:street": "Stresemannstraße", "amenity": "pub", "indoor_seating": "yes", "name": "Mutter", "opening_hours": "Mo-Th 19:00-03:00; Fr, Sa 19:00-05:00", "outdoor_seating": "no", "smoking": "yes", "wheelchair": "no"}}, {"type": "node", "id": 800204313, "lat": 53.5835023, "lon": 10.0355598, "tags": {"amenity": "pub", "name": "Gaststätte & Clubraum USC Paloma", "toilets:wheelchair": "no", "wheelchair": "no"}}, {"type": "node", "id": 821861248, "lat": 53.6133959, "lon": 9.9785454, "tags": {"amenity": "pub", "name": "Drei Eichen"}}, {"type": "node", "id": 839947121, "lat": 53.5815912, "lon": 10.0986705, "tags": {"addr:city": "Hamburg", "addr:housenumber": "247", "addr:postcode": "22047", "addr:street": "Walddörferstraße", "amenity": "pub", "name": "Zum Wandsetaler", "opening_hours": "Tu 16:00-22:30, We-Th 18:00-22:30"}}, {"type": "node", "id": 841874172, "lat": 53.5559477, "lon": 9.9628998, "tags": {"addr:city": "Hamburg", "addr:housenumber": "50", "addr:postcode": "20359", "addr:street": "Wohlwillstraße", "air_conditioning": "no", "amenity": "pub", "indoor_seating": "yes", "name": "Eldorado", "opening_hours": "Mo-Su 19:00-02:00", "outdoor_seating": "yes", "smoking": "yes", "wheelchair": "no"}}, {"type": "node", "id": 865211146, "lat": 53.5855534, "lon": 10.0812763, "tags": {"addr:city": "Hamburg", "addr:country": "DE", "addr:housenumber": "49", "addr:postcode": "22047", "addr:street": "Friedrich-Ebert-Damm", "amenity": "pub", "entrance": "yes", "name": "Narzissen Eck", "phone": "+49 40 69646202", "wheelchair": "limited"}}, {"type": "node", "id": 884715760, "lat": 53.5530337, "lon": 9.9297458, "tags": {"addr:city": "Hamburg", "addr:country": "DE", "addr:housenumber": "132", "addr:postcode": "22765", "addr:street": "Bahrenfelder Straße", "amenity": "pub", "indoor_seating": "yes", "name": "Gazoline", "opening_hours": "Mo-Sa 12:00-22:00+; Su 15:00-22:00+", "outdoor_seating": "sidewalk", "toilets": "yes", "toilets:wheelchair": "limited", "website": "https://gazoline-bar.de/", "wheelchair": "limited"}}, {"type": "node", "id": 894417090, "lat": 53.5168078, "lon": 10.0969933, "tags": {"amenity": "pub", "name": "Zur letzten Minute"}}, {"type": "node", "id": 920055583, "lat": 53.5595707, "lon": 10.0535854, "tags": {"addr:city": "Hamburg", "addr:country": "DE", "addr:housenumber": "27", "addr:postcode": "20535", "addr:street": "Moorende", "amenity": "pub", "check_date": "2023-06-09", "contact:phone": "+49 40 213307", "name": "Zum Lohhof", "opening_hours": "Mo-Sa 11:00+"}}, {"type": "node", "id": 960157548, "lat": 53.5795608, "lon": 10.0769561, "tags": {"addr:housenumber": "110", "addr:postcode": "22041", "addr:street": "Walddörferstraße", "amenity": "pub", "name": "Sunset Billard", "opening_hours": "Tu-Th 18:00-24:00+; Fr 18:00-01:00+; Sa 14:00-01:00+; Su 14:00-21:00+", "phone": "+49 40 65729029", "website": "http://www.sunset-billard-wandsbek.com/", "wheelchair": "limited"}}, {"type": "node", "id": 965124668, "lat": 53.579903, "lon": 10.0297473, "tags": {"amenity": "pub", "check_date": "2023-09-03", "name": "Imstedt 4"}}, {"type": "node", "id": 970198538, "lat": 53.5799973, "lon": 10.0814774, "tags": {"amenity": "pub", "name": "Holzmühlen Eck", "wheelchair": "limited"}}, {"type": "node", "id": 972783240, "lat": 53.4484302, "lon": 10.2215371, "tags": {"amenity": "pub", "name": "Zum alten Bahnhof"}}, {"type": "node", "id": 974454572, "lat": 53.5155177, "lon": 9.9883521, "tags": {"amenity": "pub", "check_date:opening_hours": "2024-05-08", "name": "Zum Wilhelmsburger", "opening_hours": "Tu-Sa 10:00-22:00+; Su 10:00-22:00+", "wheelchair": "no"}}, {"type": "node", "id": 975814175, "lat": 53.5500782, "lon": 9.9662151, "tags": {"addr:housenumber": "22", "addr:street": "Reeperbahn", "amenity": "pub", "check_date:opening_hours": "2023-12-17", "name": "Lehmitz", "opening_hours:signed": "no", "wheelchair": "limited", "wheelchair:description": "keine Behindertentoilette"}}, {"type": "node", "id": 975907870, "lat": 53.548592, "lon": 10.0131459, "tags": {"amenity": "pub", "check_date": "2023-07-22", "check_date:opening_hours": "2024-02-05", "name": "Ilohh, Bar am Ende der Welt", "opening_hours": "We,Th 18:00-01:00+, Fr 18:00-04:00+, Sa 20:00-04:00+", "payment:credit_cards": "no", "payment:debit_cards": "no", "wheelchair": "no"}}, {"type": "node", "id": 976692746, "lat": 53.5324011, "lon": 10.1280726, "tags": {"amenity": "pub", "name": "KapellenEck", "wheelchair": "limited"}}, {"type": "node", "id": 982712447, "lat": 53.4587645, "lon": 9.9716282, "tags": {"addr:city": "Hamburg", "addr:country": "DE", "addr:housenumber": "78", "addr:postcode": "21073", "addr:street": "Julius-Ludowieg-Straße", "amenity": "pub", "contact:facebook": "https://www.facebook.com/Veronacafebar/info", "indoor_seating": "yes", "name": "Verona Café Bar", "opening_hours": "Mo-Su 17:00-24:00+", "outdoor_seating": "yes", "wheelchair": "no"}}, {"type": "node", "id": 984098510, "lat": 53.5649159, "lon": 10.0512331, "tags": {"addr:city": "Hamburg", "addr:housenumber": "48", "addr:postcode": "22089", "addr:street": "Peterskampweg", "amenity": "pub", "name": "Ostria", "opening_hours": "Mo-Sa 18:00+", "wheelchair": "limited"}}, {"type": "node", "id": 984099125, "lat": 53.5678962, "lon": 10.0488271, "tags": {"amenity": "pub", "check_date:opening_hours": "2023-07-23", "indoor_seating": "yes", "name": "Holstenstübchen", "opening_hours": "Su,Mo 17:00-18:00+; Tu-Sa 16:00-18:00+", "outdoor_seating": "no", "wheelchair": "no"}}, {"type": "node", "id": 985215262, "lat": 53.5823029, "lon": 9.7587146, "tags": {"amenity": "pub", "name": "Gondel", "wheelchair": "no"}}, {"type": "node", "id": 985216780, "lat": 53.5815386, "lon": 9.7549274, "tags": {"amenity": "pub", "toilets:wheelchair": "no", "wheelchair": "yes"}}, {"type": "node", "id": 1004006266, "lat": 53.5489567, "lon": 9.9611336, "tags": {"amenity": "pub", "check_date:opening_hours": "2023-10-29", "name": "Molly Malone", "opening_hours:signed": "no", "wheelchair": "limited"}}, {"type": "node", "id": 1004006289, "lat": 53.5488803, "lon": 9.9611344, "tags": {"amenity": "pub", "check_date:opening_hours": "2023-10-29", "name": "The Academy", "opening_hours:signed": "no"}}, {"type": "node", "id": 1004006290, "lat": 53.5487121, "lon": 9.9611679, "tags": {"amenity": "pub", "check_date:opening_hours": "2023-10-29", "name": "London Pub", "opening_hours:signed": "no", "toilets:wheelchair": "no", "wheelchair": "no"}}, {"type": "node", "id": 1013602819, "lat": 53.549125, "lon": 9.9276636, "tags": {"amenity": "pub", "cuisine": "german", "indoor_seating": "yes", "name": "Roth", "opening_hours": "Mo-Th 17:00-23:00; Fr,Sa 17:00-24:00", "outdoor_seating": "sidewalk", "wheelchair": "no"}}, {"type": "node", "id": 1055533242, "lat": 53.5562205, "lon": 9.9329659, "tags": {"amenity": "pub", "check_date:opening_hours": "2024-06-03", "indoor_seating": "yes", "name": "Café Treibeis", "opening_hours:signed": "no", "outdoor_seating": "no", "smoking": "yes", "wheelchair": "no"}}, {"type": "node", "id": 1076975393, "lat": 53.5485671, "lon": 9.9311446, "tags": {"addr:city": "Hamburg", "addr:country": "DE", "addr:housenumber": "4", "addr:postcode": "22765", "addr:street": "Karl-Theodor-Straße", "amenity": "pub", "check_date": "2023-06-10", "contact:phone": "+49 40 66977172", "contact:website": "https://www.traube-hamburg.com/", "indoor_seating": "yes", "name": "Zur Traube", "opening_hours": "Th 18:00-23:00; Fr, Sa 18:00-00:00; Su 12:00-23:00", "outdoor_seating": "no", "wheelchair": "no"}}, {"type": "node", "id": 1078595076, "lat": 53.5522155, "lon": 9.9301171, "tags": {"amenity": "pub", "check_date": "2024-02-04", "check_date:opening_hours": "2024-03-21", "indoor_seating": "yes", "name": "Gaststätte Möller", "opening_hours:signed": "no", "outdoor_seating": "sidewalk", "wheelchair": "no"}}, {"type": "node", "id": 1119858919, "lat": 53.5350727, "lon": 10.0301385, "tags": {"amenity": "pub", "name": "wildfang pub"}}, {"type": "node", "id": 1137489073, "lat": 53.5544951, "lon": 9.9430025, "tags": {"amenity": "pub", "name": "Katz & Kater", "opening_hours": "Tu-Fr 18:00+; Sa 12:00-16:00,20:00-18:00+", "wheelchair": "no"}}, {"type": "node", "id": 1138337471, "lat": 53.5500785, "lon": 9.9593819, "tags": {"addr:housenumber": "140", "addr:street": "Reeperbahn", "alt_name": "Zur Ritze", "amenity": "pub", "name": "Zur Ritze", "opening_hours": "Mo-Th 17:00-04:00; Fr-Su 14:00-06:00", "website": "https://www.zurritze.com/", "wheelchair": "no"}}, {"type": "node", "id": 1151348782, "lat": 53.6457004, "lon": 10.0118847, "tags": {"amenity": "pub", "name": "Bavaria-Insel", "wheelchair": "no"}}, {"type": "node", "id": 1158060567, "lat": 53.5528349, "lon": 10.0213605, "tags": {"amenity": "pub", "check_date": "2023-03-29", "check_date:opening_hours": "2024-05-15", "name": "Treff bei Tassos", "opening_hours": "Mo-Fr 11:00-23:00; Sa 12:00-22:00", "opening_hours:signed": "no", "wheelchair": "no"}}, {"type": "node", "id": 1235047172, "lat": 53.555705, "lon": 10.1064019, "tags": {"amenity": "pub", "name": "Mittendrin"}}, {"type": "node", "id": 1269116648, "lat": 53.4961696, "lon": 10.2050389, "tags": {"amenity": "pub", "name": "Sander Treff"}}, {"type": "node", "id": 1306984712, "lat": 53.6384651, "lon": 9.8948515, "tags": {"amenity": "pub", "delivery": "no", "indoor_seating": "yes", "name": "Rosmarin", "outdoor_seating": "yes"}}, {"type": "node", "id": 1318030349, "lat": 53.6361759, "lon": 9.8403741, "tags": {"addr:city": "Halstenbek", "addr:postcode": "25469", "addr:street": "Poststraße", "amenity": "pub", "name": "Holstenquelle", "smoking": "dedicated", "wheelchair": "limited"}}, {"type": "node", "id": 1322638996, "lat": 53.574887, "lon": 10.0446517, "tags": {"amenity": "pub", "check_date:opening_hours": "2022-10-17", "indoor_seating": "yes", "name": "Capri-Stube", "opening_hours": "Mo-Th 16:00+; Fr 14:00+; Sa,Su 10:00+", "outdoor_seating": "yes", "smoking": "yes"}}, {"type": "node", "id": 1343843515, "lat": 53.6067964, "lon": 10.1751025, "tags": {"amenity": "pub"}}, {"type": "node", "id": 1362945615, "lat": 53.5592861, "lon": 9.9469364, "tags": {"addr:city": "Hamburg", "addr:housenumber": "39", "addr:street": "Eggerstedtstraße", "amenity": "pub", "indoor_seating": "yes", "name": "Aalhaus", "opening_hours": "Mo-Th 15:00-02:00, Fr 15:00-03:00, Sa 13:00-3:00, Su 13:00-24:00", "outdoor_seating": "yes", "smoking": "yes", "website": "https://www.aalhaus.de/", "wheelchair": "no"}}, {"type": "node", "id": 1372532079, "lat": 53.5459914, "lon": 9.9655254, "tags": {"amenity": "pub", "contact:facebook": "https://www.facebook.com/dock3beach", "email": "info@dock3beachclub.de", "name": "Dock 3 Beachclub", "opening_hours": "Apr-Oct 11:00+ open \"wetterabhängig\"", "operator": "Dock 3 Beachclub GmbH", "phone": "+49 40 98765 155", "website": "https://www.dock3beachclub.de/", "wheelchair": "limited"}}, {"type": "node", "id": 1372532099, "lat": 53.5460406, "lon": 9.9642117, "tags": {"addr:city": "Hamburg", "addr:postcode": "20359", "addr:street": "Bei den St. Pauli-Landungsbrücken", "amenity": "pub", "email": "info@sonnendeck-stpauli.de", "level": "1", "name": "Sonnendeck St.Pauli", "operator": "HaHa Hanseatische Gastronomiebetriebe GmbH", "phone": "+49 40 807 919 82 700", "website": "https://www.sonnendeck-stpauli.de/de", "wheelchair": "limited"}}, {"type": "node", "id": 1393721519, "lat": 53.5177796, "lon": 10.2394613, "tags": {"amenity": "pub", "internet_access": "wlan", "name": "TSV Tennis"}}, {"type": "node", "id": 1393721529, "lat": 53.5159346, "lon": 10.2469069, "tags": {"amenity": "pub", "name": "Die Kleine Kneipe"}}, {"type": "node", "id": 1422494210, "lat": 53.6279504, "lon": 10.1257772, "tags": {"amenity": "pub", "name": "Am Sportplatz", "wheelchair": "no"}}, {"type": "node", "id": 1429251879, "lat": 53.4642329, "lon": 9.965931, "tags": {"amenity": "pub", "indoor_seating": "yes", "min_age": "18", "name": "Am Sportplatz", "opening_hours": "We,Su,Mo 09:00-01:00; Th 09:00-24:00; Fr,Sa 09:00+", "outdoor_seating": "no", "smoking": "yes"}}, {"type": "node", "id": 1432609512, "lat": 53.6189, "lon": 10.0798694, "tags": {"addr:city": "Hamburg", "addr:country": "DE", "addr:housenumber": "329", "addr:postcode": "22177", "addr:street": "Bramfelder Chaussee", "amenity": "pub", "name": "Notaufnahme", "smoking": "yes"}}, {"type": "node", "id": 1449394661, "lat": 53.4551121, "lon": 9.986277, "tags": {"amenity": "pub", "name": "Marias Ballroom"}}, {"type": "node", "id": 1479201659, "lat": 53.5582352, "lon": 10.0473431, "tags": {"addr:city": "Hamburg", "addr:country": "DE", "addr:housenumber": "22", "addr:postcode": "20535", "addr:street": "Sievekingdamm", "amenity": "pub", "check_date": "2023-06-09", "indoor_seating": "yes", "name": "Kanal 5", "opening_hours": "Mo-Su 14:00+", "outdoor_seating": "no", "wheelchair": "no"}}, {"type": "node", "id": 1493428319, "lat": 53.5550875, "lon": 9.9643151, "tags": {"amenity": "pub", "check_date": "2024-02-23", "name": "Jolly Roger", "toilets:wheelchair": "no", "wheelchair": "limited"}}, {"type": "node", "id": 1503301954, "lat": 53.5720603, "lon": 9.9587634, "tags": {"addr:housenumber": "75", "addr:street": "Eppendorfer Weg", "amenity": "pub", "check_date": "2024-05-27", "indoor_seating": "yes", "name": "Meisenfrei", "outdoor_seating": "yes", "wheelchair": "no"}}, {"type": "node", "id": 1506805952, "lat": 53.5641969, "lon": 10.0565098, "tags": {"amenity": "pub", "check_date": "2023-08-26", "name": "Willys Bier-Bar", "opening_hours": "Mo-Th 16:00-04:00, Fr,Sa 14:00-06:00, Su 16:00-04:00"}}, {"type": "node", "id": 1509959252, "lat": 53.5601163, "lon": 10.0503121, "tags": {"addr:city": "Hamburg", "addr:country": "DE", "addr:housenumber": "31", "addr:postcode": "20535", "addr:street": "Stoeckhardtstraße", "amenity": "pub", "check_date": "2023-06-09", "indoor_seating": "yes", "name": "Anno 1960", "outdoor_seating": "yes"}}, {"type": "node", "id": 1520766760, "lat": 53.6473441, "lon": 10.1694193, "tags": {"addr:city": "Hamburg", "addr:country": "DE", "addr:housenumber": "66", "addr:postcode": "22359", "addr:street": "Eulenkrugstraße", "amenity": "pub", "name": "Velvet Billardcafe", "old_website": "http://www.velvet-lounge-hh.de/", "opening_hours": "Mo-Th 19:00-01:00, Fr,Sa 19:00-02:00, Su 19:00-24:00"}}, {"type": "node", "id": 1561759656, "lat": 53.593024, "lon": 9.9665247, "tags": {"amenity": "pub", "name": "Lokstedter Treff", "opening_hours": "Mo-Th 17:00-01:00; Fr 17:00-24:00; Sa 15:00-24:00", "smoking": "yes", "wheelchair": "limited"}}, {"type": "node", "id": 1562385912, "lat": 53.5749193, "lon": 9.9636237, "tags": {"amenity": "pub", "check_date": "2023-05-05", "name": "Fasan", "wheelchair": "no"}}, {"type": "node", "id": 1562385914, "lat": 53.5752722, "lon": 9.9621395, "tags": {"amenity": "pub", "indoor_seating": "yes", "name": "NUTS", "opening_hours": "Mo-Th 17:00-01:00; Fr-Sa 17:00+", "outdoor_seating": "yes", "website": "https://www.nuts-eimsbuettel.de/", "wheelchair": "no"}}, {"type": "node", "id": 1571194308, "lat": 53.5473543, "lon": 9.9571385, "tags": {"amenity": "pub", "indoor_seating": "yes", "name": "Café Geyer", "opening_hours": "Mo-Su 09:00-23:00", "outdoor_seating": "yes", "phone": "+49 40 49204051", "smoking": "outside", "wheelchair": "no"}}, {"type": "node", "id": 1571194363, "lat": 53.5461935, "lon": 9.9577662, "tags": {"addr:city": "Hamburg", "addr:country": "DE", "addr:housenumber": "27", "addr:postcode": "20359", "addr:street": "St. Pauli Fischmarkt", "amenity": "pub", "name": "Golden Pudel Club", "opening_hours": "We-Mo 20:00+; Tu off", "website": "https://pudel.com/", "wheelchair": "limited", "wikidata": "Q1535030"}}, {"type": "node", "id": 1571194417, "lat": 53.5483829, "lon": 9.9612176, "tags": {"addr:city": "Hamburg", "addr:housenumber": "11", "addr:postcode": "20359", "addr:street": "Friedrichstraße", "amenity": "pub", "brewery": "yes", "check_date:opening_hours": "2023-10-29", "description": "Das La Paloma – die Bar, in der alle Partywütigen feiern, tanzen und flirten. Der Flirtfaktor ist hier so hoch, dass er kaum noch messbar ist. Ganz zu schweigen von der unübertreffbaren Partystimmung. Das La Paloma hat am Wochenende die offizielle Lizenz", "email": "info@la-paloma-hh.de", "image": "http://www.la-paloma-hh.de/images/lapaloma/lapaloma.jpg", "name": "La Paloma", "opening_hours:signed": "no", "website": "http://www.la-paloma-hh.de"}}, {"type": "node", "id": 1574464347, "lat": 53.5479718, "lon": 9.9317384, "tags": {"addr:city": "Hamburg", "addr:country": "DE", "addr:housenumber": "2", "addr:postcode": "22765", "addr:street": "Holländische Reihe", "amenity": "pub", "indoor_seating": "yes", "name": "Alt-Ottensen", "opening_hours": "Th-Tu", "outdoor_seating": "yes", "wheelchair": "no"}}, {"type": "node", "id": 1574464601, "lat": 53.5500528, "lon": 9.9300406, "tags": {"addr:city": "Hamburg", "addr:country": "DE", "addr:housenumber": "47", "addr:postcode": "22765", "addr:street": "Bahrenfelder Straße", "amenity": "pub", "check_date": "2024-03-09", "indoor_seating": "yes", "name": "Tatort", "opening_hours": "Mo-Sa 18:00-24:00; Su 20:00-24:00", "outdoor_seating": "yes", "wheelchair": "limited"}}, {"type": "node", "id": 1574464622, "lat": 53.5467236, "lon": 9.9316883, "tags": {"addr:city": "Hamburg", "addr:country": "DE", "addr:housenumber": "4", "addr:postcode": "22765", "addr:street": "Elbchaussee", "amenity": "pub", "name": "Zum Seeteufel", "wheelchair": "no"}}, {"type": "node", "id": 1607039199, "lat": 53.563102, "lon": 10.0596805, "tags": {"addr:city": "Hamburg", "addr:country": "DE", "addr:housenumber": "80", "addr:postcode": "20535", "addr:street": "Caspar-Voght-Straße", "amenity": "pub", "check_date": "2023-08-26", "name": "Augustiner-Stubn", "outdoor_seating": "yes", "phone": "+49 40 203202", "toilets:wheelchair": "no", "website": "http://www.augustiner-stubn.de/", "wheelchair": "limited"}}, {"type": "node", "id": 1611746747, "lat": 53.5166228, "lon": 9.984267, "tags": {"amenity": "pub", "name": "Ricks café", "wheelchair": "no"}}, {"type": "node", "id": 1616141929, "lat": 53.571159, "lon": 10.0566005, "tags": {"amenity": "pub", "name": "Mini Bar", "opening_hours": "Mo-Th 15:00-23:00; Fr,Sa 15:00-24:00; Su 13:00-18:00+"}}, {"type": "node", "id": 1618694828, "lat": 53.6120369, "lon": 9.902492, "tags": {"amenity": "pub", "name": "Bahnhofsgaststätte", "opening_hours": "Mo-Th 14:00-23:00; Fr 13:00-23:00; Sa 12:00-23:00; Su,PH 12:00-18:00+", "wheelchair": "no"}}, {"type": "node", "id": 1621590434, "lat": 53.631709, "lon": 9.9185463, "tags": {"amenity": "pub", "name": "Zur Endstation"}}, {"type": "node", "id": 1637467944, "lat": 53.5428013, "lon": 10.2011249, "tags": {"amenity": "pub", "name": "Tannenkrug", "wheelchair": "no"}}, {"type": "node", "id": 1641501234, "lat": 53.571942, "lon": 10.0154922, "tags": {"amenity": "pub", "name": "Hofweg Treff", "opening_hours": "PH,Tu-Fr,Su 17:00-24:00, Fr 17:00-02:00, Sa 18:00-02:00", "wheelchair": "limited"}}, {"type": "node", "id": 1656096459, "lat": 53.4635627, "lon": 9.9674536, "tags": {"amenity": "pub", "check_date:opening_hours": "2023-11-05", "name": "Heimfelder Berg", "opening_hours": "Mo-Th 12:00-24:00; Fr,Sa 12:00-24:00+; Su 12:00-24:00", "smoking": "yes"}}, {"type": "node", "id": 1657502652, "lat": 53.53419, "lon": 10.0461518, "tags": {"amenity": "pub", "name": "Helles Treff", "smoking": "yes"}}, {"type": "node", "id": 1680465003, "lat": 53.5470687, "lon": 9.9627778, "tags": {"amenity": "pub", "entrance": "yes", "food": "yes", "name": "Zur scharfen Ecke", "smoking": "yes", "wheelchair": "no"}}, {"type": "node", "id": 1696696425, "lat": 53.5564556, "lon": 9.9627022, "tags": {"amenity": "pub", "indoor_seating": "yes", "name": "Kurhaus", "opening_hours": "Th-Sa 18:00+; Mo-We 18:00-23:00", "outdoor_seating": "yes", "wheelchair": "no"}}, {"type": "node", "id": 1703316909, "lat": 53.6169972, "lon": 9.9761043, "tags": {"amenity": "pub", "name": "LSV Clubheimkneipe Petra + Harry"}}, {"type": "node", "id": 1717908863, "lat": 53.5367254, "lon": 10.0335381, "tags": {"amenity": "pub"}}, {"type": "node", "id": 1722375520, "lat": 53.564612, "lon": 10.0422904, "tags": {"addr:city": "Hamburg", "addr:housenumber": "27", "addr:postcode": "22089", "addr:street": "Kiebitzstraße", "amenity": "pub", "check_date:opening_hours": "2024-06-02", "indoor_seating": "yes", "name": "Der Kiebitz", "opening_hours": "Mo-Sa 17:00-23:00+", "outdoor_seating": "yes", "payment:credit_cards": "no", "payment:debit_cards": "yes"}}, {"type": "node", "id": 1725859427, "lat": 53.4547525, "lon": 9.984721, "tags": {"amenity": "pub", "check_date": "2024-03-14", "min_age": "18", "name": "2 nach 4", "smoking": "yes"}}, {"type": "node", "id": 1774109533, "lat": 53.5582514, "lon": 10.0121743, "tags": {"addr:housenumber": "81", "addr:street": "Lange Reihe", "alt_name": "G-Bar", "amenity": "pub", "name": "Generation Bar", "opening_hours": "Mo-Th 16:00-02:00; Fr-Sa 16:00-04:00; Su 16:00-02:00", "payment:credit_cards": "yes", "payment:debit_cards": "yes", "toilets:wheelchair": "no", "website": "https://www.generation-bar.de/", "wheelchair": "no"}}, {"type": "node", "id": 1797945643, "lat": 53.5544781, "lon": 10.0069884, "tags": {"air_conditioning": "yes", "amenity": "pub", "indoor_seating": "yes", "name": "Ohnsorg", "opening_hours": "Mo-Fr 16:00-18:00+", "outdoor_seating": "no", "payment:credit_cards": "yes", "payment:debit_cards": "yes", "wheelchair": "yes"}}, {"type": "node", "id": 1809283337, "lat": 53.5702203, "lon": 10.0607198, "tags": {"amenity": "pub", "name": "Hammer-Klause"}}, {"type": "node", "id": 1830269659, "lat": 53.5497657, "lon": 10.0032443, "tags": {"amenity": "pub", "indoor_seating": "yes", "name": "Kombüse", "opening_hours": "Mo 16:00-20:00; Tu-Th 16:00-18:00+; Fr 15:00-18:00+", "outdoor_seating": "yes", "wheelchair": "no"}}, {"type": "node", "id": 1844965146, "lat": 53.5663791, "lon": 10.0196865, "tags": {"addr:city": "Hamburg", "addr:country": "DE", "addr:housenumber": "22", "addr:postcode": "22087", "addr:street": "Papenhuder Straße", "amenity": "pub", "check_date": "2023-08-05", "indoor_seating": "yes", "name": "FreiRaum", "opening_hours": "Mo-Fr 17:00+; Sa 11:00+", "outdoor_seating": "no", "phone": "+49 40 2274 8855", "smoking": "yes", "wheelchair": "no"}}, {"type": "node", "id": 1861386397, "lat": 53.5655301, "lon": 10.0456473, "tags": {"amenity": "pub", "check_date": "2023-07-16", "name": "MacFly", "wheelchair": "no"}}, {"type": "node", "id": 1874112134, "lat": 53.5779259, "lon": 10.0211148, "tags": {"amenity": "pub", "check_date:opening_hours": "2022-11-05", "name": "Zum guten Tropfen", "opening_hours": "Mo-Fr 14:00+, Sa,Su 10:00+"}}, {"type": "node", "id": 1874112412, "lat": 53.5772634, "lon": 10.0193499, "tags": {"amenity": "pub", "check_date": "2023-09-03", "check_date:opening_hours": "2022-02-27", "name": "Zum Uhlenhorster Bogen", "opening_hours": "Tu-Th 12:00-20:00+; Fr,Sa 10:00-20:00+", "payment:credit_cards": "no", "payment:debit_cards": "no", "wheelchair": "no"}}, {"type": "node", "id": 1878357280, "lat": 53.5692055, "lon": 9.964015, "tags": {"addr:housenumber": "60", "addr:street": "Weidenallee", "amenity": "pub", "brewery": "yes", "check_date": "2023-11-15", "indoor_seating": "yes", "name": "Hannes&Hanna Wohnzimmer", "opening_hours": "Mo-Th 17:00-23:00; Fr 17:00-24:00; Sa 15:00-24:00; Su 15:00-23:00", "outdoor_seating": "yes", "payment:american_express": "yes", "payment:apple_pay": "yes", "payment:cash": "yes", "payment:diners_club": "yes", "payment:discover_card": "yes", "payment:girocard": "yes", "payment:google_pay": "yes", "payment:maestro": "yes", "payment:mastercard": "yes", "payment:visa": "yes", "phone": "+49 172 5150706", "smoking": "isolated", "website": "https://www.wohnzimmer-hh.de", "wheelchair": "no"}}, {"type": "node", "id": 1912139628, "lat": 53.5517098, "lon": 9.9801248, "tags": {"amenity": "pub", "check_date": "2024-03-17", "name": "Gräbes"}}, {"type": "node", "id": 1912498305, "lat": 53.6583624, "lon": 9.7995399, "tags": {"addr:city": "Pinneberg", "addr:country": "DE", "addr:housenumber": "23", "addr:postcode": "25421", "addr:street": "Bahnhofstraße", "amenity": "pub", "check_date:opening_hours": "2023-03-19", "name": "Barcode 23", "opening_hours:signed": "no"}}, {"type": "node", "id": 1926030069, "lat": 53.6083451, "lon": 9.9945445, "tags": {"addr:housename": "B-Gebäude", "addr:housenumber": "213", "addr:postcode": "22297", "addr:street": "Alsterkrugchaussee", "amenity": "pub", "name": "Heimbar", "toilets:wheelchair": "no", "wheelchair": "no"}}, {"type": "node", "id": 1939662457, "lat": 53.5875512, "lon": 10.0470383, "tags": {"addr:city": "Hamburg", "addr:country": "DE", "addr:housenumber": "17a", "addr:postcode": "22305", "addr:street": "Pestalozzistraße", "amenity": "pub", "brewery": "various", "contact:phone": "+49 40 69704770", "contact:website": "https://barmbekexpress.metro.bar", "indoor_seating": "yes", "name": "Barmbek Express", "opening_hours": "Mo-Th 10:30-24:00; Fr,Sa 10:30-01:00; Su 10:30-23:00", "outdoor_seating": "yes", "wheelchair": "limited"}}, {"type": "node", "id": 1941855961, "lat": 53.6021651, "lon": 9.8374561, "tags": {"amenity": "pub", "name": "Annie´s Bar"}}, {"type": "node", "id": 1946728813, "lat": 53.5940262, "lon": 9.869349, "tags": {"addr:city": "Hamburg", "addr:country": "DE", "addr:housenumber": "181", "addr:postcode": "22547", "addr:street": "Luruper Hauptstraße", "amenity": "pub", "indoor_seating": "yes", "name": "Pub in the City", "outdoor_seating": "yes", "wheelchair": "no"}}, {"type": "node", "id": 1979216193, "lat": 53.5486529, "lon": 9.992288, "tags": {"addr:city": "Hamburg", "addr:country": "DE", "addr:housenumber": "10", "addr:postcode": "20457", "addr:street": "Börsenbrücke", "amenity": "pub", "contact:phone": "+49 40 36093599", "contact:website": "https://www.irishpub-fleetenkieker.de", "name": "Irish Pub in the Fleetenkieker", "old_name": "Zum Fleeten-Kieker", "opening_hours": "Mo-Th 16:00-01:00; Fr,Sa,Su 12:00+", "wheelchair": "no"}}, {"type": "node", "id": 2043627481, "lat": 53.5465566, "lon": 10.1067409, "tags": {"addr:city": "Hamburg", "addr:country": "DE", "addr:housenumber": "70", "addr:postcode": "22119", "addr:street": "Schiffbeker Weg", "amenity": "pub", "brewery": "Astra", "name": "Bei Bärbel & Willi in Billstedt", "opening_hours": "Mo-We 16:00-23:00; Th,Fr 16:00-23:00+; Sa 11:00-18:00; Su 11:00-16:00"}}, {"type": "node", "id": 2058057087, "lat": 53.5559581, "lon": 10.0072266, "tags": {"amenity": "pub", "name": "Zum Alten Ritter von St. Georg", "opening_hours": "Mo-Su 17:00-05:00", "smoking": "yes", "wheelchair": "limited"}}, {"type": "node", "id": 2062136891, "lat": 53.5546053, "lon": 10.0827556, "tags": {"addr:housenumber": "278", "addr:postcode": "22111", "addr:street": "Horner Weg", "amenity": "pub", "check_date:opening_hours": "2024-04-09", "name": "Zum Kreisel", "opening_hours": "Mo-Fr 15:00-23:00+; Sa 15:00-23:00+", "wheelchair": "limited"}}, {"type": "node", "id": 2065596028, "lat": 53.5387072, "lon": 10.1221028, "tags": {"addr:city": "Hamburg", "addr:country": "DE", "addr:housenumber": "123", "addr:postcode": "22117", "addr:street": "Möllner Landstraße", "amenity": "pub", "name": "Sportsbar", "old_name": "123 Asia Lieferservice"}}, {"type": "node", "id": 2069527903, "lat": 53.5439586, "lon": 10.1384464, "tags": {"addr:city": "Hamburg", "addr:country": "DE", "addr:housenumber": "69", "addr:postcode": "22117", "addr:street": "Öjendorfer Höhe", "amenity": "pub", "name": "Konoba", "outdoor_seating": "yes"}}, {"type": "node", "id": 2070285781, "lat": 53.5559518, "lon": 9.9580599, "tags": {"amenity": "pub", "indoor_seating": "yes", "name": "Hummel & Quiddje", "opening_hours": "Mo-Sa 18:00-01:00", "outdoor_seating": "yes", "smoking": "outside", "source:name": "survey", "website": "http://www.hummelundquiddje.de", "wheelchair": "no"}}, {"type": "node", "id": 2070326026, "lat": 53.5529816, "lon": 9.963135, "tags": {"amenity": "pub", "indoor_seating": "yes", "name": "Crazy Horst", "opening_hours": "Mo-Th 21:00-04:00+, Fr,Sa 21:00-06:00+", "outdoor_seating": "no", "toilets:wheelchair": "no", "wheelchair": "limited"}}, {"type": "node", "id": 2082402985, "lat": 53.549799, "lon": 9.980166, "tags": {"addr:city": "Hamburg", "addr:country": "DE", "addr:housenumber": "45", "addr:postcode": "20459", "addr:street": "Großneumarkt", "amenity": "pub", "check_date": "2023-12-10", "contact:email": "hallo@wald-bar.de", "name": "Wald", "opening_hours": "We-Sa 17:00-23:00", "smoking": "no", "toilets:wheelchair": "no", "wheelchair": "limited"}}, {"type": "node", "id": 2146415386, "lat": 53.6407151, "lon": 10.2171714, "tags": {"amenity": "pub", "name": "Bierstein"}}, {"type": "node", "id": 2148881574, "lat": 53.5515756, "lon": 9.9254301, "tags": {"amenity": "pub", "brewery": "Jever", "check_date": "2023-06-11", "indoor_seating": "yes", "name": "Lais", "opening_hours": "Mo-Sa 16:00+; Su off", "outdoor_seating": "no", "wheelchair": "no"}}, {"type": "node", "id": 2151596411, "lat": 53.5514173, "lon": 9.9814291, "tags": {"amenity": "pub", "indoor_seating": "yes", "name": "Zur gemütlichen Bierstube", "outdoor_seating": "no"}}, {"type": "node", "id": 2252237416, "lat": 53.5666707, "lon": 9.9551092, "tags": {"amenity": "pub", "check_date": "2023-12-25", "check_date:opening_hours": "2023-09-24", "indoor_seating": "yes", "min_age": "18", "name:signed": "no", "opening_hours:signed": "no", "outdoor_seating": "no", "smoking": "yes", "wheelchair": "yes"}}, {"type": "node", "id": 2266884113, "lat": 53.4332781, "lon": 10.298208, "tags": {"amenity": "pub", "name": "Altengammer Fährhaus"}}, {"type": "node", "id": 2278745587, "lat": 53.5509128, "lon": 9.9610337, "tags": {"addr:city": "Hamburg", "addr:housenumber": "14", "addr:postcode": "20359", "addr:street": "Hamburger Berg", "amenity": "pub", "check_date": "2023-12-28", "name": "Bambi auf St. Pauli", "wheelchair": "no"}}, {"type": "node", "id": 2295952033, "lat": 53.5981832, "lon": 10.0021938, "tags": {"amenity": "pub", "internet_access": "no", "name": "Mäggis Eck", "smoking": "yes", "wheelchair": "no"}}, {"type": "node", "id": 2324861572, "lat": 53.5774623, "lon": 9.9444502, "tags": {"addr:housenumber": "53", "addr:street": "Sillemstraße", "amenity": "pub", "email": "buzzi@zzzischer.de", "indoor_seating": "yes", "name": "Zzzischer", "opening_hours": "Mo-Su 20:00-01:00", "outdoor_seating": "yes", "phone": "+494055775195", "website": "http://zzzischer.de"}}, {"type": "node", "id": 2324869005, "lat": 53.5808548, "lon": 9.9476908, "tags": {"amenity": "pub", "indoor_seating": "yes", "name": "Stones", "opening_hours": "We-Su 16:00+", "outdoor_seating": "yes"}}, {"type": "node", "id": 2398737201, "lat": 53.5931181, "lon": 10.0010657, "tags": {"amenity": "pub", "check_date": "2023-04-14", "check_date:opening_hours": "2023-11-20", "name": "Alte runde Ecke", "opening_hours": "PH,Mo-Su 11:00-02:00", "payment:credit_cards": "no", "payment:debit_cards": "no"}}, {"type": "node", "id": 2406056512, "lat": 53.5744688, "lon": 10.0689483, "tags": {"amenity": "pub", "email": "info@wabdsbecker.de", "name": "Wandsbeker Bothe", "opening_hours": "Mo-Th 16:00-24:00, Fr,Sa 16:00+; PH,Su closed", "outdoor_seating": "yes", "phone": "+49 176 34717121", "takeaway": "no", "website": "http://www.wandsbecker.de/"}}, {"type": "node", "id": 2410714455, "lat": 53.5586752, "lon": 10.0132469, "tags": {"addr:postcode": "20099", "amenity": "pub", "cuisine": "german", "diet:vegan": "yes", "indoor_seating": "yes", "name": "Frau Möller", "opening_hours": "Mo-Th 08:00-04:00; Fr-Sa 08:00-05:00; Su 08:00-03:00", "outdoor_seating": "yes", "payment:credit_cards": "no", "payment:debit_cards": "no", "phone": "+494025328817", "smoking": "no", "smoking:outside": "yes", "toilets:wheelchair": "no", "website": "https://fraumoeller.com/", "wheelchair": "limited", "wheelchair:description": "mobile Rampe vorhanden, muss allerdings erfragt werden."}}, {"type": "node", "id": 2417738030, "lat": 53.6880203, "lon": 10.0392382, "tags": {"addr:city": "Norderstedt", "addr:country": "DE", "addr:housenumber": "74", "addr:postcode": "22851", "addr:street": "Mittelstraße", "amenity": "pub", "branch": "Biergrube", "brand": "Schäfers", "brand:wikidata": "Q1464562", "name": "Schäfers", "opening_hours": "Mo-Sa 14:00-00:00; Su 16:00-00:00", "shop": "bakery"}}, {"type": "node", "id": 2425237803, "lat": 53.5865575, "lon": 10.017207, "tags": {"amenity": "pub", "indoor_seating": "yes", "name": "Edenhall", "opening_hours": "PH,Tu-Su 17:00-23:00+", "outdoor_seating": "yes", "payment:credit_cards": "no", "payment:debit_cards": "yes", "phone": "+49 40 277187", "website": "https://www.edenhall-hamburg.de/", "wheelchair": "limited"}}, {"type": "node", "id": 2442475456, "lat": 53.5484284, "lon": 9.959474, "tags": {"amenity": "pub", "check_date:opening_hours": "2024-04-21", "name": "Rock Café", "opening_hours:signed": "no", "toilets:wheelchair": "no", "wheelchair": "yes"}}, {"type": "node", "id": 2446675109, "lat": 53.4440969, "lon": 9.9990228, "tags": {"amenity": "pub", "name": "Cafe Pishkash"}}, {"type": "node", "id": 2499504610, "lat": 53.5597104, "lon": 9.9642885, "tags": {"addr:housenumber": "3", "addr:street": "Schanzenstraße", "amenity": "pub", "cuisine": "french", "description": "Croques, Pasta, Eintöpfe und Fußballübertragungen", "email": "bistroschanzelysee@gmail.com", "facebook": "https://www.facebook.com/schanzelysee/", "name": "Schanz-Elyseé", "opening_hours": "Mo-Th 12:00-23:00; PH,Su off", "operator": "Hamid Mirzabozor", "payment:credit_cards": "no", "payment:debit_cards": "yes", "phone": "+49 40 436424", "smoking": "outside", "wheelchair": "no"}}, {"type": "node", "id": 2531932825, "lat": 53.5455709, "lon": 9.9759587, "tags": {"amenity": "pub", "loc_name": "Bei Heidi", "name": "Cantinho do Antonio", "smoking": "yes", "wheelchair": "no"}}, {"type": "node", "id": 2533943571, "lat": 53.5501567, "lon": 9.9649692, "tags": {"addr:city": "Hamburg", "addr:housenumber": "49", "addr:postcode": "20359", "addr:street": "Detlev-Bremer-Straße", "amenity": "pub", "brewery": "yes", "cuisine": "burger;pizza;salad;sandwich", "name": "The Baby Goat Barn", "opening_hours": "Tu-Th 17:00-24:00; Fr 16:00-02:00; Sa 12:00-02:00; Su 12:00-23:00", "outdoor_seating": "yes", "real_ale": "yes", "website": "https://www.thebabygoat.de/pubs/the-barn"}}, {"type": "node", "id": 2534630379, "lat": 53.5874959, "lon": 10.0555219, "tags": {"addr:city": "Hamburg", "addr:country": "DE", "addr:housenumber": "55", "addr:postcode": "22305", "addr:street": "Wachtelstraße", "amenity": "pub", "check_date:opening_hours": "2023-07-28", "name": "Meisennest", "opening_hours": "Su-Th 16:00-23:00"}}, {"type": "node", "id": 2558286081, "lat": 53.6712526, "lon": 10.2391852, "tags": {"amenity": "pub", "name": "RamRob", "opening_hours": "Su-Th,PH 17:30-01:00, Fr,Sa 17:30-03:00", "wheelchair": "yes"}}, {"type": "node", "id": 2561919088, "lat": 53.4699463, "lon": 9.7911713, "tags": {"addr:city": "Neu Wulmstorf", "addr:country": "DE", "addr:housenumber": "68", "addr:postcode": "21629", "addr:street": "Bahnhofstraße", "amenity": "pub", "name": "Bockels-Bier-Bar", "opening_hours": "Mo,Th,Fr 17:00-23:00; Sa 18:00-23:00; Su 11:00-14:00,18:00-22:00"}}, {"type": "node", "id": 2603424799, "lat": 53.5991785, "lon": 9.9712966, "tags": {"addr:city": "Hamburg", "addr:country": "DE", "addr:housenumber": "3", "addr:postcode": "22529", "addr:street": "Offakamp", "amenity": "pub", "name": "Planet Billard"}}, {"type": "node", "id": 2624457948, "lat": 53.5741844, "lon": 9.9403476, "tags": {"amenity": "pub", "contact:phone": "+49 40 850 4321", "contact:website": "https://bier-kate.blogspot.com/", "indoor_seating": "yes", "microbrewery": "no", "name": "Bier-Kate", "opening_hours": "Mo-Fr 15:30+; Sa,Su off", "outdoor_seating": "no", "takeaway": "yes", "wheelchair": "no"}}, {"type": "node", "id": 2631836969, "lat": 53.6506507, "lon": 10.0973064, "tags": {"amenity": "pub", "check_date:opening_hours": "2023-08-22", "name": "Treffpunkt gemütliche Kneipe", "opening_hours": "Mo-Su 17:00-21:00+"}}, {"type": "node", "id": 2660274190, "lat": 53.46083, "lon": 9.9806064, "tags": {"addr:city": "Hamburg", "addr:country": "DE", "addr:housenumber": "20", "addr:postcode": "21073", "addr:street": "Harburger Ring", "amenity": "pub", "name": "Harburger Stube", "opening_hours": "Mo-Th 13:00-18:00+; Fr,Sa 12:00-18:00+"}}, {"type": "node", "id": 2685492754, "lat": 53.5369355, "lon": 10.1187983, "tags": {"addr:city": "Hamburg", "addr:housenumber": "13", "addr:postcode": "22117", "addr:street": "Oberschleems", "amenity": "pub", "brewery": "yes", "name": "Bei Angelika", "opening_hours": "Mo-Su 09:00-21:00", "smoking": "yes"}}, {"type": "node", "id": 2709275283, "lat": 53.5815227, "lon": 9.9704748, "tags": {"addr:city": "Hamburg", "addr:country": "DE", "addr:housenumber": "211", "addr:postcode": "20253", "addr:street": "Eppendorfer Weg", "amenity": "pub", "check_date": "2023-06-01", "name": "The Boilerman Bar", "opening_hours": "Mo-Sa 18:00-02:00, Su 18:00-24:00", "website": "https://www.boilerman.de/"}}, {"type": "node", "id": 2732927763, "lat": 53.4287427, "lon": 10.2068243, "tags": {"addr:city": "Hamburg", "addr:housenumber": "54", "addr:postcode": "21037", "addr:street": "Neuengammer Hinterdeich", "amenity": "pub", "name": "Gasthof Kücken", "phone": "040 7230691"}}, {"type": "node", "id": 2790798393, "lat": 53.5480276, "lon": 9.9625177, "tags": {"addr:city": "Hamburg", "addr:housenumber": "12", "addr:postcode": "20359", "addr:street": "Davidstraße", "amenity": "pub", "check_date": "2023-09-22", "check_date:opening_hours": "2023-12-30", "name": "Zum Anker", "opening_hours:signed": "no", "wheelchair": "limited"}}, {"type": "node", "id": 2907769783, "lat": 53.5946629, "lon": 10.0494557, "tags": {"addr:city": "Hamburg", "addr:country": "DE", "addr:housenumber": "106", "addr:postcode": "22307", "addr:street": "Habichtstraße", "amenity": "pub", "name": "Habicht 106", "opening_hours": "24/7", "opening_hours:signed": "no", "wheelchair": "yes"}}, {"type": "node", "id": 2915720976, "lat": 53.4611148, "lon": 9.9801811, "tags": {"amenity": "pub", "level": "1", "name": "Die Treppe", "opening_hours:signed": "no", "wheelchair": "yes"}}, {"type": "node", "id": 2919461598, "lat": 53.5674523, "lon": 9.9644894, "tags": {"addr:city": "Hamburg", "addr:housenumber": "45", "addr:postcode": "20357", "addr:street": "Weidenallee", "amenity": "pub", "check_date:opening_hours": "2023-06-09", "contact:phone": "+49 40 30711950", "indoor_seating": "yes", "name": "Bodega", "opening_hours:signed": "no", "outdoor_seating": "yes", "payment:american_express": "yes", "payment:apple_pay": "yes", "payment:cash": "yes", "payment:google_pay": "yes", "payment:maestro": "yes", "payment:mastercard": "yes", "payment:v_pay": "yes", "payment:visa": "yes", "wheelchair": "yes"}}, {"type": "node", "id": 2923567468, "lat": 53.6711043, "lon": 10.2347484, "tags": {"amenity": "pub", "name": "Asche"}}, {"type": "node", "id": 2997168633, "lat": 53.549597, "lon": 9.994209, "tags": {"addr:housenumber": "40", "addr:street": "Schauenburgerstraße", "amenity": "pub", "check_date": "2024-03-07", "contact:facebook": "https://www.facebook.com/irishpubhamburg", "indoor_seating": "yes", "microbrewery": "no", "name": "Paddys", "opening_hours": "Mo-Th 15:00-01:00; Fr-Sa 12:30+; Su 12:30-24:00", "outdoor_seating": "yes", "takeaway": "no", "theme": "irish", "website": "https://paddysbar-hamburg.com/", "wheelchair": "no"}}, {"type": "node", "id": 3003194759, "lat": 53.5485851, "lon": 9.9614565, "tags": {"addr:housenumber": "22", "addr:street": "Friedrichstraße", "amenity": "pub", "check_date:opening_hours": "2023-12-30", "contact:facebook": "https://www.facebook.com/rutsche/", "contact:instagram": "https://www.instagram.com/rutsche.hamburg/", "contact:website": "http://www.dierutsche.de/", "email": "info@dierutsche.de", "fee": "no", "name": "Rutsche", "opening_hours:signed": "no", "payment:cash": "yes", "payment:credit_cards": "no", "payment:cryptocurrencies": "no", "payment:debit_cards": "no", "payment:electronic_purses": "no", "phone": "+49 171 3197393", "smoking": "outside", "website:menu": "https://www.dierutsche.de/_files/ugd/88d1f6_858f7f00984b408f9409554b475ae603.pdf?index=true", "wheelchair": "no"}}, {"type": "node", "id": 3012490262, "lat": 53.5798324, "lon": 9.9487979, "tags": {"amenity": "pub", "check_date:opening_hours": "2023-07-03", "indoor_seating": "yes", "name": "Behr", "opening_hours:signed": "no", "outdoor_seating": "yes", "wheelchair": "no"}}, {"type": "node", "id": 3077517875, "lat": 53.579345, "lon": 9.9423147, "tags": {"addr:city": "Hamburg", "addr:housenumber": "14", "addr:postcode": "20257", "addr:street": "Sartoriusstraße", "amenity": "pub", "email": "office@urknall-hh.de", "indoor_seating": "yes", "name": "Urknall", "opening_hours": "Mo-Fr 16:00-23:00+; Sa,Su 11:30-24:00+", "outdoor_seating": "yes", "phone": "+49 40 4014585", "website": "https://www.urknall-hh.de/"}}, {"type": "node", "id": 3081687673, "lat": 53.5549153, "lon": 10.0133212, "tags": {"addr:city": "Hamburg", "addr:housenumber": "5", "addr:postcode": "20099", "addr:street": "Brennerstraße", "amenity": "pub", "name": "Wolle&Toddy"}}, {"type": "node", "id": 3093507577, "lat": 53.5646716, "lon": 9.9766806, "tags": {"amenity": "pub", "name": "Ratsherrn Klause", "smoking": "yes"}}, {"type": "node", "id": 3095935676, "lat": 53.4703665, "lon": 9.8540946, "tags": {"addr:city": "Hamburg", "addr:country": "DE", "addr:housenumber": "16", "addr:postcode": "21149", "addr:street": "Neugrabener Bahnhofstraße", "amenity": "pub", "indoor_seating": "yes", "name": "Holsten Quelle", "opening_hours": "Mo-Th 11:00-21:00; Fr 03:00-23:59+; Sa 10:00-15:00", "outdoor_seating": "yes", "smoking": "yes"}}, {"type": "node", "id": 3096116408, "lat": 53.580787, "lon": 9.9445389, "tags": {"amenity": "pub", "indoor_seating": "yes", "name": "Samos Cafe Bar", "opening_hours:signed": "no", "outdoor_seating": "yes"}}, {"type": "node", "id": 3124511499, "lat": 53.5672521, "lon": 10.0226918, "tags": {"amenity": "pub", "check_date:opening_hours": "2022-08-29", "name": "Pub 34", "opening_hours": "PH,Mo-Su 16:00+"}}, {"type": "node", "id": 3139335725, "lat": 53.5826888, "lon": 9.9358798, "tags": {"addr:city": "Hamburg", "addr:country": "DE", "addr:housenumber": "86a", "addr:postcode": "22525", "addr:street": "Langenfelder Damm", "amenity": "pub", "indoor_seating": "yes", "name": "Crazy Devils", "opening_hours": "Tu-Sa 14:00-23:00; Mo off, Su 11:00+", "outdoor_seating": "yes", "smoking": "yes", "wheelchair": "yes"}}, {"type": "node", "id": 3139335728, "lat": 53.581437, "lon": 9.9381878, "tags": {"amenity": "pub", "check_date:opening_hours": "2023-07-19", "indoor_seating": "yes", "name": "Jokers Bar", "opening_hours": "Tu-Th 18:00-02:00, Fr,Sa 18:00-04:00", "opening_hours:signed": "no", "outdoor_seating": "yes"}}, {"type": "node", "id": 3167554075, "lat": 53.4415015, "lon": 9.9929977, "tags": {"amenity": "pub", "name": "Wilstorfer friends Bar"}}, {"type": "node", "id": 3323888331, "lat": 53.5898223, "lon": 9.9189509, "tags": {"amenity": "pub", "name": "unabsteigBar"}}, {"type": "node", "id": 3405439203, "lat": 53.5508544, "lon": 9.9610381, "tags": {"addr:city": "Hamburg", "addr:country": "DE", "addr:housenumber": "14", "addr:postcode": "20359", "addr:street": "Hamburger Berg", "amenity": "pub", "check_date": "2023-12-28", "contact:facebook": "https://www.facebook.com/HongKongHotel", "description": "Hotelbar", "internet_access": "no", "name": "Hotel Hongkong", "old_name": "Hongkong Hotel"}}, {"type": "node", "id": 3422030193, "lat": 53.5426399, "lon": 10.0291573, "tags": {"addr:city": "Hamburg", "addr:country": "DE", "addr:housenumber": "27", "addr:postcode": "20097", "addr:street": "Grüner Deich", "amenity": "pub", "check_date": "2023-06-23", "name": "Deichklause", "phone": "+49 40 231890"}}, {"type": "node", "id": 3426805365, "lat": 53.5635781, "lon": 10.0328065, "tags": {"addr:city": "Hamburg", "addr:country": "DE", "addr:housenumber": "96", "addr:postcode": "22087", "addr:street": "Güntherstraße", "air_conditioning": "no", "amenity": "pub", "contact:facebook": "https://www.facebook.com/pages/Neuer-Felsenkeller/434126310050033?rf=177880488903736", "contact:phone": "+49 40 76976637", "indoor_seating": "yes", "name": "Neuer Felsenkeller", "opening_hours": "Mo-Sa,PH 15:00+; Su 17:00+", "outdoor_seating": "no", "payment:credit_cards": "no", "payment:debit_cards": "no", "wheelchair": "no"}}, {"type": "node", "id": 3508971331, "lat": 53.5935662, "lon": 10.0465156, "tags": {"addr:housenumber": "6", "addr:street": "Heidhörn", "amenity": "pub", "check_date:opening_hours": "2022-12-06", "indoor_seating": "yes", "name": "Schwalben Eck", "opening_hours": "Mo-Th 12:00-23:00; Sa 11:00-24:00; Su 11:00-23:00; Fr 12:00-24:00", "outdoor_seating": "yes", "wheelchair": "yes"}}, {"type": "node", "id": 3518800263, "lat": 53.5511031, "lon": 9.9624949, "tags": {"addr:city": "Hamburg", "addr:country": "DE", "addr:housenumber": "87", "addr:postcode": "20359", "addr:street": "Simon-von-Utrecht-Straße", "amenity": "pub", "min_age": "18", "name": "St. Pauli Eck", "smoking": "dedicated"}}, {"type": "node", "id": 3597178525, "lat": 53.5574988, "lon": 9.9691164, "tags": {"amenity": "pub", "check_date:opening_hours": "2023-11-05", "name": "Libero", "opening_hours:signed": "no"}}, {"type": "node", "id": 3604847129, "lat": 53.5822839, "lon": 10.0640098, "tags": {"amenity": "pub", "name": "DulsBar"}}, {"type": "node", "id": 3606658634, "lat": 53.5912133, "lon": 10.0389834, "tags": {"amenity": "pub", "indoor_seating": "yes", "name": "Ellewitt", "opening_hours": "Mo-Th 16:00-24:00, Fr,Sa 16:00-02:00+", "outdoor_seating": "yes", "website": "https://www.ellewitt.de/"}}, {"type": "node", "id": 3609864330, "lat": 53.5803634, "lon": 10.0686509, "tags": {"amenity": "pub", "check_date:opening_hours": "2021-12-16", "name": "Bei Pavlos", "opening_hours": "Mo-Fr 11:00+, Sa,Su 11:00+"}}, {"type": "node", "id": 3656956599, "lat": 53.552416, "lon": 9.9378259, "tags": {"amenity": "pub", "check_date:opening_hours": "2023-11-03", "name": "Bergkate", "opening_hours:signed": "no"}}, {"type": "node", "id": 3656956600, "lat": 53.5524699, "lon": 9.9382674, "tags": {"addr:city": "Hamburg", "addr:country": "DE", "addr:housenumber": "1", "addr:postcode": "22767", "addr:street": "Lamplweg", "amenity": "pub", "name": "Bodega", "opening_hours": "Mo-Su 12:00-24:00+", "smoker": "yes", "wheelchair": "no"}}, {"type": "node", "id": 3660822813, "lat": 53.5775015, "lon": 10.0593977, "tags": {"amenity": "pub", "check_date": "2023-08-05", "name": "Haak", "opening_hours": "Mo-Su 17:00-24:00"}}, {"type": "node", "id": 3663810719, "lat": 53.5781963, "lon": 9.941955, "tags": {"amenity": "pub", "indoor_seating": "yes", "name": "Crazy Angels", "opening_hours:signed": "no", "outdoor_seating": "yes", "phone": "+494043215822"}}, {"type": "node", "id": 3664705943, "lat": 53.5776649, "lon": 9.9420934, "tags": {"amenity": "pub", "name": "Aurora", "opening_hours": "Mo-Th 14:00+; Fr,Sa 10:00+", "phone": "+49 40 8509537", "smoking": "no", "wheelchair": "no"}}, {"type": "node", "id": 3670653698, "lat": 53.579757, "lon": 9.9399782, "tags": {"addr:city": "Hamburg", "addr:housenumber": "108", "addr:postcode": "20257", "addr:street": "Sillemstraße", "amenity": "pub", "brewery": "yes", "indoor_seating": "yes", "microbrewery": "no", "min_age": "18", "name": "Frau Hiebel", "opening_hours": "Mo-Fr 11:00+; Sa 12:00+; Su off", "opening_hours:signed": "no", "outdoor_seating": "yes", "smoking": "yes", "wheelchair": "no"}}, {"type": "node", "id": 3672023975, "lat": 53.5779891, "lon": 9.9478891, "tags": {"addr:city": "Hamburg", "addr:country": "DE", "addr:housenumber": "23", "addr:postcode": "20255", "addr:street": "Hellkamp", "amenity": "pub", "indoor_seating": "yes", "name": "Kuddl", "opening_hours": "18:00+", "opening_hours:signed": "no", "operator": "Herr Emre Aktas", "outdoor_seating": "yes", "phone": "+49 40 40 34 67", "toilets:wheelchair": "no", "wheelchair": "yes"}}, {"type": "node", "id": 3675471824, "lat": 53.5532817, "lon": 9.9989146, "tags": {"amenity": "pub", "check_date": "2024-02-27", "name": "Destille", "opening_hours": "We-Fr 16:00-21:00+"}}, {"type": "node", "id": 3688386317, "lat": 53.5780364, "lon": 9.9510345, "tags": {"amenity": "pub", "check_date:opening_hours": "2023-05-01", "indoor_seating": "yes", "name": "Chrissis", "opening_hours": "Mo-Su 17:00-02:00", "outdoor_seating": "no", "wheelchair": "no"}}, {"type": "node", "id": 3694147670, "lat": 53.5704417, "lon": 9.9957461, "tags": {"amenity": "pub", "name": "Bierkrug", "wheelchair": "limited"}}, {"type": "node", "id": 3696097573, "lat": 53.5790555, "lon": 9.9500457, "tags": {"amenity": "pub", "check_date:opening_hours": "2023-07-02", "indoor_seating": "yes", "name": "Arians Pub", "opening_hours:signed": "no", "outdoor_seating": "yes", "wheelchair": "limited"}}, {"type": "node", "id": 3703108533, "lat": 53.5514541, "lon": 9.9300699, "tags": {"amenity": "pub", "check_date": "2023-05-25", "check_date:opening_hours": "2023-06-20", "indoor_seating": "yes", "internet_access": "wlan", "name": "Marktschänke", "opening_hours:signed": "no", "outdoor_seating": "yes", "wheelchair": "no"}}, {"type": "node", "id": 3715499181, "lat": 53.5828311, "lon": 9.948229, "tags": {"amenity": "pub", "name": "Sports Lounge", "wheelchair": "yes"}}, {"type": "node", "id": 3767392665, "lat": 53.5500558, "lon": 9.966074, "tags": {"addr:housenumber": "25", "addr:street": "Reeperbahn", "amenity": "pub", "check_date:opening_hours": "2023-12-17", "name": "Cowboy & Indianer", "opening_hours:signed": "no", "outdoor_seating": "yes"}}, {"type": "node", "id": 3775016295, "lat": 53.5505851, "lon": 9.9647007, "tags": {"addr:city": "Hamburg", "addr:country": "DE", "addr:housenumber": "46", "addr:postcode": "20359", "addr:street": "Detlev-Bremer-Straße", "amenity": "pub", "name": "Tippel II", "payment:cash": "yes", "payment:credit_cards": "no", "payment:debit_cards": "no", "smoking": "yes", "wheelchair": "no"}}, {"type": "node", "id": 3775047259, "lat": 53.551706, "lon": 9.9654058, "tags": {"addr:housenumber": "21", "addr:street": "Detlev-Bremer-Straße", "amenity": "pub", "check_date": "2023-12-28", "internet_access": "wlan", "name": "St. Pauli Treff", "smoking": "yes"}}, {"type": "node", "id": 3779734545, "lat": 53.5481164, "lon": 9.9631813, "tags": {"addr:housenumber": "34", "addr:street": "Hopfenstraße", "amenity": "pub", "contact:website": "http://www.honky-tonk-hamburg.de/", "name": "Honky Tonk Music Pub", "opening_hours": "We-Sa 20:00+", "wheelchair": "no"}}, {"type": "node", "id": 3787562592, "lat": 53.5500429, "lon": 9.9659638, "tags": {"addr:housenumber": "29", "addr:street": "Reeperbahn", "amenity": "pub", "contact:website": "http://www.shishacafe.net/lima-lima.html", "name": "Lima Lima", "opening_hours": "17:00+", "smoking": "yes"}}, {"type": "node", "id": 3787637959, "lat": 53.5543223, "lon": 10.0100872, "tags": {"addr:housenumber": "22a", "addr:street": "Ellmenreichstraße", "amenity": "pub", "name": "Zar und Zimmermann"}}, {"type": "node", "id": 3789710142, "lat": 53.5485731, "lon": 9.9611604, "tags": {"amenity": "pub", "check_date:opening_hours": "2023-10-29", "name": "Hans-Albers-Eck", "opening_hours:signed": "no", "smoking": "yes"}}, {"type": "node", "id": 3789710143, "lat": 53.5485642, "lon": 9.9613295, "tags": {"amenity": "pub", "email": "info@murphys-hh.de", "name": "Murphy´s Irish Pup", "opening_hours": "Mo,Tu 20:00+, We 19:00+, Th 18:00+, Fr,Sa 11:00+, Su 15:00+; PH closed", "operator": "S.F.R. Gaststaettenbetriebs GmbH", "phone": "+49 40 31975581", "smoking": "yes", "website": "http://www.murphys-hh.de/"}}, {"type": "node", "id": 3805140485, "lat": 53.5506274, "lon": 9.9600101, "tags": {"amenity": "pub", "check_date:opening_hours": "2024-04-16", "indoor_seating": "yes", "lgbtq:trans": "primary", "name": "Utspann", "opening_hours:signed": "no", "outdoor_seating": "yes"}}, {"type": "node", "id": 3805275257, "lat": 53.5557198, "lon": 10.0619451, "tags": {"addr:city": "Hamburg", "addr:housenumber": "50", "addr:postcode": "20535", "addr:street": "Horner Weg", "amenity": "pub", "check_date": "2023-09-10", "indoor_seating": "yes", "name": "Hammer Eck", "opening_hours": "Mo-Th 15:00-23:00; Fr 13:00-23:00; Su 12:00-22:00; Sa 12:00-23:00", "outdoor_seating": "yes", "payment:credit_cards": "no", "payment:debit_cards": "no", "smoking": "yes", "toilets:wheelchair": "no", "wheelchair": "limited"}}, {"type": "node", "id": 3807464389, "lat": 53.5459666, "lon": 9.9870261, "tags": {"addr:city": "Hamburg", "addr:country": "DE", "addr:housenumber": "36", "addr:postcode": "20459", "addr:street": "Deichstraße", "amenity": "pub", "contact:facebook": "TheBohemianHH", "contact:phone": "+49 40 55544782", "contact:website": "https://thebohemian.de", "name": "The Bohemian", "opening_hours": "Mo-Th 18:00-01:00; Fr 18:00-02:00; Sa 15:00-02:00", "outdoor_seating": "yes", "payment:cash": "yes", "payment:girocard": "yes", "wheelchair": "no"}}, {"type": "node", "id": 3831204657, "lat": 53.5828058, "lon": 9.9807225, "tags": {"addr:city": "Hamburg", "addr:country": "DE", "addr:housenumber": "1", "addr:postcode": "20251", "addr:street": "Hegestraße", "amenity": "pub", "brewery": "yes", "name": "Gaststätte Schröder", "opening_hours": "PH,Mo-Su 16:00-02:00", "outdoor_seating": "yes", "smoking": "yes", "wheelchair": "limited"}}, {"type": "node", "id": 3838117242, "lat": 53.5537927, "lon": 10.0869946, "tags": {"addr:city": "Hamburg", "addr:country": "DE", "addr:housenumber": "32d", "addr:postcode": "22111", "addr:street": "Rennbahnstraße", "amenity": "pub", "check_date:opening_hours": "2024-05-03", "name": "Horner Marie", "opening_hours": "Mo-Sa 14:00-18:00+", "phone": "+49 40 6517485"}}, {"type": "node", "id": 3880793641, "lat": 53.598335, "lon": 10.0928021, "tags": {"amenity": "pub", "name": "Treffpunkt"}}, {"type": "node", "id": 3934798543, "lat": 53.5861867, "lon": 10.0171115, "tags": {"amenity": "pub", "check_date": "2023-06-10", "check_date:opening_hours": "2024-02-18", "name": "Clax", "opening_hours": "Mo-Th 19:00-03:00, Fr,Sa 19:00-05:00"}}, {"type": "node", "id": 3935562757, "lat": 53.5914206, "lon": 10.0482209, "tags": {"addr:city": "Hamburg", "addr:country": "DE", "addr:housenumber": "70", "addr:street": "Hellbrookstraße", "amenity": "pub", "check_date:opening_hours": "2023-05-31", "name": "Jannis Treff", "opening_hours": "Mo-Th 15:00-23:00; Fr,Sa 13:00-24:00; Su 13:00+"}}, {"type": "node", "id": 3942090514, "lat": 53.6811905, "lon": 9.999769, "tags": {"addr:city": "Hamburg", "addr:housenumber": "13", "addr:postcode": "22419", "addr:street": "Schmuggelstieg", "amenity": "pub", "name": "Bierkrug"}}, {"type": "node", "id": 3980767352, "lat": 53.6839085, "lon": 9.9962844, "tags": {"addr:city": "Norderstedt", "addr:housenumber": "17a", "addr:postcode": "22850", "addr:street": "Breslauer Straße", "amenity": "pub", "name": "Destille", "opening_hours": "Su 14:00+"}}, {"type": "node", "id": 3982083035, "lat": 53.5890168, "lon": 10.0502811, "tags": {"amenity": "pub", "contact:facebook": "100054340488720", "name": "Wachtel Eck", "opening_hours": "(vorerst) geschlossen", "outdoor_seating": "yes", "phone": "+49 40 63640130"}}, {"type": "node", "id": 4022132544, "lat": 53.5498573, "lon": 9.961507, "tags": {"addr:city": "Hamburg", "addr:housenumber": "38", "addr:postcode": "20359", "addr:street": "Hamburger Berg", "amenity": "pub", "brewery": "yes", "email": "elbschlosskeller@web.de", "name": "Elbschlosskeller", "opening_hours": "24/7", "smoking": "yes", "website": "https://elbschlosskeller.de", "wheelchair": "no", "wikidata": "Q54268521", "wikipedia": "de:Elbschlosskeller"}}, {"type": "node", "id": 4022139682, "lat": 53.550013, "lon": 9.9611095, "tags": {"addr:city": "Hamburg", "addr:housenumber": "2", "addr:postcode": "20359", "addr:street": "Hamburger Berg", "amenity": "pub", "brewery": "yes", "check_date": "2023-12-28", "name": "Zum Goldenen Handschuh", "opening_hours": "Mo-Su 00:00-16:00; Mo-Su 18:00-24:00", "smoking": "yes", "wheelchair": "no", "wikidata": "Q58443136"}}, {"type": "node", "id": 4075785941, "lat": 53.5496557, "lon": 9.9662613, "tags": {"amenity": "pub", "name": "Olivias Kiez Oase"}}, {"type": "node", "id": 4116000226, "lat": 53.6833503, "lon": 9.9874602, "tags": {"addr:city": "Norderstedt", "addr:housenumber": "8", "addr:postcode": "22850", "addr:street": "Europaallee", "amenity": "pub", "check_date:opening_hours": "2022-08-22", "indoor_seating": "yes", "name": "Bistro Europa", "opening_hours:signed": "no", "outdoor_seating": "no"}}, {"type": "node", "id": 4144366153, "lat": 53.4573826, "lon": 9.985589, "tags": {"addr:city": "Hamburg", "addr:country": "DE", "addr:housenumber": "1", "addr:postcode": "21073", "addr:street": "Seevepassage", "amenity": "pub", "check_date": "2024-03-14", "indoor_seating": "yes", "name": "Bla Bla", "outdoor_seating": "yes", "source": "survey"}}, {"type": "node", "id": 4144383201, "lat": 53.4537338, "lon": 9.9874123, "tags": {"addr:city": "Hamburg", "addr:country": "DE", "addr:housenumber": "2a", "addr:postcode": "21073", "addr:street": "Baererstraße", "amenity": "pub", "name": "Sandzak Klub Hamburg", "source": "survey"}}, {"type": "node", "id": 4144383862, "lat": 53.4553481, "lon": 9.9870227, "tags": {"addr:city": "Hamburg", "addr:country": "DE", "addr:housenumber": "70", "addr:postcode": "21073", "addr:street": "Wilstorfer Straße", "amenity": "pub", "check_date": "2024-03-13", "name": "Portugal Fanclub", "source": "survey"}}, {"type": "node", "id": 4144383869, "lat": 53.4546032, "lon": 9.9872804, "tags": {"addr:city": "Hamburg", "addr:country": "DE", "addr:housenumber": "82", "addr:postcode": "21073", "addr:street": "Wilstorfer Straße", "amenity": "pub", "check_date": "2024-03-13", "name": "Corner", "name:fa": "کرنر", "source": "survey"}}, {"type": "node", "id": 4184483653, "lat": 53.7217241, "lon": 10.0143918, "tags": {"amenity": "pub", "name": "Die Kleine Kneipe"}}, {"type": "node", "id": 4208015491, "lat": 53.5573538, "lon": 9.972618, "tags": {"amenity": "pub", "name": "Klick", "opening_hours": "Tu-Th 17:00-24:00, Fr 16:00-02:00, Sa 12:30-02:00, Su 12:30-22:00", "phone": "+49 40 4300280"}}, {"type": "node", "id": 4208033789, "lat": 53.5572197, "lon": 9.9723072, "tags": {"addr:city": "Hamburg", "addr:housenumber": "47", "addr:street": "Feldstraße", "amenity": "pub", "level": "-1", "microbrewery": "no", "name": "Kitty", "opening_hours": "Mo-do 18:00-02:00; Fr-Sa 18:00-04:00", "smoking": "dedicated", "website": "https://www.the-kitty.de", "wheelchair": "no"}}, {"type": "node", "id": 4241769845, "lat": 53.5486309, "lon": 9.962411, "tags": {"amenity": "pub", "check_date": "2024-04-15", "check_date:opening_hours": "2024-04-21", "name": "Pils Börse", "opening_hours:signed": "no", "wheelchair": "no"}}, {"type": "node", "id": 4241770290, "lat": 53.5489297, "lon": 9.9623297, "tags": {"amenity": "pub", "check_date": "2023-09-22", "name": "David Quelle", "opening_hours": "Mo-Su 09:30-02:00"}}, {"type": "node", "id": 4241770589, "lat": 53.5487003, "lon": 9.9624012, "tags": {"amenity": "pub", "check_date": "2023-09-22", "check_date:opening_hours": "2024-04-21", "name": "Journal", "opening_hours:signed": "no", "wheelchair": "no"}}, {"type": "node", "id": 4243017206, "lat": 53.5472607, "lon": 9.9565168, "tags": {"amenity": "pub", "name": "Doppelschicht"}}, {"type": "node", "id": 4247392547, "lat": 53.6329186, "lon": 10.054694, "tags": {"addr:city": "Hamburg", "addr:housenumber": "35a", "addr:postcode": "22337", "addr:street": "Tornberg", "amenity": "pub", "name": "Borsteler Treff", "opening_hours": "Mo-Sa 17:00-24:00", "phone": "+49 40 505759", "website": "https://www.borsteler-treff.de/", "wheelchair": "no"}}, {"type": "node", "id": 4317407706, "lat": 53.6090169, "lon": 9.9038822, "tags": {"amenity": "pub", "name": "Gießkanne"}}, {"type": "node", "id": 4318843595, "lat": 53.6088273, "lon": 9.9043328, "tags": {"amenity": "pub", "name": "im treff punkt"}}, {"type": "node", "id": 4319965099, "lat": 53.6050437, "lon": 9.9492876, "tags": {"addr:housenumber": "42a", "addr:street": "Hinter der Lieth", "amenity": "pub", "check_date:opening_hours": "2023-09-11", "indoor_seating": "yes", "name": "Kamin", "opening_hours:signed": "no", "outdoor_seating": "yes", "wheelchair": "no"}}, {"type": "node", "id": 4360087006, "lat": 53.6296141, "lon": 10.0221781, "tags": {"amenity": "pub", "check_date": "2023-06-04", "name": "Unicum", "opening_hours": "Mo-Th 12:00-22:00; Su 15:00-21:00; Sa 12:00", "wheelchair": "no"}}, {"type": "node", "id": 4377983782, "lat": 53.6481351, "lon": 10.0152882, "tags": {"amenity": "pub", "indoor_seating": "yes", "name": "Marktstübchen", "outdoor_seating": "yes"}}, {"type": "node", "id": 4389100393, "lat": 53.5502456, "lon": 9.9808297, "tags": {"alt_name": "Schmales Handtuch", "amenity": "pub", "name": "Mickys Bier & Cocktailbar", "opening_hours": "Tu-Sa 18:00-24:00, Su,Mo off", "wheelchair": "no"}}, {"type": "node", "id": 4403337175, "lat": 53.5597105, "lon": 9.8879997, "tags": {"amenity": "pub", "check_date:opening_hours": "2023-09-02", "indoor_seating": "yes", "name": "Köpi-Bar", "opening_hours": "Mo-Su 15:00-18:00+", "opening_hours:signed": "no", "outdoor_seating": "no", "payment:credit_cards": "yes", "payment:debit_cards": "yes", "wheelchair": "limited"}}, {"type": "node", "id": 4406623097, "lat": 53.5888419, "lon": 10.0445898, "tags": {"addr:city": "Hamburg", "addr:country": "DE", "addr:housenumber": "26", "addr:postcode": "22305", "addr:street": "Drosselstraße", "amenity": "pub", "contact:facebook": "https://www.facebook.com/pages/Die-Drossel/128331500586585", "contact:phone": "+49 40 294760", "indoor_seating": "yes", "name": "Die Drossel", "opening_hours": "24/7", "outdoor_seating": "no", "smoking": "yes"}}, {"type": "node", "id": 4415553544, "lat": 53.5607601, "lon": 9.9597982, "tags": {"amenity": "pub", "indoor_seating": "yes", "name": "Lomo", "opening_hours:signed": "no", "outdoor_seating": "yes", "wheelchair": "yes"}}, {"type": "node", "id": 4421243421, "lat": 53.582488, "lon": 9.9771797, "tags": {"amenity": "pub", "name": "Falkenstübchen"}}, {"type": "node", "id": 4558149886, "lat": 53.4849352, "lon": 10.0195171, "tags": {"amenity": "pub"}}, {"type": "node", "id": 4572862511, "lat": 53.5682232, "lon": 9.9951557, "tags": {"addr:city": "Hamburg", "addr:country": "DE", "addr:housenumber": "27", "addr:postcode": "20148", "addr:street": "Mittelweg", "amenity": "pub", "cuisine": "british", "name": "Kemps", "opening_hours": "Mo-Sa 18:00-23:30", "website": "http://www.kempspub.de/"}}, {"type": "node", "id": 4692609491, "lat": 53.5490195, "lon": 9.9597611, "tags": {"amenity": "pub", "name": "Zum Rettungsring", "opening_hours": "24/7", "phone": "+49 40 313863", "website": "https://zum-rettungsring.de/"}}, {"type": "node", "id": 4726386240, "lat": 53.5708004, "lon": 10.1233463, "tags": {"amenity": "pub", "name": "Sportsbar"}}, {"type": "node", "id": 4743835872, "lat": 53.557316, "lon": 9.9656747, "tags": {"addr:housenumber": "9", "addr:street": "Neuer Kamp", "amenity": "pub", "contact:facebook": "https://www.facebook.com/zoosanktpauli", "contact:instagram": "https://www.instagram.com/zoostpauli/", "name": "Zoo Bar"}}, {"type": "node", "id": 4756648773, "lat": 53.516169, "lon": 9.9850414, "tags": {"addr:city": "Hamburg", "addr:housenumber": "62", "addr:postcode": "21107", "addr:street": "Fährstraße", "amenity": "pub", "name": "Pablos", "old_name": "Pakalolo", "wheelchair": "no"}}, {"type": "node", "id": 4763457030, "lat": 53.5682878, "lon": 10.0515619, "tags": {"amenity": "pub", "check_date": "2023-07-23", "indoor_seating": "yes", "name": "Paddys Bar", "opening_hours": "Mo-Sa 15:00-23:00", "outdoor_seating": "yes"}}, {"type": "node", "id": 4783321850, "lat": 53.5646902, "lon": 9.9591985, "tags": {"addr:city": "Hamburg", "addr:housenumber": "121", "addr:postcode": "20357", "addr:street": "Schulterblatt", "amenity": "pub", "name": "Büdel’s Bierdeckel", "opening_hours": "Mo-Sa 15:00+", "smoking": "yes", "source": "rocketbeanstv", "wheelchair": "yes"}}, {"type": "node", "id": 4825827273, "lat": 53.6062892, "lon": 9.9001144, "tags": {"amenity": "pub", "name": "Elbgau Pub"}}, {"type": "node", "id": 4866949329, "lat": 53.5573154, "lon": 9.9715177, "tags": {"amenity": "pub", "email": "kleinesphi@gmail.com", "name": "Das kleine Phi", "opening_hours": "Tu-Th 18:00-01:00; Fr-Sa 18:00-03:00"}}, {"type": "node", "id": 4922067262, "lat": 53.5878549, "lon": 9.9692119, "tags": {"amenity": "pub", "name": "Victoria Klause", "opening_hours": "Mo-Su 16:30-01:00", "website": "http://sc-victoria.de/verein/verein/victoria-klause/"}}, {"type": "node", "id": 4925162245, "lat": 53.5481244, "lon": 9.9628891, "tags": {"amenity": "pub", "check_date:opening_hours": "2023-12-16", "name": "Zum Windjammer", "opening_hours": "Tu-Th 21:00-24:00", "opening_hours:signed": "no", "wheelchair": "no"}}, {"type": "node", "id": 4925162557, "lat": 53.5482604, "lon": 9.9624719, "tags": {"amenity": "pub", "check_date": "2024-04-15", "check_date:opening_hours": "2024-04-21", "name": "Anleger 15", "opening_hours:signed": "no"}}, {"type": "node", "id": 4942903532, "lat": 53.5605731, "lon": 9.9669496, "tags": {"amenity": "pub", "name": "Bei Marina", "opening_hours": "Mo off", "source:opening_hours": "https://www.openstreetmap.org/note/3139614"}}, {"type": "node", "id": 4942970527, "lat": 53.5551053, "lon": 9.954799, "tags": {"amenity": "pub", "name": "Sunfood Bistro", "opening_hours:signed": "no"}}, {"type": "node", "id": 4950742210, "lat": 53.6151051, "lon": 9.8649468, "tags": {"addr:street": "Siebentunnelweg", "amenity": "pub", "name": "Tunnelklause", "wheelchair": "limited"}}, {"type": "node", "id": 5026766024, "lat": 53.5523124, "lon": 9.9628928, "tags": {"amenity": "pub", "indoor_seating": "yes", "name": "Pamukkale", "name:de": "Pamukkale", "outdoor_seating": "no"}}, {"type": "node", "id": 5040711914, "lat": 53.5574633, "lon": 9.9662757, "tags": {"amenity": "pub", "indoor_seating": "yes", "name": "Meine Kleinraumdisko", "opening_hours": "Tu-Th 18:00-02:00, Fr,Sa 18:00-04:00", "outdoor_seating": "no", "website": "https://www.krd-kleinraumdisko.de/", "wheelchair": "no"}}, {"type": "node", "id": 5056117583, "lat": 53.4901523, "lon": 10.208032, "tags": {"amenity": "pub", "name": "Engel"}}, {"type": "node", "id": 5058433026, "lat": 53.5555213, "lon": 9.9831401, "tags": {"amenity": "pub", "check_date:opening_hours": "2023-09-07", "internet_access": "wlan", "internet_access:fee": "no", "name": "Das grüne Leuchten", "name:de": "Das grüne Leuchten", "opening_hours:signed": "no", "smoking": "yes"}}, {"type": "node", "id": 5142925452, "lat": 53.5482812, "lon": 9.9559785, "tags": {"addr:city": "Hamburg", "addr:housenumber": "2a", "addr:postcode": "20359", "addr:street": "Herrenweide", "amenity": "pub", "brewery": "yes", "name": "Holsten-Schwemme", "opening_hours": "Mo-Th 10:00-01:00; Fr 10:00-03:00; Sa 10:00-04:00; Su 08:00-01:00", "phone": "+4940-316895", "smoking": "yes", "website": "https://holstenschwemme.eatbu.com/?lang=de"}}, {"type": "node", "id": 5172798955, "lat": 53.553881, "lon": 9.9602103, "tags": {"addr:city": "Hamburg", "addr:country": "DE", "addr:housenumber": "27", "addr:postcode": "22767", "addr:street": "Bleicherstraße", "amenity": "pub", "name": "Tortuga Bar", "opening_hours": "Mo-Fr 17:00+; Sa 19:00+; Su off", "website": "http://www.tortuga-bar.com", "wheelchair": "yes"}}, {"type": "node", "id": 5172815425, "lat": 53.5529365, "lon": 9.9565778, "tags": {"addr:city": "Hamburg", "addr:country": "DE", "addr:housenumber": "3", "addr:postcode": "22767", "addr:street": "Kleine Freiheit", "amenity": "pub", "name": "Kleine Freiheit No. 3", "opening_hours:signed": "no"}}, {"type": "node", "id": 5250296416, "lat": 53.5499774, "lon": 9.9652756, "tags": {"amenity": "pub", "contact:website": "http://klapsmühle-hamburg.de/", "name": "Klapsmühle", "opening_hours": "Su-Th 18:00-02:00; Fr-Sa 16:00-04:00"}}, {"type": "node", "id": 5254733338, "lat": 53.5450024, "lon": 10.0977432, "tags": {"amenity": "pub", "name": "Rustikate"}}, {"type": "node", "id": 5282350252, "lat": 53.5088054, "lon": 10.1863801, "tags": {"addr:city": "Hamburg", "addr:country": "DE", "addr:housenumber": "26e", "addr:postcode": "21031", "addr:street": "Mendelstraße", "amenity": "pub", "name": "Holsten Stube"}}, {"type": "node", "id": 5384341535, "lat": 53.6528551, "lon": 10.113742, "tags": {"addr:city": "Hamburg", "addr:country": "DE", "addr:housenumber": "2a", "addr:postcode": "22393", "addr:street": "Berner Weg", "amenity": "pub", "name": "Zwergenstübchen", "opening_hours": "Mo 10:00-22:00; We,Th 12:00-22:00; Fr,Sa 12:00-24:00; Su 11:00-19:00", "phone": "+49 40 60049638", "wheelchair": "limited"}}, {"type": "node", "id": 5682865681, "lat": 53.5509553, "lon": 9.9648378, "tags": {"amenity": "pub", "check_date": "2023-12-28", "name": "Millerntor", "opening_hours": "\"Mostly soccer related openings\"", "wheelchair": "yes"}}, {"type": "node", "id": 5682865682, "lat": 53.5505527, "lon": 9.9640581, "tags": {"addr:city": "Hamburg", "addr:country": "DE", "addr:housenumber": "38a", "addr:postcode": "20359", "addr:street": "Seilerstraße", "amenity": "pub", "name": "Taub Trüb", "opening_hours": "We-Sa 19:00-00:00"}}, {"type": "node", "id": 5693881121, "lat": 53.5804329, "lon": 10.0389397, "tags": {"amenity": "pub", "name": "Weideeck", "wheelchair": "yes"}}, {"type": "node", "id": 5741226859, "lat": 53.5529771, "lon": 9.9584607, "tags": {"addr:city": "Hamburg", "addr:country": "DE", "addr:housenumber": "19", "addr:postcode": "22767", "addr:street": "Paul-Roosen-Straße", "amenity": "pub", "brewery": "yes", "name": "Herr Schmöll", "opening_hours": "Sa 17:00-05:00; Su-Tu off, We,Th 18:00-02:00, Fr 18:00-05:00", "smoking": "isolated"}}, {"type": "node", "id": 5825775305, "lat": 53.5568772, "lon": 9.9251515, "tags": {"amenity": "pub", "check_date:opening_hours": "2023-10-02", "indoor_seating": "yes", "name": "Borseleck", "opening_hours:signed": "no", "outdoor_seating": "no", "wheelchair": "no"}}, {"type": "node", "id": 5939395101, "lat": 53.4650096, "lon": 9.962172, "tags": {"amenity": "pub", "check_date:opening_hours": "2023-03-20", "delivery": "no", "indoor_seating": "yes", "level": "0", "min_age": "18", "name": "AstraEck", "opening_hours": "Tu-Fr 11:00+; Sa-Su 10:00+; Mo closed", "outdoor_seating": "no", "smoking": "yes", "takeaway": "no", "toilets": "yes", "toilets:access": "customers", "wheelchair": "no"}}, {"type": "node", "id": 6187789124, "lat": 53.5949988, "lon": 9.9783031, "tags": {"amenity": "pub", "name": "Fricke 46", "opening_hours": "Mo-We 12:00-24:00, Th 12:00-02:00, Fr,Sa 12:00-03:00, Su 13:00-24:00", "wheelchair": "limited"}}, {"type": "node", "id": 6187789125, "lat": 53.5945227, "lon": 9.9836244, "tags": {"amenity": "pub", "description": "Raucher Eckkneipe", "name": "Bierkrug", "opening_hours": "Mo-Th,Su 11:00-01:00; Fr,Sa 11:00-03:00", "wheelchair": "limited"}}, {"type": "node", "id": 6208022256, "lat": 53.4569807, "lon": 9.9684565, "tags": {"addr:city": "Hamburg", "addr:housenumber": "82", "addr:postcode": "21073", "addr:street": "Marienstraße", "amenity": "pub", "brewery": "yes;various", "level": "0", "name": "Löschecke", "opening_hours": "Mo,Tu,Th-Sa 16:00-21:00", "operator": "Holger Albers", "phone": "+4940 773331", "smoking": "no", "takeaway": "no", "toilets": "yes", "toilets:access": "customers", "wheelchair": "limited"}}, {"type": "node", "id": 6390414274, "lat": 53.5500714, "lon": 9.9566397, "tags": {"addr:city": "Hamburg", "addr:housenumber": "10", "addr:street": "Nobistor", "amenity": "pub", "microbrewery": "no", "name": "Thomas Read Irish Pub", "opening_hours:signed": "no", "phone": "+49 40 31 171 840", "website": "https://www.thomasread.de/", "wheelchair": "no"}}, {"type": "node", "id": 6454165102, "lat": 53.552891, "lon": 10.097891, "tags": {"amenity": "pub", "name": "Holsten Treff"}}, {"type": "node", "id": 6461327866, "lat": 53.4544248, "lon": 9.9850564, "tags": {"amenity": "pub", "cuisine": "greek", "min_age": "18", "name": "El Greco", "smoking": "yes", "wheelchair": "no"}}, {"type": "node", "id": 6473966486, "lat": 53.4907688, "lon": 10.2092761, "tags": {"addr:city": "Hamburg", "addr:country": "DE", "addr:housenumber": "9", "addr:postcode": "21029", "addr:street": "Reetwerder", "amenity": "pub", "indoor_seating": "yes", "name": "Nikos Treff", "opening_hours": "Tu,Th 14:00-23:00, Fr 14:00-02:00, Sa 11:00-02:00, Su 12:00-21:00", "outdoor_seating": "yes", "smoking": "yes", "wheelchair": "no"}}, {"type": "node", "id": 6515405751, "lat": 53.58435, "lon": 9.9797702, "tags": {"addr:city": "Hamburg", "addr:country": "DE", "addr:housenumber": "276", "addr:postcode": "20251", "addr:street": "Eppendorfer Weg", "amenity": "pub", "min_age": "18", "name": "Vümpf", "smoking": "yes", "wheelchair": "limited"}}, {"type": "node", "id": 6543252112, "lat": 53.6080657, "lon": 10.0066947, "tags": {"amenity": "pub", "name": "circle8brewery", "toilets:wheelchair": "no", "wheelchair": "yes"}}, {"type": "node", "id": 6549451797, "lat": 53.5497853, "lon": 9.9684853, "tags": {"addr:housenumber": "1", "addr:postcode": "20359", "addr:street": "Reeperbahn", "amenity": "pub", "brand": "BrewDog", "brand:wikidata": "Q911367", "diet:vegan": "yes", "email": "stpaulibar@brewdog.com", "food": "yes", "internet_access": "wlan", "name": "BrewDog St. Pauli", "opening_hours": "Mo-Th 15:00-23:30, Fr 15:00-01:00, PH,Su 15:00-23:30, Sa 12:00-01:00", "phone": "+49 40 31182446", "website": "https://www.brewdog.com/bars/global/stpauli"}}, {"type": "node", "id": 6594748194, "lat": 53.4633811, "lon": 9.9813277, "tags": {"amenity": "pub", "changing_table": "no", "contact:facebook": "bierbrunnen.harburg", "contact:phone": "+49 40 84897910", "contact:website": "https://bierbrunnen-harburg.de/", "delivery": "no", "indoor_seating": "yes", "internet_access": "no", "level": "0", "name": "Bierbrunnen", "opening_hours": "Mo-Th, Su 18:00-02:00; Fr, Sa 18:00-03:00", "outdoor_seating": "yes", "payment:credit_cards": "no", "payment:debit_cards": "no", "smoking": "yes", "surveillance": "indoor", "takeaway": "no", "toilets": "yes", "toilets:access": "customers", "toilets:wheelchair": "no", "wheelchair": "no"}}, {"type": "node", "id": 6611773067, "lat": 53.549889, "lon": 9.9638936, "tags": {"amenity": "pub", "delivery": "no", "email": "info@hamburger-alm.de", "fax": "+49 40 23549619", "indoor_seating": "yes", "internet_access": "no", "name": "Hamburger Alm", "opening_hours": "Su,Th 10:00-02:00, Mo-We 16:00-02:00, Fr,Sa 10:00-04:00", "operator": "Hamburger-Alm-Gastro GmbH", "outdoor_seating": "yes", "payment:cash": "yes", "payment:credit_cards": "no", "payment:cryptocurrencies": "no", "payment:debit_cards": "no", "payment:electronic_purses": "no", "phone": "+49 40 63736043", "smoking": "outside", "takeaway": "no", "website": "https://hamburger-alm.de", "wheelchair": "no"}}, {"type": "node", "id": 6640328617, "lat": 53.5755334, "lon": 9.9551576, "tags": {"addr:city": "Hamburg", "addr:housenumber": "74", "addr:postcode": "20259", "addr:street": "Osterstraße", "amenity": "pub", "check_date:opening_hours": "2022-09-13", "description": "Bar & Steakhouse", "name": "Mega’s", "opening_hours": "Mo-Fr 18:00-21:00", "opening_hours:signed": "no", "outdoor_seating": "no", "phone": "+49 40 43277302", "smoking": "yes", "wheelchair": "no"}}, {"type": "node", "id": 6648111225, "lat": 53.4694144, "lon": 9.9625949, "tags": {"amenity": "pub", "check_date:opening_hours": "2021-09-27", "indoor_seating": "yes", "min_age": "18", "name": "Stader Tor 01", "opening_hours": "Th 14:00-06:00, Sa 14:00+, Su 16:00-02:00", "outdoor_seating": "no", "wheelchair": "no"}}, {"type": "node", "id": 6651811061, "lat": 53.5939951, "lon": 10.0445365, "tags": {"addr:city": "Hamburg", "addr:country": "DE", "addr:housenumber": "184", "addr:postcode": "22307", "addr:street": "Fuhlsbüttler Straße", "amenity": "pub", "indoor_seating": "yes", "leisure": "sports_centre", "level": "2", "name": "Queue Billiard Pub", "opening_hours": "Mo-Th 14:00-02:00, Fr,Sa 14:00-03:00, Su 13:00-24:00", "outdoor_seating": "no", "sport": "billiards"}}, {"type": "node", "id": 6815410273, "lat": 53.5562826, "lon": 9.9630481, "tags": {"addr:city": "Hamburg", "addr:country": "DE", "addr:housenumber": "54", "addr:postcode": "20359", "addr:street": "Wohlwillstraße", "amenity": "pub", "changing_table": "no", "contact:facebook": "https://www.facebook.com/people/Kantestpauli/100054432972432/", "cuisine": "cake;coffee_shop;sandwich;tea", "diet:vegan": "yes", "diet:vegetarian": "yes", "internet_access": "no", "name": "Kante", "opening_hours": "Tu-Sa 10:00-22:00; Su 10:00-20:00", "smoking": "outside", "takeaway": "yes", "toilets:access": "customers", "toilets:wheelchair": "no", "wheelchair": "no"}}, {"type": "node", "id": 6872035867, "lat": 53.5535624, "lon": 10.0061667, "tags": {"air_conditioning": "yes", "amenity": "pub", "cuisine": "bavarian", "indoor_seating": "yes", "level": "0", "name": "Löwenbräu", "opening_hours": "Mo-Su 06:00-23:00", "outdoor_seating": "no", "smoking": "no", "wheelchair": "yes"}}, {"type": "node", "id": 6985042630, "lat": 53.6102886, "lon": 9.9749524, "tags": {"addr:city": "Hamburg", "addr:country": "DE", "addr:housenumber": "198", "addr:postcode": "22453", "addr:street": "Borsteler Chaussee", "amenity": "pub", "email": "frankys-cafe-bar@t-online.de", "name": "Frankys Café & Bar", "opening_hours": "Mo,We,Tu,Fr 11:30-21:30;Sa 14:00-21:30,Su 10:00-21:30", "phone": "+49 40 593 548 99"}}, {"type": "node", "id": 7523185631, "lat": 53.5093346, "lon": 10.2511197, "tags": {"amenity": "pub", "name": "John o Groats"}}, {"type": "node", "id": 7692945661, "lat": 53.6296662, "lon": 9.9278022, "tags": {"amenity": "pub", "name": "Frohme Stübchen", "opening_hours": "Mo-Th 18:00-24:00; Fr,Sa 18:00+"}}, {"type": "node", "id": 7781583592, "lat": 53.5405695, "lon": 10.2108789, "tags": {"amenity": "pub", "name": "The Central Bar"}}, {"type": "node", "id": 8000485087, "lat": 53.6214041, "lon": 10.0822938, "tags": {"amenity": "pub", "name": "Bramfelder Inn", "smoking": "yes"}}, {"type": "node", "id": 8237691094, "lat": 53.4720843, "lon": 9.8886641, "tags": {"amenity": "pub", "name": "Hausbrucher Hof"}}, {"type": "node", "id": 8319624514, "lat": 53.6518134, "lon": 10.0944631, "tags": {"addr:city": "Hamburg", "addr:country": "DE", "addr:housenumber": "1", "addr:postcode": "22393", "addr:street": "Stormarnplatz", "amenity": "pub", "name": "Stormarns Eck", "opening_hours": "Tu-Th 17:00-03:00; Fr-Su 17:00-05:00", "phone": "+49 40 6014699", "smoking": "yes", "wheelchair": "limited"}}, {"type": "node", "id": 8483143919, "lat": 53.4208646, "lon": 10.0249656, "tags": {"air_conditioning": "yes", "amenity": "pub", "name": "Bierapotheke", "smoking": "yes"}}, {"type": "node", "id": 8582861613, "lat": 53.5492043, "lon": 9.9481999, "tags": {"addr:city": "Hamburg", "addr:housenumber": "4", "addr:postcode": "22767", "addr:street": "Mörkenstraße", "amenity": "pub", "indoor_seating": "yes", "name": "Heidis Bierhütte", "outdoor_seating": "yes", "smoking": "yes"}}, {"type": "node", "id": 8732181758, "lat": 53.5800465, "lon": 9.9390468, "tags": {"amenity": "pub", "internet_access": "wlan", "internet_access:fee": "no", "name": "Zilles Eck", "opening_hours": "Mo-Th 16:00-02:00, Fr,Sa 16:00-03:00; Su off", "payment:cash": "yes", "payment:girocard": "yes", "payment:maestro": "yes", "payment:mastercard": "yes"}}, {"type": "node", "id": 8827106489, "lat": 53.4578961, "lon": 9.9863492, "tags": {"addr:postcode": "21073", "amenity": "pub", "entrance": "yes", "min_age": "18", "name": "Zur Stumpfen Ecke", "opening_hours": "Tu-Th 18:00-24:00; Fr-Sa 18:00-02:00", "outdoor_seating": "yes", "phone": "+494032507259", "smoking": "yes", "website": "https://www.stumpfe-ecke.de/", "wheelchair": "limited"}}, {"type": "node", "id": 8881113980, "lat": 53.5605816, "lon": 9.9483159, "tags": {"addr:city": "Hamburg", "addr:housenumber": "191", "addr:postcode": "22765", "addr:street": "Holstenstraße", "amenity": "pub", "check_date:opening_hours": "2024-05-30", "contact:website": "https://connys-bierkiste.business.site/", "indoor_seating": "yes", "name": "Connys Bierkiste", "opening_hours": "Mo-We 10:00-04:00; Th 10:00-24:00; Fr-Sa 00:00-24:00; Su 07:00-04:00", "opening_hours:signed": "no", "outdoor_seating": "no", "phone": "+49 40 4391621", "smoking": "yes"}}, {"type": "node", "id": 8992645899, "lat": 53.6366158, "lon": 9.9172976, "tags": {"addr:city": "Hamburg", "addr:housenumber": "1", "addr:postcode": "22457", "addr:street": "Burgwedel", "amenity": "pub", "check_date:opening_hours": "2023-11-11", "name": "Schnelsener 1", "opening_hours:signed": "no"}}, {"type": "node", "id": 9155661719, "lat": 53.5538408, "lon": 10.0108704, "tags": {"addr:housenumber": "20", "addr:street": "Bremer Reihe", "amenity": "pub", "name": "Bar Kunterbunt"}}, {"type": "node", "id": 9177121317, "lat": 53.5498962, "lon": 9.9580612, "tags": {"amenity": "pub", "check_date:opening_hours": "2023-10-29", "indoor_seating": "yes", "name": "Mausefalle", "opening_hours:signed": "no", "outdoor_seating": "yes"}}, {"type": "node", "id": 9195796867, "lat": 53.6138374, "lon": 9.898797, "tags": {"addr:city": "Hamburg", "addr:postcode": "22523", "addr:street": "Baumacker", "amenity": "pub", "name": "Zum Baumacker"}}, {"type": "node", "id": 9214586956, "lat": 53.5510187, "lon": 9.9610259, "tags": {"addr:city": "Hamburg", "addr:housenumber": "15", "addr:postcode": "20359", "addr:street": "Hamburger Berg", "amenity": "pub", "check_date": "2023-12-28", "name": "Parzelle"}}, {"type": "node", "id": 9223594390, "lat": 53.5156793, "lon": 9.9931461, "tags": {"amenity": "pub", "check_date:opening_hours": "2023-09-25", "name": "The Island", "opening_hours:signed": "no"}}, {"type": "node", "id": 9387869984, "lat": 53.515315, "lon": 9.9930185, "tags": {"amenity": "pub", "check_date:opening_hours": "2024-04-20", "indoor_seating": "yes", "name": "Friends2", "opening_hours:signed": "no", "outdoor_seating": "yes"}}, {"type": "node", "id": 9431952230, "lat": 53.5794467, "lon": 9.9657945, "tags": {"alt_name": "Contra Sportsbar", "amenity": "pub", "contact:phone": "+49 40 743 988 86", "contact:website": "https://contra-sportsbar.business.site/", "name": "Cont(r)a Sportsbar", "opening_hours": "Mo-Fr 18:00-24:00; Sa 18:00-24:00+; Su 18:00-21:00+", "outdoor_seating": "yes"}}, {"type": "node", "id": 9809496268, "lat": 53.6535102, "lon": 10.1151882, "tags": {"addr:city": "Hamburg", "addr:country": "DE", "addr:housenumber": "12", "addr:postcode": "22393", "addr:street": "Waldweg", "amenity": "pub", "level": "0", "name": "Lobby No. 12", "opening_hours": "Tu,Th 13:00-23:00, We 17:00-23:00, Fr 14:00-01:00, Sa 13:00-01:00, Su 13:00-21:00", "wheelchair": "limited"}}, {"type": "node", "id": 9849038893, "lat": 53.6038555, "lon": 9.900202, "tags": {"amenity": "pub", "name": "Sportcafe Eidelstedt"}}, {"type": "node", "id": 9941762827, "lat": 53.6175289, "lon": 10.1428699, "tags": {"amenity": "pub", "name": "Apos Bistro", "opening_hours": "Tu-Fr 11:00-23:00; Sa 12:00-23:00; Su 11:00-23:00"}}, {"type": "node", "id": 10137844391, "lat": 53.5670145, "lon": 9.9569927, "tags": {"amenity": "pub", "indoor_seating": "yes", "name": "The Pub Formerly Known As Froggys", "opening_hours": "Th 12:00-15:00; Fr,Sa 12:00-21:00", "outdoor_seating": "yes", "payment:credit_cards": "yes", "payment:debit_cards": "yes", "smoking": "yes", "wheelchair": "no"}}, {"type": "node", "id": 10157460144, "lat": 53.5512355, "lon": 9.963728, "tags": {"addr:city": "Hamburg", "addr:housenumber": "20", "addr:postcode": "20359", "addr:street": "Simon-von-Utrecht-Straße", "amenity": "pub", "name": "Angis Pub"}}, {"type": "node", "id": 10199186708, "lat": 53.5608815, "lon": 9.9676439, "tags": {"addr:floor": "-1", "addr:housenumber": "36", "addr:street": "Kampstraße", "amenity": "pub", "brewery": "various", "check_date": "2023-09-17", "cuisine": "pizza", "email": "hamburg@omnipollo.com", "name": "Omnipolos Pizza & Beer", "payment:cards": "yes", "payment:cash": "no", "phone": "+49 40 71407854", "toilets": "yes", "website": "https://www.omnipolloshamburg.com/"}}, {"type": "node", "id": 10210786972, "lat": 53.5166899, "lon": 9.9829954, "tags": {"amenity": "pub", "name": "Baron", "wheelchair": "no"}}, {"type": "node", "id": 10313414999, "lat": 53.7165466, "lon": 10.0021371, "tags": {"addr:housenumber": "4", "addr:street": "Weg am Denkmal", "amenity": "pub", "name": "Zur Mausefalle", "website": "http://www.zurmausefalle.de/"}}, {"type": "node", "id": 10738153672, "lat": 53.5860569, "lon": 10.1240301, "tags": {"amenity": "pub", "name": "Tonndorfer Burg"}}, {"type": "node", "id": 10771210004, "lat": 53.5507752, "lon": 9.9577715, "tags": {"amenity": "pub", "check_date:opening_hours": "2024-03-30", "name": "Safari Bierdorf", "opening_hours:signed": "no"}}, {"type": "node", "id": 10778106045, "lat": 53.5485879, "lon": 9.9622314, "tags": {"addr:housenumber": "4", "addr:street": "Friedrichstraße", "amenity": "pub", "check_date:opening_hours": "2024-04-21", "internet_access": "no", "name": "Blaue Nacht", "opening_hours:signed": "no", "outdoor_seating": "yes", "payment:cash": "yes", "payment:credit_cards": "no", "payment:cryptocurrencies": "no", "payment:debit_cards": "no", "payment:electronic_purses": "no", "smoking": "outside", "toilets": "yes", "toilets:access": "customers", "wheelchair": "no"}}, {"type": "node", "id": 10778134009, "lat": 53.5482628, "lon": 9.9598082, "tags": {"addr:housenumber": "36", "addr:postcode": "20359", "addr:street": "Friedrichstraße", "amenity": "pub", "name": "Hausverbot", "opening_hours": "Fr-Sa 20:00-04:00"}}, {"type": "node", "id": 10778134010, "lat": 53.5482228, "lon": 9.9596576, "tags": {"addr:housenumber": "28", "addr:street": "Balduinstraße", "amenity": "pub", "check_date:opening_hours": "2023-10-29", "name": "Nordlicht", "opening_hours:signed": "no"}}, {"type": "node", "id": 10811393332, "lat": 53.6832571, "lon": 9.978435, "tags": {"addr:city": "Norderstedt", "addr:housenumber": "2", "addr:postcode": "22848", "addr:street": "Friedrich-Ebert-Straße", "amenity": "pub", "name": "Papperlapapp", "phone": "+49 40 52883722"}}, {"type": "node", "id": 10816197045, "lat": 53.5579098, "lon": 9.9005465, "tags": {"amenity": "pub", "check_date": "2023-04-16", "indoor_seating": "yes", "internet_access": "wlan", "internet_access:fee": "customers", "name": "Queue Billard Pub", "opening_hours": "Mo-Th 14:00-02:00, Fr,Sa 14:00-02:30, Su 13:00-02:00", "outdoor_seating": "no", "payment:cards": "no", "payment:credit_cards": "no", "payment:debit_cards": "no", "wheelchair": "yes"}}, {"type": "node", "id": 10819070079, "lat": 53.6282797, "lon": 10.1683422, "tags": {"addr:city": "Hamburg", "addr:housenumber": "36a", "addr:postcode": "22145", "addr:street": "Spitzbergenweg", "amenity": "pub", "name": "Troja"}}, {"type": "node", "id": 10991317650, "lat": 53.5503722, "lon": 9.9610973, "tags": {"amenity": "pub", "internet_access": "no", "name": "Rosis Bar", "opening_hours": "We-Sa 20:00-18:00+", "smoking": "no"}}, {"type": "node", "id": 11016454258, "lat": 53.5733746, "lon": 9.8928292, "tags": {"amenity": "pub", "check_date:opening_hours": "2023-07-03", "indoor_seating": "yes", "name": "Halbzeit", "opening_hours:signed": "no", "outdoor_seating": "no", "wheelchair": "limited"}}, {"type": "node", "id": 11099094196, "lat": 53.6108397, "lon": 10.0600921, "tags": {"addr:city": "Hamburg", "addr:housenumber": "51", "addr:postcode": "22309", "addr:street": "Schreyerring", "amenity": "pub", "name": "Holstenstube"}}, {"type": "node", "id": 11180594048, "lat": 53.566469, "lon": 9.9097982, "tags": {"amenity": "pub", "indoor_seating": "yes", "name": "Meiers Inn", "opening_hours": "Mo-Fr 12:00-22:00; Sa 12:00-22:00; Su off", "outdoor_seating": "no", "wheelchair": "no"}}, {"type": "node", "id": 11180620582, "lat": 53.5672183, "lon": 9.9067676, "tags": {"amenity": "pub", "indoor_seating": "yes", "name": "Bahrenfelder", "opening_hours": "Mo,Tu,We,Th 16:00-00:00; Fr,Sa 15:00-02:00; Su 15:00-00:00", "outdoor_seating": "no", "wheelchair": "no"}}, {"type": "node", "id": 11188844729, "lat": 53.6002119, "lon": 10.0414238, "tags": {"addr:city": "Hamburg", "addr:country": "DE", "addr:housenumber": "326", "addr:postcode": "22307", "addr:street": "Fuhlsbüttler Straße", "amenity": "pub", "name": "Barmbeker Tönnchen", "phone": "+494086684805"}}, {"type": "node", "id": 11231047695, "lat": 53.6035627, "lon": 10.0525171, "tags": {"amenity": "pub", "name": "Bramfelder Bürgerstuben"}}, {"type": "node", "id": 11272631010, "lat": 53.6515096, "lon": 9.7998744, "tags": {"addr:city": "Pinneberg", "addr:country": "DE", "addr:housenumber": "2", "addr:postcode": "25421", "addr:street": "Rethwiese", "amenity": "pub", "name": "Köpi-Stube", "opening_hours": "Mo-Th 14:00-00:00,Fr,Sa 10:00-04:00,Su 10:00-00:00", "website": "https://koepi-stube.eatbu.com/?lang=de"}}, {"type": "node", "id": 11366967419, "lat": 53.5482902, "lon": 9.9606722, "tags": {"amenity": "pub", "name": "Hans-Albers-Klause"}}, {"type": "node", "id": 11366997942, "lat": 53.5485447, "lon": 9.9604641, "tags": {"amenity": "pub", "check_date:opening_hours": "2024-04-21", "name": "Rotlicht Hamburg", "opening_hours:signed": "no"}}, {"type": "node", "id": 11390010348, "lat": 53.5166483, "lon": 9.9901391, "tags": {"amenity": "pub", "name": "Zum Bierstübchen"}}, {"type": "node", "id": 11755972635, "lat": 53.5560189, "lon": 10.0373595, "tags": {"amenity": "pub", "name": "Cafe Habibi"}}, {"type": "node", "id": 11799692380, "lat": 53.5505311, "lon": 9.9574138, "tags": {"amenity": "pub", "check_date:opening_hours": "2024-04-26", "name": "Ilays Pub", "opening_hours:signed": "no"}}, {"type": "node", "id": 11810377269, "lat": 53.6077788, "lon": 10.1173553, "tags": {"addr:housenumber": "18", "addr:street": "August-Krogmann-Straße", "amenity": "pub", "name": "Zaubermaus", "opening_hours": "Mo-Th 11:00-01:00; Fr 11:00-06:00; Sa 10:00-06:00", "phone": "+49 40 28518987"}}, {"type": "node", "id": 11813209568, "lat": 53.5883012, "lon": 10.0421825, "tags": {"addr:housenumber": "92", "addr:street": "Hufnerstraße", "amenity": "pub", "check_date": "2024-04-13", "contact:facebook": "https://www.facebook.com/kult.barmbek", "indoor_seating": "yes", "name": "Kult", "outdoor_seating": "no", "smoking": "dedicated", "website": "http://www.kult-hamburg.de/"}}, {"type": "node", "id": 11883895736, "lat": 53.5630939, "lon": 10.032951, "tags": {"amenity": "pub", "name": "Zum Flensburger"}}, {"type": "node", "id": 11883905898, "lat": 53.563687, "lon": 10.0325834, "tags": {"air_conditioning": "no", "amenity": "pub", "name": "Neuer Felsenkeller", "opening_hours": "Mo-Su,PH 15:00-22:00+", "payment:credit_cards": "no", "payment:debit_cards": "no"}}, {"type": "node", "id": 11910275144, "lat": 53.5603655, "lon": 9.947986, "tags": {"amenity": "pub", "check_date:opening_hours": "2024-05-16", "name": "Holstenquelle", "opening_hours:signed": "no"}}, {"type": "node", "id": 11910275227, "lat": 53.5609688, "lon": 9.9479412, "tags": {"amenity": "pub", "name": "Anno 1904", "opening_hours": "We-Su,PH 17:00-23:00+"}}, {"type": "node", "id": 11915668713, "lat": 53.5385527, "lon": 10.1271219, "tags": {"amenity": "pub", "name": "Abis Bar"}}, {"type": "node", "id": 11925396878, "lat": 53.5179742, "lon": 9.9943515, "tags": {"amenity": "pub", "name": "Gaststätte Anpfiff"}}, {"type": "node", "id": 11951621536, "lat": 53.5484098, "lon": 9.9613643, "tags": {"amenity": "pub", "name": "Astra Bar"}}]}