{"version": 0.6, "generator": "Overpass API 0.7.62.1 084b4234", "osm3s": {"timestamp_osm_base": "2024-06-14T12:06:11Z", "copyright": "The data included in this document is from www.openstreetmap.org. The data is made available under ODbL."}, "elements": [{"type": "node", "id": 3588227829, "lat": 53.5539768, "lon": 9.9281275, "tags": {"addr:city": "Hamburg", "addr:country": "DE", "addr:housenumber": "159-161", "addr:postcode": "22765", "addr:street": "Bahrenfelder Straße", "check_date": "2023-06-04", "name": "Gia Pham", "opening_hours": "Mo-Sa 10:00-18:00", "origin": "asian", "payment:credit_cards": "no", "payment:debit_cards": "yes", "shop": "grocery", "wheelchair": "yes"}}, {"type": "node", "id": 4108544223, "lat": 53.5671917, "lon": 10.0454304, "tags": {"addr:city": "Hamburg", "addr:country": "DE", "addr:housenumber": "112", "addr:postcode": "22089", "addr:street": "Wandsbeker Chaussee", "check_date": "2023-07-16", "name": "Afro Shop", "opening_hours": "Mo-Sa 09:00-20:00", "shop": "grocery"}}, {"type": "node", "id": 7118222053, "lat": 53.7294579, "lon": 10.2633816, "tags": {"name": "BioOase Bioladen", "shop": "grocery"}}, {"type": "node", "id": 11093792405, "lat": 53.5527974, "lon": 9.9596248, "tags": {"contact:instagram": "https://www.instagram.com/der_gemuesefluesterer/", "name": "Terheyde Obst und Gemüse", "nickname": "Der Gemüseflüsterer", "opening_hours": "Tu, Th-Fr 10:30-18:00; Sa 09:30-16:00", "payment:cash": "yes", "phone": "+49403194993", "shop": "grocery"}}]}