{"version": 0.6, "generator": "Overpass API 0.7.62.1 084b4234", "osm3s": {"timestamp_osm_base": "2024-06-14T12:07:11Z", "copyright": "The data included in this document is from www.openstreetmap.org. The data is made available under ODbL."}, "elements": [{"type": "node", "id": 60568486, "lat": 53.5676653, "lon": 9.9820359, "tags": {"addr:city": "Hamburg", "addr:housenumber": "3", "addr:postcode": "20146", "addr:street": "Allende-Platz", "air_conditioning": "yes", "amenity": "cinema", "contact:facebook": "https://www.facebook.com/abatonkino/", "contact:instagram": "https://www.instagram.com/abatonkino/", "description": "Telefonnummer für das Büro:\n+49 (0)40 - 41 320 330 (Mo-Fr 10-16 Uhr)\n(Keine Kartenreservierung per Telefon oder E-Mail möglich!)", "email": "office@abaton.de", "fax": "+49 40 41320310", "name": "Abaton-Kino", "operator": "Felix Grassmann, Philip Grassmann, Werner Grassmann", "payment:cash": "yes", "phone": "+49 40 41320320", "screen": "3", "toilets:wheelchair": "no", "website": "https://www.abaton.de", "wheelchair": "no", "wikidata": "Q305682", "wikipedia": "de:Abaton (Kino)"}}, {"type": "node", "id": 257143331, "lat": 53.5882763, "lon": 10.0973001, "tags": {"addr:city": "Hamburg", "addr:country": "DE", "addr:housenumber": "134", "addr:postcode": "22047", "addr:street": "Friedrich-Ebert-Damm", "alt_name": "UCI - Smart City", "amenity": "cinema", "brand": "UCI Kinowelt", "brand:wikidata": "Q521922", "name": "UCI Kinowelt Wandsbek", "opening_hours": "Mo 13:30-20:30, Tu-Sa 13:30-23:15, Su 11:00-23:15", "phone": "+49 40 69442442", "short_name": "UCI", "toilets:wheelchair": "yes", "website": "https://www.uci-kinowelt.de/kinoprogramm/hh-wandsbek-smart-city/54", "wheelchair": "yes", "wikidata": "Q69811606"}}, {"type": "node", "id": 270082988, "lat": 53.5540417, "lon": 9.9274018, "tags": {"addr:city": "Hamburg", "addr:housenumber": "7", "addr:postcode": "22765", "addr:street": "Friedensallee", "amenity": "cinema", "check_date": "2023-06-04", "name": "zeise kinos", "opening_hours": "Mo-Fr 14:00-22:00; Sa 12:00-22:00; Su 11:00-22:00", "payment:cash": "yes", "payment:debit_cards": "yes", "screen": "3", "website": "https://www.zeise.de/", "wheelchair": "no", "wikidata": "Q34379197"}}, {"type": "node", "id": 271368106, "lat": 53.5578435, "lon": 9.9004789, "tags": {"addr:city": "Hamburg", "addr:country": "DE", "addr:housenumber": "2", "addr:postcode": "22605", "addr:street": "Baurstraße", "amenity": "cinema", "brand": "UCI Kinowelt", "brand:wikidata": "Q521922", "cinema:3D": "yes", "level": "2", "name": "UCI Othmarschen", "opening_hours": "\"nach Bedarf\"", "payment:cash": "yes", "payment:contactless": "yes", "payment:girocard": "yes", "payment:mastercard": "yes", "payment:visa": "yes", "screen": "9", "short_name": "UCI", "website": "https://www.uci-kinowelt.de/kinoinformation/hh-othmarschen-park/53", "wheelchair": "yes"}}, {"type": "node", "id": 287549673, "lat": 53.5590612, "lon": 9.8111413, "tags": {"addr:city": "Hamburg", "addr:country": "DE", "addr:housenumber": "4", "addr:postcode": "22587", "addr:street": "Blankeneser Bahnhofstraße", "amenity": "cinema", "name": "Blankeneser Kino", "phone": "+49 40 862421", "website": "https://www.blankeneserkino.de/", "wheelchair": "no", "wikidata": "Q86607734"}}, {"type": "node", "id": 300548397, "lat": 53.5771275, "lon": 9.976742, "tags": {"addr:city": "Hamburg", "addr:country": "DE", "addr:housenumber": "69", "addr:postcode": "20144", "addr:street": "Schlankreye", "amenity": "cinema", "check_date:opening_hours": "2023-09-06", "name": "Holi Hamburg", "opening_hours": "Mo-Su 14:00+", "phone": "+49 40 4223040", "website": "https://www.cinemaxx.de/kinoprogramm/hamburg-holi", "wheelchair": "no", "wikidata": "Q29015730"}}, {"type": "node", "id": 315077757, "lat": 53.5728256, "lon": 9.8508813, "tags": {"addr:city": "Hamburg", "addr:housenumber": "198", "addr:postcode": "22549", "addr:street": "Osdorfer Landstraße", "amenity": "cinema", "name": "Elbe Kino", "phone": "+49 40 8004445", "toilets:wheelchair": "no", "website": "https://www.elbe-kino.de/", "wheelchair": "yes", "wikidata": "Q86593557"}}, {"type": "node", "id": 339678632, "lat": 53.7278265, "lon": 10.2588749, "tags": {"amenity": "cinema", "name": "Cinema Paradiso"}}, {"type": "node", "id": 371668925, "lat": 53.5832208, "lon": 10.0206819, "tags": {"addr:city": "Hamburg", "addr:country": "DE", "addr:housenumber": "20", "addr:postcode": "22303", "addr:street": "Jarrestraße", "amenity": "cinema", "contact:phone": "+49 40 28803070", "contact:website": "http://www.alabama-kino.de", "name": "Alabama Kino", "toilets:wheelchair": "no", "wheelchair": "yes", "wikidata": "Q34378630"}}, {"type": "node", "id": 391511815, "lat": 53.7213492, "lon": 9.9018773, "tags": {"addr:city": "Quickborn", "addr:country": "DE", "addr:housenumber": "1-5", "addr:postcode": "25451", "addr:street": "Güttloh", "air_conditioning": "yes", "amenity": "cinema", "check_date:opening_hours": "2021-08-22", "contact:instagram": "https://www.instagram.com/belugakino/", "email": "info@nordkino.de", "name": "Beluga Kino", "payment:cash": "yes", "payment:coins": "yes", "payment:girocard": "yes", "phone": "+49 4106 995005", "screen": "5", "website": "https://www.beluga-kino.de", "wheelchair": "no", "wheelchair:description": "Das Kino ist im Obergeschoss und ist leider nur über die Treppe erreichbar."}}, {"type": "node", "id": 530267755, "lat": 53.5997328, "lon": 10.0040158, "tags": {"addr:city": "Hamburg", "addr:housenumber": "8a", "addr:postcode": "22299", "addr:street": "Fiefstücken", "amenity": "cinema", "name": "Magazin Filmkunsttheater", "website": "https://www.magazinfilmkunst.de/", "wheelchair": "limited", "wikidata": "Q1454081"}}, {"type": "node", "id": 536391111, "lat": 53.55412, "lon": 10.0141718, "tags": {"addr:city": "Hamburg", "addr:country": "DE", "addr:housenumber": "54", "addr:postcode": "20099", "addr:street": "Steindamm", "air_conditioning": "yes", "amenity": "cinema", "cinema:3D": "yes", "contact:facebook": "savoykino.hamburg", "contact:instagram": "savoyfilmtheater", "description": "Haus öffnet 30 Min. vor der ersten Vorstellung.\nTicketkasse schließt 30 Min. nach Beginn der letzten Vorstellung.", "email": "info@savoy-filmtheater.de", "internet_access": "wlan", "name": "Savoy Filmtheater", "opening_hours": "Mo-Su 14:00-22:00", "payment:cash": "yes", "payment:contactless": "yes", "payment:girocard": "yes", "payment:mastercard": "yes", "payment:visa": "yes", "phone": "+49 40 284093628", "screen": "1", "toilets:wheelchair": "yes", "website": "https://savoy.premiumkino.de", "wheelchair": "yes", "wikidata": "Q34379111", "wikipedia": "de:Savoy Filmtheater"}}, {"type": "node", "id": 606354360, "lat": 53.7076918, "lon": 9.9902499, "tags": {"addr:city": "Norderstedt", "addr:housenumber": "72", "addr:postcode": "22846", "addr:street": "Rathausallee", "amenity": "cinema", "name": "Kino-Center Spectrum", "opening_hours": "Mo-We 14:10-23:15, Th 12:15-23:15, Fr,Sa 12:15-01:10, Su 12:15-23:15", "wheelchair": "yes"}}, {"type": "node", "id": 1286694022, "lat": 53.5798461, "lon": 9.9425757, "tags": {"addr:city": "Hamburg", "addr:country": "DE", "addr:housenumber": "45", "addr:postcode": "20257", "addr:street": "Müggenkampstraße", "amenity": "cinema", "check_date": "2023-04-22", "contact:website": "https://www.filmraum.net/kontakt-und-anfahrt/", "name": "der FilmRaum", "opening_hours": "\"je nach Kinoprogramm\"", "shop": "video", "toilets:wheelchair": "no", "wheelchair": "yes", "wheelchair:description": "Ebenerdiges WC, aber eng."}}, {"type": "node", "id": 1356135344, "lat": 53.554379, "lon": 9.9612601, "tags": {"amenity": "cinema", "name": "B-Movie", "opening_hours": "\"weekly changing program\"", "url": "http://b-movie.de", "wheelchair": "no", "wikidata": "Q34378696"}}, {"type": "node", "id": 1532901069, "lat": 53.5562701, "lon": 9.9888997, "tags": {"addr:city": "Hamburg", "addr:country": "DE", "addr:housenumber": "10", "addr:postcode": "20354", "addr:street": "Kleine Theaterstraße", "amenity": "cinema", "email": "info@kinemathek-hamburg.de", "name": "Metropolis Kino", "operator": "Kinemathek Hamburg e.V.", "phone": "+49 40 342353", "toilets:wheelchair": "yes", "website": "http://www.metropoliskino.de/", "wheelchair": "yes", "wikidata": "Q34379042"}}, {"type": "node", "id": 1590594532, "lat": 53.5562014, "lon": 9.9326896, "tags": {"addr:city": "Hamburg", "addr:country": "DE", "addr:housenumber": "25", "addr:postcode": "22765", "addr:street": "Gaußstraße", "amenity": "cinema", "check_date": "2023-06-04", "contact:website": "http://www.lichtmess-kino.de", "name": "Lichtmess", "opening_hours": "\"Nach Bedarf\"", "payment:cards": "no", "payment:cash": "yes", "payment:credit_cards": "no", "payment:debit_cards": "no", "screen": "1", "toilets:wheelchair": "no", "wheelchair": "no", "wikidata": "Q34378993"}}, {"type": "node", "id": 1655188608, "lat": 53.4643522, "lon": 9.7996404, "tags": {"addr:city": "Neu Wulmstorf", "addr:housenumber": "32", "addr:postcode": "21629", "addr:street": "Hauptstraße", "amenity": "cinema", "email": "info@service-kino.de", "name": "Das Kino", "operator": "Jörg Wagner", "website": "https://www.service-kino.de/", "wheelchair": "limited"}}, {"type": "node", "id": 1772698012, "lat": 53.5504942, "lon": 9.9985051, "tags": {"addr:city": "Hamburg", "addr:country": "DE", "addr:housenumber": "17", "addr:postcode": "20095", "addr:street": "Mönckebergstraße", "amenity": "cinema", "check_date": "2024-04-20", "name": "Passage Kino Hamburg", "opening_hours": "\"15 Minuten vor der ersten Vorstellung\"", "phone": "+49 40 468 668 60", "screen": "3", "toilets:wheelchair": "yes", "website": "http://hamburg.das-passage.de", "wheelchair": "limited", "wikidata": "Q34379055"}}, {"type": "node", "id": 2070279511, "lat": 53.5573124, "lon": 9.9583412, "tags": {"addr:city": "Hamburg", "addr:housenumber": "93", "addr:postcode": "22767", "addr:street": "Bernstorffstraße", "amenity": "cinema", "check_date": "2024-06-09", "name": "Studio-Kino", "opening_hours": "Mo-Fr 16:00-21:00+; Sa,Su 13:00-21:00+", "payment:cash": "yes", "payment:mastercard": "yes", "payment:visa": "yes", "screen": "2", "website": "https://www.studio-kino.de/", "wheelchair": "no", "wikidata": "Q93446070"}}, {"type": "node", "id": 2589585535, "lat": 53.4934078, "lon": 10.2073693, "tags": {"amenity": "cinema", "cinema:3D": "yes", "contact:email": "dieterlangegmbh@aol.de", "contact:website": "https://bergedorf-kino.de/", "drive_in": "no", "level": "1", "min_age": "0", "name": "Hansa-Filmstudio", "opening_hours": "Mo-Fr 15:00+, Sa,Su 10:00+; PH 10:00+", "operator": "Dieter Lange GmbH", "payment:cash": "yes", "payment:cryptocurrencies": "no", "payment:electronic_purses": "no", "screen": "3", "wheelchair": "yes", "wheelchair:description": "Aufzug vorhanden, alles nötige ist mit dem Rolli erreichbar", "wikidata": "Q104537516"}}, {"type": "node", "id": 4692779544, "lat": 53.5501105, "lon": 9.960312, "tags": {"amenity": "cinema", "min_age": "18", "name": "Gay-Kino Hamburg", "opening_hours": "24/7", "shop": "erotic"}}, {"type": "node", "id": 4785007121, "lat": 53.5622726, "lon": 9.9608994, "tags": {"addr:city": "Hamburg", "addr:country": "DE", "addr:housenumber": "73", "addr:postcode": "20357", "addr:street": "Schulterblatt", "amenity": "cinema", "level": "2", "name": "SchanzenKino 73", "opening_hours": "\"abhängig vom Kinoprogramm\"", "phone": "+49 40 55775088", "website": "https://schanzenkino73.de/kino/home/city300", "wheelchair": "no", "wikidata": "Q113996384"}}, {"type": "node", "id": 6098801784, "lat": 53.5433365, "lon": 9.9954814, "tags": {"addr:city": "Hamburg", "addr:country": "DE", "addr:housenumber": "46a", "addr:postcode": "20457", "addr:street": "Am Sandtorkai", "amenity": "cinema", "contact:website": "https://hamburg.premiumkino.de/", "name": "ASTOR Film Lounge HafenCity", "opening_hours": "Mo-Fr 15:00-21:00; PH,Sa,Su 12:00-21:00", "wheelchair": "yes", "wikidata": "Q99361401"}}, {"type": "node", "id": 6543380855, "lat": 53.4570285, "lon": 9.9852184, "tags": {"addr:city": "Hamburg", "addr:country": "DE", "addr:housenumber": "1", "addr:postcode": "21073", "addr:street": "Moorstraße", "amenity": "cinema", "brand": "Cinemaxx", "brand:wikidata": "Q881860", "entrance": "main", "name": "CinemaxX", "opening_hours": "Mo-Th 13:30-21:00, Fr 13:30-24:00, Sa 11:30-24:00, Su 11:30-21:00", "phone": "+49 40 7679580", "toilets:wheelchair": "yes", "website": "https://www.cinemaxx.de/", "wheelchair": "yes"}}, {"type": "node", "id": 11336831431, "lat": 53.5502431, "lon": 9.9611017, "tags": {"amenity": "cinema", "cinema": "erotic", "min_age": "18", "name": "Kino No. 5"}}, {"type": "node", "id": 11336831432, "lat": 53.5499224, "lon": 9.9615032, "tags": {"amenity": "cinema", "min_age": "18", "name": "Erotixx", "opening_hours": "Fr,Sa 10:00-02:00, Su-Th 10:00-24:00", "shop": "erotic"}}, {"type": "node", "id": 11336831433, "lat": 53.5503119, "lon": 9.9627685, "tags": {"amenity": "cinema", "min_age": "18", "name": "Sparta Junior", "opening_hours": "Mo-Su 12:00-20:00", "shop": "erotic"}}]}