{"version": 0.6, "generator": "Overpass API 0.7.62.1 084b4234", "osm3s": {"timestamp_osm_base": "2024-06-14T12:07:11Z", "copyright": "The data included in this document is from www.openstreetmap.org. The data is made available under ODbL."}, "elements": [{"type": "node", "id": 107194006, "lat": 53.6949636, "lon": 10.1372247, "tags": {"addr:city": "Hamburg", "addr:housenumber": "1", "addr:postcode": "22397", "addr:street": "Alte Dorfstraße", "amenity": "ice_cream", "cuisine": "ice_cream", "name": "Eisbär", "website": "http://www.eisbaer-ohlstedt.de/index2.htm", "wheelchair": "yes"}}, {"type": "node", "id": 269899720, "lat": 53.5514939, "lon": 9.9253406, "tags": {"addr:city": "Hamburg", "addr:country": "DE", "addr:housenumber": "2", "addr:postcode": "22763", "addr:street": "Bei der Reitbahn", "amenity": "ice_cream", "indoor_seating": "no", "name": "Eisliebe", "opening_hours": "Mo-Su 12:00-19:00", "outdoor_seating": "no", "takeaway": "only", "toilets:wheelchair": "no", "wheelchair": "no"}}, {"type": "node", "id": 287822858, "lat": 53.585452, "lon": 10.0332294, "tags": {"amenity": "ice_cream", "check_date": "2023-10-24", "check_date:opening_hours": "2022-08-15", "cuisine": "ice_cream", "name": "Eis Warneke", "opening_hours": "11:00-22:00", "wheelchair": "yes"}}, {"type": "node", "id": 295108969, "lat": 53.6611647, "lon": 9.7986576, "tags": {"addr:city": "Pinneberg", "addr:housenumber": "14", "addr:postcode": "25421", "addr:street": "Dingstätte", "amenity": "ice_cream", "check_date:opening_hours": "2023-03-19", "contact:facebook": "https://www.facebook.com/Eiscafe-Valentina-193170557449684/", "email": "eiscafev@icloud.com", "name": "Eiscafé Valentina", "opening_hours": "Mo-Fr 09:00-19:00; Sa-Su 09:00-20:00", "outdoor_seating": "yes", "phone": "+49 4101 204650", "toilets:wheelchair": "no", "wheelchair": "yes"}}, {"type": "node", "id": 309745429, "lat": 53.5814656, "lon": 9.9711979, "tags": {"amenity": "ice_cream", "diet:vegan": "no", "name": "Mio"}}, {"type": "node", "id": 370793687, "lat": 53.5660008, "lon": 10.0200822, "tags": {"amenity": "ice_cream", "check_date:opening_hours": "2023-03-04", "indoor_seating": "no", "name": "Eisafé il Lago", "opening_hours:signed": "no", "outdoor_seating": "yes", "smoking": "yes", "wheelchair": "limited"}}, {"type": "node", "id": 372531301, "lat": 53.4706393, "lon": 9.8541087, "tags": {"addr:city": "Hamburg", "addr:country": "DE", "addr:housenumber": "14", "addr:postcode": "21149", "addr:street": "Neugrabener Bahnhofstraße", "amenity": "ice_cream", "name": "Gelatoni"}}, {"type": "node", "id": 376428875, "lat": 53.5331205, "lon": 9.8792625, "tags": {"addr:city": "Hamburg", "addr:country": "DE", "addr:housenumber": "43", "addr:postcode": "21129", "addr:street": "Steendiek", "amenity": "ice_cream", "name": "Eisinsel", "phone": "+49 40 74213316", "wheelchair": "limited"}}, {"type": "node", "id": 380293528, "lat": 53.6487919, "lon": 10.1644348, "tags": {"addr:housenumber": "23", "addr:street": "Im Alten Dorfe", "amenity": "ice_cream", "ice_cream": "yes", "indoor_seating": "yes", "name": "Noris Bar", "opening_hours": "Mo-Su 10:00-19:00", "outdoor_seating": "yes", "smoking": "no", "takeaway": "yes", "takeaway:covid19": "yes", "toilets:wheelchair": "no", "website": "http://www.norisbar.de/", "wheelchair": "limited"}}, {"type": "node", "id": 393205615, "lat": 53.6696228, "lon": 9.7885226, "tags": {"addr:city": "Pinneberg", "addr:housenumber": "49", "addr:postcode": "25421", "addr:street": "Berliner Straße", "amenity": "ice_cream", "branch": "Pinneberg", "contact:facebook": "https://www.facebook.com/jannyseispinneberg/", "contact:mobile": "+49 176 70396192", "email": "okanyokus@hotmail.de", "indoor_seating": "yes", "internet_access": "wlan", "name": "Jannys Eis", "opening_hours": "Su-Fr 11:00-21:00; Sa 11:00-20:00", "operator": "Okan Yokus", "outdoor_seating": "yes", "payment:cash": "yes", "payment:coins": "yes", "phone": "+49 4101 8316543", "smoking": "outside", "wheelchair": "limited"}}, {"type": "node", "id": 424083165, "lat": 53.5594764, "lon": 9.9889725, "tags": {"amenity": "ice_cream", "check_date": "2023-07-14", "name": "Eis Livotto", "opening_hours": "Mo-Su 09:00-22:00", "wheelchair": "limited"}}, {"type": "node", "id": 425614433, "lat": 53.4712407, "lon": 9.8318439, "tags": {"addr:city": "Hamburg", "addr:country": "DE", "addr:housenumber": "441", "addr:postcode": "21149", "addr:street": "Cuxhavener Straße", "addr:suburb": "Neugraben-Fischbek", "amenity": "ice_cream", "contact:email": "sedatkalcik@icloud.de", "contact:facebook": "https://www.facebook.com/Arktis-EisCaf%C3%A9-857858120946896", "contact:phone": "+49 40 69647830", "contact:website": "https://eiscafearktis.eatbu.com", "name": "Arktis Eiscafe", "opening_hours": "Mo-Su 10:00-22:00", "operator": "Sedat Kelcik", "payment:cash": "yes", "takeaway": "yes", "takeaway:covid19": "only", "wheelchair": "no"}}, {"type": "node", "id": 432489111, "lat": 53.5636129, "lon": 10.023924, "tags": {"addr:city": "Hamburg", "addr:country": "DE", "addr:housenumber": "92", "addr:postcode": "22087", "addr:street": "Ifflandstraße", "amenity": "ice_cream", "cuisine": "italian", "food": "yes", "indoor_seating": "yes", "name": "La Serenissima", "opening_hours": "Su-Fr 11:00-22:00", "outdoor_seating": "yes", "phone": "+49 40 2204908", "wheelchair": "yes"}}, {"type": "node", "id": 456390457, "lat": 53.622756, "lon": 10.0842821, "tags": {"amenity": "ice_cream", "contact:phone": "+49 40 64224646", "cuisine": "ice_cream", "name": "Eis-Café-Höft", "wheelchair": "limited"}}, {"type": "node", "id": 482157848, "lat": 53.5543337, "lon": 9.9914644, "tags": {"amenity": "ice_cream", "check_date:opening_hours": "2023-03-16", "indoor_seating": "no", "name": "Eis Warneke", "opening_hours:signed": "no", "outdoor_seating": "no", "takeaway": "only", "toilets:wheelchair": "no", "wheelchair": "yes"}}, {"type": "node", "id": 618003350, "lat": 53.5702983, "lon": 9.9844821, "tags": {"addr:city": "Hamburg", "addr:country": "DE", "addr:housenumber": "67", "addr:postcode": "20146", "addr:street": "Grindelhof", "amenity": "ice_cream", "check_date": "2023-07-09", "contact:phone": "+49 40 605906725", "contact:website": "https://luicellas.de", "cuisine": "ice_cream", "diet:vegan": "yes", "diet:vegetarian": "yes", "indoor_seating": "yes", "name": "Luicella’s Ice Cream", "opening_hours": "12:00-21:30", "outdoor_seating": "yes", "wheelchair": "limited"}}, {"type": "node", "id": 711496389, "lat": 53.5518542, "lon": 9.9291111, "tags": {"addr:city": "Hamburg", "addr:housenumber": "37", "addr:postcode": "22765", "addr:street": "Ottenser Hauptstraße", "amenity": "ice_cream", "delivery": "no", "indoor_seating": "yes", "name": "Manolyas Gelato", "opening_hours": "Mo-Fr 12:00-18:30; Sa 11:00-18:00", "outdoor_seating": "yes", "takeaway": "yes", "toilets:wheelchair": "no", "was:name": "Eis Schmidt", "wheelchair": "limited"}}, {"type": "node", "id": 914736874, "lat": 53.5916749, "lon": 9.9884135, "tags": {"amenity": "ice_cream", "name": "Milk Made", "opening_hours": "Tu-Su 13:00-18:00"}}, {"type": "node", "id": 947349391, "lat": 53.5781088, "lon": 10.0605164, "tags": {"addr:city": "Hamburg", "addr:housenumber": "28", "addr:postcode": "22049", "addr:street": "Dithmarscher Straße", "addr:suburb": "Dulsberg", "amenity": "ice_cream", "check_date": "2023-08-05", "name": "Der Eismann", "url": "http://der-eismann.net/"}}, {"type": "node", "id": 1082029076, "lat": 53.56172, "lon": 9.811566, "tags": {"addr:city": "Hamburg", "addr:country": "DE", "addr:housenumber": "46", "addr:postcode": "22587", "addr:street": "Blankeneser Bahnhofstraße", "amenity": "ice_cream", "cuisine": "ice_cream", "name": "Casa del Gelato", "outdoor_seating": "yes", "wheelchair": "yes"}}, {"type": "node", "id": 1106752693, "lat": 53.5953011, "lon": 10.0434328, "tags": {"amenity": "ice_cream", "name": "Eis Pavillon"}}, {"type": "node", "id": 1137489082, "lat": 53.5519702, "lon": 9.9422802, "tags": {"addr:city": "Hamburg", "addr:country": "DE", "addr:housenumber": "219", "addr:postcode": "22767", "addr:street": "Große Bergstraße", "amenity": "ice_cream", "check_date:opening_hours": "2023-02-02", "indoor_seating": "yes", "name": "Filippi Eis", "opening_hours": "Mo-Fr 11:00-18:00; Sa 10:30-18:00; PH,Su off", "opening_hours:signed": "no", "outdoor_seating": "yes", "smoking": "outside", "toilets": "yes", "toilets:access": "customers", "wheelchair": "yes"}}, {"type": "node", "id": 1268553151, "lat": 53.5454242, "lon": 9.9640644, "tags": {"addr:city": "Hamburg", "addr:country": "DE", "addr:housenumber": "10", "addr:postcode": "20359", "addr:street": "Bei den St. Pauli-Landungsbrücken", "amenity": "ice_cream", "brand": "Häagen-Dazs", "brand:wikidata": "Q1143333", "brand:wikipedia": "en:Häagen-Dazs", "contact:phone": "+494031767251", "contact:website": "http://haagen-dazs.de/Home", "name": "Häagen-Dazs", "opening_hours": "Mo-Fr 11:00-19:00; Sa-Su 10:00-20:00", "operator": "Häagen Dazs"}}, {"type": "node", "id": 1393721528, "lat": 53.5109091, "lon": 10.251303, "tags": {"amenity": "ice_cream", "name": "Eiscafe Veneto", "outdoor_seating": "yes", "wheelchair": "limited"}}, {"type": "node", "id": 1532564289, "lat": 53.6018044, "lon": 10.0623205, "tags": {"addr:housenumber": "91", "addr:street": "Fabriciusstraße", "amenity": "ice_cream", "check_date:opening_hours": "2022-03-14", "name": "Eiscafé Venezia", "opening_hours": "Mo-Su 10:00-22:00", "phone": "+49 176 61951374", "website": "https://eiscafevenezia-hamburg.eatbu.com/"}}, {"type": "node", "id": 1576522459, "lat": 53.5799559, "lon": 9.9434545, "tags": {"amenity": "ice_cream", "indoor_seating": "yes", "internet_access:fee": "yes", "name": "Eiszeit", "opening_hours": "May-Aug: 12:00-22:00; Apr: 12:00-19:00; Mar: 12:30-18:00; Oct: 12:30-18:00; Sep: 12:00-20:00", "outdoor_seating": "yes", "payment:credit_cards": "no", "payment:debit_cards": "yes", "takeaway": "yes", "website": "http://www.eiszeit-eis.de", "wheelchair": "no"}}, {"type": "node", "id": 1605041251, "lat": 53.5858717, "lon": 10.0621282, "tags": {"amenity": "ice_cream", "contact:instagram": "https://www.instagram.com/nicecreamhh/", "facebook": "https://www.facebook.com/Nice-Cream-110248980832131/", "indoor_seating": "yes", "name": "Nice Cream", "old_name": "Mixhaus", "opening_hours": "Mo-Fr 13:00-20:00; Sa,Su 12:00-20:00", "outdoor_seating": "yes", "start_date": "2021-02-27"}}, {"type": "node", "id": 1613188203, "lat": 53.5596087, "lon": 9.883036, "tags": {"amenity": "ice_cream", "indoor_seating": "yes", "name": "Eisglück", "opening_hours": "Mo-Su 11:00-18:30", "outdoor_seating": "yes", "shop": "ice_cream", "takeaway": "yes", "website": "https://eisglueck-hamburg.de/", "wheelchair": "yes"}}, {"type": "node", "id": 1900276311, "lat": 53.6224528, "lon": 10.1651373, "tags": {"amenity": "ice_cream", "name": "Eis Café da Gianni"}}, {"type": "node", "id": 1918681286, "lat": 53.5828357, "lon": 9.9754174, "tags": {"addr:housenumber": "47", "addr:street": "Falkenried", "amenity": "ice_cream", "indoor_seating": "yes", "name": "dito café & eis", "old_name": "Eispunkt Falkenried", "opening_hours": "PH,Mo-Su 12:00-20:00", "outdoor_seating": "yes", "website": "https://dito-eis.de/", "wheelchair": "no"}}, {"type": "node", "id": 1935146345, "lat": 53.5560101, "lon": 9.9903221, "tags": {"amenity": "ice_cream", "level": "0", "name": "Kumatea", "opening_hours": "Mo-Th 14:00-19:00; PH,Fr,Sa 12:00-19:00; Su 14:30-17:30"}}, {"type": "node", "id": 1941806879, "lat": 53.5533819, "lon": 9.9902515, "tags": {"amenity": "ice_cream", "check_date:opening_hours": "2024-01-21", "name": "Eisige Liebe", "opening_hours:signed": "no"}}, {"type": "node", "id": 2023176476, "lat": 53.4711584, "lon": 9.8531906, "tags": {"amenity": "ice_cream", "name": "Cool Kids", "shop": "clothes"}}, {"type": "node", "id": 2028117000, "lat": 53.5501964, "lon": 9.979938, "tags": {"amenity": "ice_cream", "name": "Porto Lucia", "opening_hours": "Mo-Su 10:00-22:00", "wheelchair": "limited"}}, {"type": "node", "id": 2074551777, "lat": 53.5876909, "lon": 10.0455914, "tags": {"addr:city": "Hamburg", "addr:housenumber": "15", "addr:postcode": "22305", "addr:street": "Krüsistraße", "amenity": "ice_cream", "check_date": "2023-05-01", "contact:instagram": "https://www.instagram.com/lecassia.eis/", "level": "0", "name": "Lecassia", "opening_hours": "Mo-Su 11:00-18:00", "wheelchair": "limited", "wheelchair:description": "nach Neubesetzung erneut prüfen"}}, {"type": "node", "id": 2115685661, "lat": 53.5572061, "lon": 10.0107139, "tags": {"amenity": "ice_cream", "check_date": "2023-10-05", "fax": "+49 40 70704238", "level": "-0.5", "name": "Eiscafé Triboli", "opening_hours": "Mo-Su 12:00-20:00", "phone": "+49 40 70704236", "toilets:wheelchair": "no", "wheelchair": "no"}}, {"type": "node", "id": 2119646665, "lat": 53.5592065, "lon": 10.1065856, "tags": {"addr:city": "Hamburg", "addr:country": "DE", "addr:housenumber": "111", "addr:postcode": "22119", "addr:street": "Manshardtstraße", "amenity": "ice_cream", "name": "dolce Italia"}}, {"type": "node", "id": 2148881586, "lat": 53.5486571, "lon": 9.9220187, "tags": {"addr:city": "Hamburg", "addr:country": "DE", "addr:housenumber": "39", "addr:postcode": "22763", "addr:street": "Fischers Allee", "amenity": "ice_cream", "cuisine": "ice_cream", "indoor_seating": "yes", "name": "frau meis", "opening_hours": "12:00-20:30", "outdoor_seating": "sidewalk", "phone": "+49 4088238144", "source": "survey", "website": "https://fraumeis.de/", "wheelchair": "no"}}, {"type": "node", "id": 2278248221, "lat": 53.5739099, "lon": 9.8468874, "tags": {"addr:city": "Hamburg", "addr:housenumber": "10", "addr:postcode": "22549", "addr:street": "Rugenbarg", "amenity": "ice_cream", "drive_through": "no", "name": "Eis Kalte Schnauze", "opening_hours": "Mo-Tu 14:00-17:30; Th-Sa 14:00-17:30; Su 13:00-17:30", "outdoor_seating": "yes", "website": "https://www.eis-kalte-schnauze.de/", "wheelchair": "no"}}, {"type": "node", "id": 2318856811, "lat": 53.5415548, "lon": 9.9885122, "tags": {"amenity": "ice_cream", "check_date": "2024-05-01", "internet_access": "no", "name": "Moon & Cream", "smoking": "no", "takeaway": "only", "wheelchair": "yes"}}, {"type": "node", "id": 2415698375, "lat": 53.5158832, "lon": 9.9871689, "tags": {"addr:housenumber": "67", "addr:street": "Fährstraße", "amenity": "ice_cream", "check_date": "2024-05-31", "check_date:opening_hours": "2024-05-23", "contact:phone": "+49 40 84203532", "cuisine": "ice_cream", "delivery": "no", "drive_through": "no", "level": "0", "name": "San Remo", "opening_hours": "Mo 09:00-21:00; Tu-Th,Su,PH 10:00-22:00; Fr 10:00-23:00; Sa 09:00-22:00", "outdoor_seating": "yes", "smoking": "no", "wheelchair": "no"}}, {"type": "node", "id": 2443163642, "lat": 53.6524274, "lon": 9.7902647, "tags": {"addr:city": "Pinneberg", "addr:housenumber": "43", "addr:postcode": "25421", "addr:street": "Heinrich-Christiansen-Straße", "amenity": "ice_cream", "contact:facebook": "https://www.facebook.com/jannyseiskaffeequellental/", "cuisine": "ice_cream", "internet_access": "wlan", "name": "Jannys Eis Café", "opening_hours": "Mo-Su 11:00-19:00", "outdoor_seating": "yes", "phone": "+49 151 41355154", "takeaway": "yes", "website": "https://pinneberg-quellental.jannys.de/", "wheelchair": "yes"}}, {"type": "node", "id": 2619881472, "lat": 53.5612872, "lon": 9.9623578, "tags": {"addr:city": "Hamburg", "addr:country": "DE", "addr:housenumber": "57", "addr:postcode": "20357", "addr:street": "Schulterblatt", "amenity": "ice_cream", "check_date:opening_hours": "2024-02-04", "name": "Eis Café Venezia", "opening_hours:signed": "no", "wheelchair": "no"}}, {"type": "node", "id": 2674904835, "lat": 53.559353, "lon": 9.8869089, "tags": {"amenity": "ice_cream", "check_date:opening_hours": "2023-09-02", "indoor_seating": "yes", "name": "Eisbahn", "opening_hours:signed": "no", "outdoor_seating": "yes", "wheelchair": "yes"}}, {"type": "node", "id": 2708946610, "lat": 53.5829658, "lon": 10.0105147, "tags": {"addr:city": "Hamburg", "addr:country": "DE", "addr:housenumber": "46", "addr:postcode": "22303", "addr:street": "Mühlenkamp", "amenity": "ice_cream", "check_date": "2023-08-10", "cuisine": "ice_cream", "name": "Eis & Innig", "opening_hours": "Mar: Mo-Su 12:30-18:00, Apr: Mo-Su 12:00-18:00, May: Mo-Su 12:00-20:00, Jun-Aug: Mo-Su 12:00-20:00, Sep: Mo-Su 12:30-18:00, Oct: Mo-Su 13:00-18:00", "outdoor_seating": "yes", "wheelchair": "no"}}, {"type": "node", "id": 2753388172, "lat": 53.5619264, "lon": 10.0363377, "tags": {"addr:city": "Hamburg", "addr:housenumber": "18", "addr:street": "Landwehr", "amenity": "ice_cream", "name": "Eiscafé Calluna"}}, {"type": "node", "id": 2826997291, "lat": 53.4572675, "lon": 9.9872703, "tags": {"amenity": "ice_cream"}}, {"type": "node", "id": 2849917232, "lat": 53.5497699, "lon": 9.9936073, "tags": {"addr:city": "Hamburg", "addr:country": "DE", "addr:housenumber": "4", "addr:postcode": "20457", "addr:street": "Kleine Johannisstraße", "amenity": "ice_cream", "contact:facebook": "https://www.facebook.com/eisschleckereihamburg/", "name": "Eisschleckerei", "opening_hours": "Mo-Fr 12:30-16:00", "start_date": "2021-04-07"}}, {"type": "node", "id": 2891650401, "lat": 53.5508349, "lon": 9.9121912, "tags": {"addr:city": "Hamburg", "addr:country": "DE", "addr:housenumber": "15", "addr:postcode": "22763", "addr:street": "Am Rathenaupark", "amenity": "ice_cream", "check_date": "2024-04-07", "email": "post@eisprinzessinnen.de", "indoor_seating": "yes", "name": "Eisprinzessinnen", "opening_hours": "Mo-Su 12:00-20:00", "operator": "Katrin Kerkhoff", "outdoor_seating": "yes", "phone": "+49 40 68894221", "ref:vatin": "DE329098494", "website": "https://www.eisprinzessinnen.de/", "wheelchair": "no"}}, {"type": "node", "id": 2919467709, "lat": 53.5679623, "lon": 9.9641991, "tags": {"amenity": "ice_cream", "name": "Eiscafé Da Leandro", "note": "Gehört mit zur Trattoria da Leandro"}}, {"type": "node", "id": 2926161247, "lat": 53.5640676, "lon": 9.907872, "tags": {"addr:city": "Hamburg", "addr:floor": "0", "addr:housenumber": "78", "addr:postcode": "22761", "addr:street": "Mendelssohnstraße", "amenity": "ice_cream", "check_date": "2023-07-02", "diet:vegan": "yes", "indoor_seating": "yes", "name": "Eispiraten", "opening_hours": "PH,Tu-Su 12:00-19:00", "outdoor_seating": "yes", "payment:debit_cards": "yes", "toilets": "customer", "wheelchair": "limited"}}, {"type": "node", "id": 2927135731, "lat": 53.5666263, "lon": 10.0418014, "tags": {"addr:city": "Hamburg", "addr:housenumber": "2", "addr:postcode": "22089", "addr:street": "Hirschgraben", "amenity": "ice_cream", "indoor_seating": "yes", "name": "Dani Gelato", "opening_hours": "Oct-Mar off", "outdoor_seating": "yes"}}, {"type": "node", "id": 3388209146, "lat": 53.6337575, "lon": 9.9201292, "tags": {"addr:city": "Hamburg", "addr:housenumber": "29", "addr:postcode": "22457", "addr:street": "Frohmestraße", "amenity": "ice_cream", "contact:facebook": "https://www.facebook.com/eiscafe.schnelsen", "diet:dairy_free": "yes", "diet:egg_free": "yes", "diet:lacto_vegetarian": "yes", "diet:lactose_free": "yes", "diet:ovo_vegetarian": "yes", "diet:vegan": "yes", "diet:vegetarian": "yes", "indoor_seating": "yes", "name": "Eiscafe Venezia", "opening_hours": "Mo-Su 10:00-22:00", "outdoor_seating": "yes", "payment:cash": "yes", "payment:coins": "yes", "phone": "+49 40 57013891", "start_date": "2016", "takeaway": "yes", "vatin": "DE311079943", "wheelchair": "yes"}}, {"type": "node", "id": 3438081485, "lat": 53.48682, "lon": 10.1810271, "tags": {"addr:city": "Hamburg", "addr:postcode": "21035", "addr:street": "Edith-Stein-Platz", "amenity": "ice_cream", "name": "Jannys Eis", "opening_hours": "Mo-Sa 11:00-20:00", "wheelchair": "yes"}}, {"type": "node", "id": 3450868947, "lat": 53.6052848, "lon": 10.1566658, "tags": {"amenity": "ice_cream", "name": "Cafe Venezia", "opening_hours": "\"Aktuell kein Schild, hat im Winter nicht offen\""}}, {"type": "node", "id": 3451525458, "lat": 53.5457059, "lon": 10.1059673, "tags": {"addr:city": "Hamburg", "addr:country": "DE", "addr:housenumber": "62", "addr:postcode": "22119", "addr:street": "Schiffbeker Weg", "amenity": "ice_cream", "name": "Eis-Hille", "opening_hours": "Mo-Su 12:00-20:00", "phone": "+49 40 7322896"}}, {"type": "node", "id": 3656263642, "lat": 53.5519386, "lon": 10.0047861, "tags": {"amenity": "ice_cream", "check_date": "2023-04-05", "diet:vegan": "yes", "indoor_seating": "no", "name": "Eis Ciprian", "note": "Currently closed (without notice), but maybe opens again in spring 2020", "opening_hours": "closed", "opening_hours:signed": "no", "outdoor_seating": "no", "takeaway": "only", "wheelchair": "yes"}}, {"type": "node", "id": 3672068811, "lat": 53.5760896, "lon": 9.9502524, "tags": {"addr:city": "Hamburg", "addr:country": "DE", "addr:housenumber": "133", "addr:postcode": "20255", "addr:street": "Osterstraße", "amenity": "ice_cream", "check_date": "2023-07-09", "contact:fax": "+49 40 35674434", "contact:phone": "+49 40 605906725", "contact:website": "https://luicellas.de/blogs/erleben/eisladen", "diet:gluten_free": "yes", "diet:vegan": "yes", "diet:vegetarian": "yes", "drive_through": "no", "indoor_seating": "yes", "name": "Luicella’s Ice Cream", "name:was": "BR-Spielwaren", "opening_hours": "Mo-Su 12:00-21:00", "outdoor_seating": "yes", "payment:cash": "yes", "payment:coins": "yes", "payment:credit_cards": "yes", "payment:debit_cards": "yes", "payment:maestro": "yes", "payment:mastercard": "yes", "payment:visa": "yes", "wheelchair": "yes"}}, {"type": "node", "id": 3686157713, "lat": 53.5921417, "lon": 10.0439037, "tags": {"addr:city": "Hamburg", "addr:country": "DE", "addr:housenumber": "155", "addr:postcode": "22305", "addr:street": "Fuhlsbüttler Straße", "amenity": "ice_cream", "check_date:opening_hours": "2022-12-03", "cuisine": "ice_cream", "indoor_seating": "yes", "name": "Mio Eiscafe", "opening_hours:signed": "no", "outdoor_seating": "yes", "toilets:wheelchair": "no", "wheelchair": "yes"}}, {"type": "node", "id": 3700015239, "lat": 53.683215, "lon": 9.9874873, "tags": {"addr:city": "Norderstedt", "addr:housenumber": "12", "addr:postcode": "22850", "addr:street": "Europaallee", "amenity": "ice_cream", "cuisine": "ice_cream", "indoor_seating": "yes", "internet_access": "wlan", "internet_access:ssid": "Venezia Gastzugang", "name": "Eiscafé Venezia", "opening_hours": "Mo-Fr 09:30-20:00; Sa 10:00-20:00", "outdoor_seating": "yes", "phone": "+49405238074", "smoking": "isolated", "wheelchair": "yes"}}, {"type": "node", "id": 3726686321, "lat": 53.5450614, "lon": 9.970579, "tags": {"amenity": "ice_cream", "contact:phone": "+49 4031794484", "name": "Eis-Meier", "wheelchair": "yes"}}, {"type": "node", "id": 3727886208, "lat": 53.5453281, "lon": 9.9664442, "tags": {"amenity": "ice_cream", "check_date": "2023-12-16", "name": "Eis & Mee(h)r"}}, {"type": "node", "id": 3756288700, "lat": 53.5506495, "lon": 9.9647305, "tags": {"addr:city": "Hamburg", "addr:country": "DE", "addr:housenumber": "46", "addr:postcode": "20359", "addr:street": "Detlev-Bremer-Straße", "amenity": "ice_cream", "contact:phone": "+49 40 94793009", "contact:website": "https://luicellas.de/blogs/erleben/eisladen", "diet:vegan": "yes", "name": "Luicella’s Ice Cream", "opening_hours": "12:00-22:00", "wheelchair": "no"}}, {"type": "node", "id": 3876155549, "lat": 53.5861289, "lon": 10.0433996, "tags": {"addr:city": "Hamburg", "addr:housenumber": "5", "addr:postcode": "22305", "addr:street": "Poppenhusenstraße", "amenity": "ice_cream", "cuisine": "ice_cream;coffee_shop", "indoor_seating": "yes", "name": "Café P5", "opening_hours": "Mo,Tu,Fr,Sa 10:00-18:00; Th 10:00-16:00; Su 12:00-18:00; We off", "outdoor_seating": "yes", "payment:credit_cards": "no", "payment:debit_cards": "yes", "website": "https://p5-cafe.de/", "wheelchair": "no"}}, {"type": "node", "id": 3957277858, "lat": 53.5824129, "lon": 10.015962, "tags": {"addr:city": "Hamburg", "addr:housenumber": "29", "addr:postcode": "22303", "addr:street": "Gertigstraße", "amenity": "ice_cream", "check_date": "2023-06-03", "name": "Eishunger", "wheelchair": "limited"}}, {"type": "node", "id": 3988908927, "lat": 53.5614675, "lon": 9.9657889, "tags": {"addr:city": "Hamburg", "addr:country": "DE", "addr:housenumber": "52", "addr:postcode": "20357", "addr:street": "Schanzenstraße", "amenity": "ice_cream", "contact:website": "https://luicellas.de/blogs/erleben/eisladen", "diet:vegan": "yes", "indoor_seating": "no", "name": "Luicella´s ice cream", "opening_hours": "Mo-Th 12:30-22:00; Fr-Su 12:00-22:30", "outdoor_seating": "no", "takeaway": "only"}}, {"type": "node", "id": 4155893104, "lat": 53.4563386, "lon": 9.9866023, "tags": {"addr:city": "Hamburg", "addr:country": "DE", "addr:housenumber": "86", "addr:postcode": "21079", "addr:street": "Hannoversche Straße", "amenity": "ice_cream", "check_date": "2024-03-12", "check_date:opening_hours": "2021-04-22", "delivery": "no", "drive_in": "no", "level": "0", "name": "Giovanni L.", "opening_hours": "Mo-Sa 09:30-20:00", "source": "survey", "takeaway": "yes", "website": "http://giovannil.de/", "wheelchair": "yes"}}, {"type": "node", "id": 4155915062, "lat": 53.456264, "lon": 9.9874757, "tags": {"addr:city": "Hamburg", "addr:country": "DE", "addr:housenumber": "86", "addr:postcode": "21079", "addr:street": "Hannoversche Straße", "amenity": "ice_cream", "level": "0", "name": "Langnese Happiness Station", "source": "survey"}}, {"type": "node", "id": 4159045940, "lat": 53.6167435, "lon": 9.867091, "tags": {"addr:city": "Halstenbek", "addr:country": "DE", "addr:housenumber": "250", "addr:postcode": "25469", "addr:street": "Seestraße", "amenity": "ice_cream", "description": "Eis, Kaffee, Desserts", "level": "1", "name": "Kleines Café Krupunder", "outdoor_seating": "yes", "takeaway": "yes", "website": "http://www.kleines-cafe.com/", "wheelchair": "yes"}}, {"type": "node", "id": 4168103282, "lat": 53.4569696, "lon": 9.9878049, "tags": {"addr:city": "Hamburg", "addr:country": "DE", "addr:housenumber": "86", "addr:postcode": "21079", "addr:street": "Hannoversche Straße", "amenity": "ice_cream", "level": "1", "name": "Eisbrecher", "source": "survey"}}, {"type": "node", "id": 4232476628, "lat": 53.5780873, "lon": 9.9503551, "tags": {"addr:city": "Hamburg", "addr:housenumber": "56", "addr:postcode": "20255", "addr:street": "Schwenckestraße", "amenity": "ice_cream", "email": "hej@hej-eis.de", "indoor_seating": "yes", "name": "Hej Eis Eimsbüttel", "opening_hours": "Mo-Su 12:00-19:00", "operator": "Hansefresh GmbH", "outdoor_seating": "yes", "phone": "+49 40 30 74 81 84", "seasonal": "spring;summer;autumn", "website": "https://hej-eis.de", "wheelchair": "yes"}}, {"type": "node", "id": 4293394394, "lat": 53.5598502, "lon": 10.0141776, "tags": {"addr:city": "Hamburg", "addr:country": "DE", "addr:housenumber": "113", "addr:postcode": "20099", "addr:street": "Lange Reihe", "air_conditioning": "no", "amenity": "ice_cream", "contact:website": "https://www.luicellas.de/", "diet:vegan": "yes", "diet:vegetarian": "yes", "indoor_seating": "yes", "name": "Luicellas", "opening_hours": "12:00-22:00", "outdoor_seating": "yes", "payment:credit_cards": "yes", "payment:debit_cards": "yes", "wheelchair": "limited"}}, {"type": "node", "id": 4370285053, "lat": 53.5444924, "lon": 9.9141663, "tags": {"addr:housenumber": "1", "addr:street": "Övelgönne", "amenity": "ice_cream", "check_date:opening_hours": "2024-04-20", "indoor_seating": "no", "name": "Café Elbterassen", "opening_hours:signed": "no", "outdoor_seating": "no", "takeaway": "only", "wheelchair": "yes"}}, {"type": "node", "id": 4370320680, "lat": 53.5576912, "lon": 10.0512517, "tags": {"access:covid19": "yes", "amenity": "ice_cream", "check_date": "2023-06-09", "delivery:covid19": "no", "indoor_seating": "no", "name": "Orogelato", "opening_hours": "Mo-Su,PH 10:00-18:00", "outdoor_seating": "no", "payment:cards": "no", "payment:cash": "yes", "payment:credit_cards": "no", "payment:debit_cards": "no", "payment:qr_code": "no", "takeaway": "only", "takeaway:covid19": "yes", "wheelchair": "yes"}}, {"type": "node", "id": 4515066449, "lat": 53.5477971, "lon": 9.9322201, "tags": {"amenity": "ice_cream", "indoor_seating": "yes", "name": "Eiscafe am Klopstockplatz", "opening_hours": "Mo-Su 11:00-19:00", "outdoor_seating": "yes", "wheelchair": "yes"}}, {"type": "node", "id": 4552019369, "lat": 53.4459458, "lon": 9.8833447, "tags": {"amenity": "ice_cream", "name": "Eisstand"}}, {"type": "node", "id": 4715138292, "lat": 53.5524031, "lon": 9.9225868, "tags": {"addr:city": "Hamburg", "addr:housenumber": "78", "addr:postcode": "22763", "addr:street": "Fischers Allee", "amenity": "ice_cream", "branch": "Hamburg Ottensen", "brand": "Schlecks", "contact:facebook": "https://www.facebook.com/schlecks.hamburg/", "description:en": "Ice cream & Candies.", "diet:vegan": "yes", "email": "hamburg@schlecks.com", "indoor_seating": "yes", "name": "Schlecks Hamburg", "opening_hours": "PH,Mo-Su 12:00-18:00", "operator": "Schlecks Franchise GmbH", "outdoor_seating": "yes", "phone": "+49 40 22667563", "ref:vatin": "DE313038408", "website": "https://www.schlecks.com/hamburgottensen/", "website:menu": "https://www.schlecks.com/speisekarte/", "wheelchair": "limited"}}, {"type": "node", "id": 4884186621, "lat": 53.5815746, "lon": 9.9799955, "tags": {"addr:city": "Hamburg", "addr:housenumber": "102", "addr:street": "Klosterallee", "amenity": "ice_cream", "check_date": "2023-05-20", "diet:vegan": "yes", "name": "Eis & innig", "opening_hours": "May-Sep: Mo-Su 13:00-20:00", "wheelchair": "no"}}, {"type": "node", "id": 4944072464, "lat": 53.6254985, "lon": 10.1402588, "tags": {"amenity": "ice_cream", "name": "Orogelato", "wheelchair": "yes"}}, {"type": "node", "id": 4963723721, "lat": 53.5720803, "lon": 9.9778402, "tags": {"addr:city": "Hamburg", "addr:country": "DE", "addr:housenumber": "2a", "addr:postcode": "20144", "addr:street": "Beim Schlump", "amenity": "ice_cream", "check_date:opening_hours": "2023-02-26", "diet:vegan": "yes", "indoor_seating": "no", "name": "eis Hamburg", "opening_hours:signed": "no", "outdoor_seating": "yes", "shop": "confectionery", "wheelchair": "yes"}}, {"type": "node", "id": 5007332935, "lat": 53.5860269, "lon": 10.0057251, "tags": {"addr:city": "Hamburg", "addr:housenumber": "99", "addr:postcode": "22301", "addr:street": "Dorotheenstraße", "amenity": "ice_cream", "name": "Froyowelt", "opening_hours": "Mo 12:00-17:00; Tu off; We 14:00-17:00; Th-Su 13:00-17:00", "website": "https://www.froyowelt.de/", "wheelchair": "no"}}, {"type": "node", "id": 5056117592, "lat": 53.4912152, "lon": 10.2078567, "tags": {"amenity": "ice_cream", "name": "Eiscafé Brazil", "wheelchair": "no"}}, {"type": "node", "id": 5114767901, "lat": 53.4437499, "lon": 9.8889763, "tags": {"amenity": "ice_cream", "name:signed": "no"}}, {"type": "node", "id": 5517822496, "lat": 53.5510944, "lon": 9.9933166, "tags": {"amenity": "ice_cream", "check_date:opening_hours": "2023-05-08", "delivery": "no", "indoor_seating": "no", "name": "LItaliana", "opening_hours:signed": "no", "outdoor_seating": "yes", "payment:cash": "yes", "payment:credit_cards": "no", "payment:cryptocurrencies": "no", "payment:debit_cards": "no", "payment:electronic_purses": "no", "smoking": "outside", "takeaway": "yes", "wheelchair": "yes"}}, {"type": "node", "id": 5590823254, "lat": 53.4572823, "lon": 9.9419083, "tags": {"addr:housenumber": "34", "addr:street": "Bünte", "amenity": "ice_cream", "name": "Bünte Kiosk", "opening_hours": "Mo-Su 09:00-21:00"}}, {"type": "node", "id": 5677186252, "lat": 53.5830685, "lon": 10.0182924, "tags": {"amenity": "ice_cream", "name": "Rostand & Shanis Pop-Up African Snack", "opening_hours:signed": "no", "outdoor_seating": "yes", "wheelchair": "yes"}}, {"type": "node", "id": 5754871754, "lat": 53.7081717, "lon": 10.1087034, "tags": {"addr:housenumber": "2", "addr:street": "Farkenwisch", "amenity": "ice_cream", "name": "Duvenstedter Eisschnecke"}}, {"type": "node", "id": 5795798113, "lat": 53.5957193, "lon": 10.0439071, "tags": {"addr:city": "Hamburg", "addr:country": "DE", "addr:housenumber": "224", "addr:postcode": "22307", "addr:street": "Fuhlsbüttler Straße", "amenity": "ice_cream", "check_date": "2024-06-01", "description": "Wheelchair only outside", "indoor_seating": "yes", "name": "Eis-Cafe Tonis Gelato", "opening_hours:signed": "no", "outdoor_seating": "yes", "wheelchair": "limited"}}, {"type": "node", "id": 5835061685, "lat": 53.5578109, "lon": 9.9630362, "tags": {"addr:housenumber": "13", "addr:postcode": "20359", "addr:street": "Beim Grünen Jäger", "amenity": "ice_cream", "diet:vegan": "yes", "indoor_seating": "yes", "name": "Beizini - Die Eismanufaktur", "name:en": "Beizini", "opening_hours": "Tu-Su 12:00-20:00", "outdoor_seating": "yes", "wheelchair": "no"}}, {"type": "node", "id": 5981377986, "lat": 53.5470771, "lon": 9.977716, "tags": {"addr:city": "Hamburg", "addr:housenumber": "6", "addr:postcode": "20459", "addr:street": "Venusberg", "amenity": "ice_cream", "drive_through": "no", "level": "0", "name": "Moin", "old_name": "Bakó Eis-Stübchen", "opening_hours": "10:00+", "outdoor_seating": "yes", "payment:coins": "yes", "payment:notes": "yes", "phone": "+49 40 364137", "takeaway": "yes", "website": "https://www.moin-eiscafe.de/", "website:menu": "https://www.moin-eiscafe.de/speisekarte/", "wheelchair": "yes"}}, {"type": "node", "id": 6103385599, "lat": 53.555035, "lon": 9.9898606, "tags": {"amenity": "ice_cream", "diet:vegan": "yes", "indoor_seating": "no", "name": "Eisige Liebe", "opening_hours": "Mo-Sa 10:00-20:00; Su 12:00-20:00", "opening_hours:signed": "no", "outdoor_seating": "no", "payment:cash": "yes", "payment:credit_cards": "no", "payment:cryptocurrencies": "no", "payment:debit_cards": "no", "payment:electronic_purses": "no", "takeaway": "only", "wheelchair": "no"}}, {"type": "node", "id": 6189796612, "lat": 53.5072064, "lon": 9.9883354, "tags": {"addr:city": "Hamburg", "addr:housenumber": "85", "addr:postcode": "21107", "addr:street": "Weimarer Straße", "amenity": "ice_cream", "contact:facebook": "https://www.facebook.com/wilhelmsburger.eisdealer", "diet:vegan": "yes", "email": "hallo@wilhelmsburger-eisdealer.de", "name": "Wilhelmsburger Eisdealer", "opening_hours": "Mo-Thu 12:00-19:00; Fr 10:00-19:00; Su-Su 11:00-19:00", "outdoor_seating": "no", "phone": "+49 176 80224678", "takeaway": "yes", "website": "http://wilhelmsburger-eisdealer.de/"}}, {"type": "node", "id": 6360168033, "lat": 53.6172352, "lon": 10.0774552, "tags": {"addr:city": "Hamburg", "addr:country": "DE", "addr:housenumber": "291", "addr:postcode": "22177", "addr:street": "Bramfelder Chaussee", "amenity": "ice_cream", "indoor_seating": "yes", "name": "Eiscafé Dante", "opening_hours": "Mo-Su 09:00-20:00", "outdoor_seating": "yes", "toilets:wheelchair": "no", "wheelchair": "limited"}}, {"type": "node", "id": 6376216796, "lat": 53.4609001, "lon": 9.9814138, "tags": {"amenity": "ice_cream", "contact:mobile": "+49 1725452319", "entrance": "yes", "name": "Piccolino", "opening_hours:signed": "no", "outdoor_seating": "yes", "payment:cash": "yes", "payment:credit_cards": "no", "payment:cryptocurrencies": "no", "payment:debit_cards": "no", "payment:electronic_purses": "no", "smoking": "outside", "takeaway": "yes", "wheelchair": "no"}}, {"type": "node", "id": 6555209346, "lat": 53.5459907, "lon": 9.9615888, "tags": {"amenity": "ice_cream", "contact:phone": "+49 4532 4084277", "name": "Kleine Eisbude"}}, {"type": "node", "id": 6567505085, "lat": 53.5410622, "lon": 9.9914063, "tags": {"addr:city": "Hamburg", "addr:housenumber": "19", "addr:postcode": "20457", "addr:street": "Am Kaiserkai", "amenity": "ice_cream", "check_date": "2024-02-03", "delivery": "no", "diet:vegan": "yes", "internet_access": "no", "name": "Eisige Liebe", "opening_hours:signed": "no", "outdoor_seating": "yes", "payment:cash": "yes", "payment:credit_cards": "no", "payment:cryptocurrencies": "no", "payment:debit_cards": "no", "payment:electronic_purses": "no", "smoking": "outside", "takeaway": "only", "website": "https://eisige-liebe.business.site", "wheelchair": "no"}}, {"type": "node", "id": 6594702781, "lat": 53.4636749, "lon": 9.9806292, "tags": {"amenity": "ice_cream", "indoor_seating": "yes", "name": "Gelateria", "opening_hours:signed": "no", "outdoor_seating": "yes", "restaurant": "ice_cream"}}, {"type": "node", "id": 6981379580, "lat": 53.6100785, "lon": 9.9739472, "tags": {"addr:city": "Hamburg", "addr:country": "DE", "addr:housenumber": "1", "addr:postcode": "22453", "addr:street": "Warnckesweg", "amenity": "ice_cream", "contact:facebook": "https://www.facebook.com/Kugellager/", "contact:phone": "+49 40 5534228", "delivery": "no", "name": "Eiscafé Kugellager", "opening_hours": "Mo-Su 11:00-18:00", "outdoor_seating": "yes", "takeaway": "yes", "website": "https://ottoseiscafe.de/eis-cafe-gross-borstel.html"}}, {"type": "node", "id": 7118222063, "lat": 53.7298935, "lon": 10.2695842, "tags": {"amenity": "ice_cream", "name": "Elvis Eis", "wheelchair": "yes"}}, {"type": "node", "id": 7479346085, "lat": 53.579176, "lon": 9.9651849, "tags": {"addr:city": "Hamburg", "addr:country": "DE", "addr:housenumber": "161", "addr:postcode": "20253", "addr:street": "Eppendorfer Weg", "amenity": "ice_cream", "check_date": "2023-04-10", "diet:vegan": "yes", "name": "Oehlers Eispatisserie", "opening_hours": "Mo-Fr 12:30-18:00; Sa,Su 12:30-19:00", "wheelchair": "yes"}}, {"type": "node", "id": 7658404606, "lat": 53.5853842, "lon": 9.982515, "tags": {"addr:city": "Hamburg", "addr:country": "DE", "addr:housenumber": "10", "addr:postcode": "20249", "addr:street": "Eppendorfer Landstraße", "amenity": "ice_cream", "contact:email": "moin@luicellas.de", "contact:facebook": "https://www.facebook.com/luicellaseppendorf", "contact:phone": "+49 40 605 906 725", "contact:website": "https://luicellas.de", "diet:vegan": "yes", "fixme": "Zahlungsarten prüfen", "indoor_seating": "yes", "name": "Luicellas", "opening_hours": "Mo-Fr 12:30-21:00; Sa, Su 12:00-21:00", "outdoor_seating": "yes", "payment:american_express": "yes", "payment:apple_pay": "yes", "payment:cash": "yes", "payment:girocard": "yes", "payment:google_pay": "yes", "payment:maestro": "yes", "payment:mastercard": "yes", "payment:visa": "yes", "wheelchair": "limited"}}, {"type": "node", "id": 7791981031, "lat": 53.7048279, "lon": 10.0089848, "tags": {"addr:city": "Norderstedt", "addr:housenumber": "2", "addr:postcode": "22844", "addr:street": "Marktplatz", "amenity": "ice_cream", "branch": "Norderstedt am Markt", "contact:facebook": "https://www.facebook.com/jannysnorderstedtmarkt", "indoor_seating": "yes", "name": "Jannys Eis", "opening_hours": "Mo-Su 11:00-19:45", "outdoor_seating": "yes", "phone": "+49 40 35737573", "takeaway": "yes", "website": "https://norderstedt-am-markt.jannys.de/"}}, {"type": "node", "id": 8290477703, "lat": 53.5732028, "lon": 9.9601343, "tags": {"addr:housenumber": "89", "addr:street": "Eppendorfer Weg", "amenity": "ice_cream", "check_date": "2024-05-27", "level": "0", "name": "Gelato Trapani", "opening_hours": "Mo off; Tu-Fr 08:30-18:00; Sa-Su 10:00-18:00", "outdoor_seating": "yes", "payment:cards": "no", "payment:cash": "yes", "payment:credit_cards": "no", "payment:debit_cards": "no", "wheelchair": "yes"}}, {"type": "node", "id": 8290542424, "lat": 53.5742664, "lon": 9.9599157, "tags": {"addr:housenumber": "21", "addr:street": "Osterstraße", "amenity": "ice_cream", "delivery": "no", "diet:vegan": "no", "indoor_seating": "yes", "level": "0", "name": "Eiscafé San Remo", "opening_hours": "Mo 10:00-20:00; Tu 10:00-20:00; We 10:00-20:00; Th 10:00-20:00; Fr 10:00-20:00; Sa 10:00-20:00; Su 10:00-20:00", "outdoor_seating": "yes", "phone": "+49-40-43097970", "takeaway": "yes", "website": "https://www.eiscafe-sanremo.business.site/", "wheelchair": "limited"}}, {"type": "node", "id": 8323515197, "lat": 53.616558, "lon": 10.1140531, "tags": {"addr:city": "Hamburg", "addr:housenumber": "105", "addr:postcode": "22159", "addr:street": "Neusurenland", "amenity": "ice_cream", "diet:vegan": "yes", "name": "Eiscafé Lura", "opening_hours": "PH,Mo-Su 10:00-19:30", "outdoor_seating": "yes", "wheelchair": "no"}}, {"type": "node", "id": 8651886996, "lat": 53.664678, "lon": 9.9056976, "tags": {"addr:city": "Bönningstedt", "addr:housenumber": "4", "addr:postcode": "25474", "addr:street": "Am Markt", "amenity": "ice_cream", "delivery": "no", "description": "Kleine Eisdiele, betrieben von einem Italienier", "diet:halal": "no", "diet:kosher": "no", "diet:vegan": "yes", "drive_through": "no", "indoor_seating": "yes", "name": "Eiscafé Bella Italia", "opening_hours": "Mo-Sa 10:30-21:30; Su 11:30-21:30", "outdoor_seating": "no", "payment:cash": "yes", "smoking": "no", "start_date": "2021.04.20", "takeaway": "yes", "wheelchair": "yes"}}, {"type": "node", "id": 8900989810, "lat": 53.5484088, "lon": 9.9650361, "tags": {"addr:postcode": "20359", "amenity": "ice_cream", "diet:vegan": "yes", "name": "zuckermonarchie", "name:de": "Zuckermonarchie", "opening_hours": "Tu-Fr 12:00-18:00; Sa-Su 10:00-18:00", "phone": "+49 40 38 63 06 82", "website": "https://www.zuckermonarchie.de/", "wheelchair": "yes"}}, {"type": "node", "id": 8902012916, "lat": 53.5511856, "lon": 9.9648978, "tags": {"amenity": "ice_cream", "check_date": "2023-12-28", "name": "LELA - Liebe Eis liebe Alles"}}, {"type": "node", "id": 9124074311, "lat": 53.5965572, "lon": 9.9875293, "tags": {"addr:city": "Hamburg", "addr:country": "DE", "addr:housenumber": "4", "addr:postcode": "20251", "addr:street": "Schubackstraße", "amenity": "ice_cream", "name": "Deli Kate", "opening_hours": "Mo-Fr 07:30-18:00; Sa,Su 08:00-18:00"}}, {"type": "node", "id": 9236605397, "lat": 53.5516129, "lon": 9.9957898, "tags": {"amenity": "ice_cream", "check_date:opening_hours": "2022-06-19", "indoor_seating": "yes", "level": "-1", "name": "Quarkerei", "opening_hours:signed": "no", "outdoor_seating": "no"}}, {"type": "node", "id": 9236605492, "lat": 53.5511423, "lon": 9.9968564, "tags": {"amenity": "ice_cream", "level": "1", "name": "LItaliana Gelateria", "payment:cash": "yes", "payment:credit_cards": "no", "payment:cryptocurrencies": "no", "payment:debit_cards": "no", "payment:electronic_purses": "no"}}, {"type": "node", "id": 9293791103, "lat": 53.6744571, "lon": 10.2401528, "tags": {"addr:city": "Ahrensburg", "addr:street": "Große Straße", "amenity": "ice_cream", "name": "Gelato", "opening_hours": "Mo-Sa 10:00-19:00, Sa,Su 11:00-19:00"}}, {"type": "node", "id": 9790977061, "lat": 53.5800108, "lon": 9.967942, "tags": {"addr:housenumber": "170", "addr:street": "Eppendorfer Weg", "amenity": "ice_cream", "check_date": "2024-03-16", "level": "0", "name": "Eisliebe", "opening_hours": "Mo-Su 12:00-19:00", "payment:cards": "no", "payment:cash": "yes", "payment:credit_cards": "no", "payment:debit_cards": "no", "takeaway": "yes"}}, {"type": "node", "id": 9863852643, "lat": 53.5712499, "lon": 10.1339709, "tags": {"amenity": "ice_cream", "name": "Eiscafé Florenz", "opening_hours": "Su 10:00-20:00; Mo-Sa 08:00-20:00"}}, {"type": "node", "id": 9891432118, "lat": 53.5525668, "lon": 9.9625769, "tags": {"addr:city": "Hamburg", "addr:country": "DE", "addr:housenumber": "79", "addr:postcode": "20359", "addr:street": "Clemens-Schultz-Straße", "amenity": "ice_cream", "contact:website": "https://luicellas.de/blogs/erleben/eisladen", "diet:vegan": "yes", "name": "Luicellas Ice Cream", "opening_hours": "Mo-Th 14:00-18:00; Fr 14:00-20:00; Sa, Su 12:00-20:00"}}, {"type": "node", "id": 9897761574, "lat": 53.4061634, "lon": 10.176826, "tags": {"addr:housenumber": "99", "addr:street": "Süderquerweg", "amenity": "ice_cream", "contact:facebook": "https://facebook.com/pages/category/Ice-Cream-Shop/Passione-Gelato-105615484730651/", "name": "Passione Gelato", "opening_hours": "Tu-Su 13:30-19:00"}}, {"type": "node", "id": 9941762634, "lat": 53.5538034, "lon": 9.8966029, "tags": {"addr:city": "Hamburg", "addr:housenumber": "2", "addr:postcode": "22605", "addr:street": "Agathe-Lasch-Weg", "amenity": "ice_cream", "contact:mobile": "+49 151 54630692", "indoor_seating": "no", "name": "Eishörnchen", "opening_hours": "We-Mo 12:00-18:00", "outdoor_seating": "yes", "wheelchair": "yes"}}, {"type": "node", "id": 10005277854, "lat": 53.6493404, "lon": 10.1661153, "tags": {"amenity": "ice_cream", "name": "Eisbar", "website": "https://www.die-eisbar.de/"}}, {"type": "node", "id": 10032525071, "lat": 53.6731121, "lon": 10.2374446, "tags": {"amenity": "ice_cream", "name": "La Volpe"}}, {"type": "node", "id": 10763981027, "lat": 53.5555914, "lon": 9.9423605, "tags": {"amenity": "ice_cream", "name": "Wallys Craft-Eis", "opening_hours": "Mo-Fr 12:00-18:00; Sa,Su 11:00-18:00"}}, {"type": "node", "id": 10771718876, "lat": 53.6223229, "lon": 9.9522611, "tags": {"amenity": "ice_cream", "indoor_seating": "no", "level": "0", "name": "Veneto", "opening_hours": "Mo-Sa 09:00-19:00", "outdoor_seating": "no", "takeaway": "only"}}, {"type": "node", "id": 10832314841, "lat": 53.5620757, "lon": 9.9621949, "tags": {"addr:housenumber": "78", "addr:street": "Schulterblatt", "amenity": "ice_cream", "check_date": "2023-12-25", "check_date:opening_hours": "2024-02-05", "diet:lactose_free": "yes", "diet:vegan": "yes", "name": "Manolya", "opening_hours:signed": "no", "outdoor_seating": "yes", "takeaway": "yes", "website": "https://manolya-ice-cream.eatbu.com", "wheelchair": "no"}}, {"type": "node", "id": 10838063048, "lat": 53.6049237, "lon": 10.0402931, "tags": {"addr:city": "Hamburg", "addr:housenumber": "460", "addr:postcode": "22309", "addr:street": "Fuhlsbüttler Straße", "amenity": "ice_cream", "name": "eis | fuhle | 460", "website": "https://www.eisfuhle460.de"}}, {"type": "node", "id": 10989930305, "lat": 53.6042342, "lon": 10.0648014, "tags": {"addr:housenumber": "123", "addr:street": "Fabriciusstraße", "amenity": "ice_cream", "name": "People&Ice"}}, {"type": "node", "id": 11005206200, "lat": 53.4902035, "lon": 10.2531249, "tags": {"amenity": "ice_cream", "indoor_seating": "yes", "name": "Dante", "outdoor_seating": "yes", "wheelchair": "yes"}}, {"type": "node", "id": 11034026664, "lat": 53.5681694, "lon": 9.9564739, "tags": {"amenity": "ice_cream", "name": "Eisbar", "opening_hours": "Mo-Su,PH 12:00-18:00+"}}, {"type": "node", "id": 11079146365, "lat": 53.5827493, "lon": 9.9865929, "tags": {"amenity": "ice_cream", "name": "Lela", "opening_hours": "Mo-Sa 10:00-20:00; Su 11:00-20:00", "wheelchair": "yes"}}, {"type": "node", "id": 11251632572, "lat": 53.5420595, "lon": 9.9937209, "tags": {"amenity": "ice_cream", "check_date": "2023-10-08", "cuisine": "ice_cream", "indoor_seating": "yes", "name": "nice & creamy", "opening_hours": "Tu-Su 12:00-18:00; Mo off", "outdoor_seating": "yes", "website": "https://niceandcreamy.de/", "wheelchair": "yes"}}, {"type": "node", "id": 11443585834, "lat": 53.4598913, "lon": 9.9822043, "tags": {"addr:housename": "Harburg Arcaden", "addr:street": "Lüneburger Straße", "amenity": "ice_cream", "check_date:opening_hours": "2024-05-06", "level": "0", "name": "Eis Ciprian", "opening_hours:signed": "no"}}, {"type": "node", "id": 11462304643, "lat": 53.5894596, "lon": 10.0456732, "tags": {"amenity": "ice_cream", "name": "Fräulein von Elbe", "opening_hours": "Mo-Su 09:00-21:00", "phone": "+49 40 18127899"}}, {"type": "node", "id": 11586191487, "lat": 53.6068638, "lon": 10.1188861, "tags": {"amenity": "ice_cream"}}, {"type": "node", "id": 11766722237, "lat": 53.545511, "lon": 9.9870476, "tags": {"addr:city": "Hamburg", "amenity": "ice_cream", "name": "Dante Eiscafé", "wheelchair": "no"}}]}