{"version": 0.6, "generator": "Overpass API 0.7.62.1 084b4234", "osm3s": {"timestamp_osm_base": "2024-06-14T12:07:11Z", "copyright": "The data included in this document is from www.openstreetmap.org. The data is made available under ODbL."}, "elements": [{"type": "node", "id": 296162432, "lat": 53.4686371, "lon": 9.7849494, "tags": {"amenity": "kindergarten", "name": "Stieglitzweg", "opening_hours": "Mo-Fr 07:30-17:00", "phone": "+49 40 700 02 62", "website": "http://kita-stieglitzweg.drk-lkharburg.de/"}}, {"type": "node", "id": 297492683, "lat": 53.5862936, "lon": 10.1285017, "tags": {"amenity": "kindergarten", "name": "Kita Tonndorfer Schulstraße", "preschool": "yes"}}, {"type": "node", "id": 299977319, "lat": 53.5648493, "lon": 9.9571466, "tags": {"addr:city": "Hamburg", "addr:housenumber": "39", "addr:postcode": "22769", "addr:street": "Eimsbütteler Straße", "amenity": "kindergarten", "check_date": "2023-05-02", "name": "Türkisch - deutscher Kindergarten", "operator": "Türkisch-Deutscher-Frauenfreundschaftsverein von Hamburg und Schleswig-Holstein e.V."}}, {"type": "node", "id": 299977982, "lat": 53.575739, "lon": 9.9623022, "tags": {"addr:city": "Hamburg", "addr:housenumber": "121", "addr:postcode": "20259", "addr:street": "Eppendorfer Weg", "amenity": "kindergarten", "name": "Kinderladen 100 Blumen", "website": "http://www.100blumen.de/", "wheelchair": "limited"}}, {"type": "node", "id": 309831869, "lat": 53.5411634, "lon": 10.1710366, "tags": {"amenity": "kindergarten", "name": "Ev. Kindergarten"}}, {"type": "node", "id": 314895774, "lat": 53.5574782, "lon": 10.016458, "tags": {"addr:city": "Hamburg", "addr:housenumber": "15", "addr:postcode": "20099", "addr:street": "Stiftstraße", "amenity": "kindergarten", "check_date": "2023-10-20", "name": "Evangelisches Kindertagesheim"}}, {"type": "node", "id": 318363477, "lat": 53.7037894, "lon": 10.1065189, "tags": {"amenity": "kindergarten"}}, {"type": "node", "id": 319503219, "lat": 53.5946206, "lon": 9.9441011, "tags": {"amenity": "kindergarten", "name": "Kita Antje", "wheelchair": "yes"}}, {"type": "node", "id": 322136461, "lat": 53.5617533, "lon": 10.2086715, "tags": {"addr:city": "Barsbüttel", "addr:country": "DE", "addr:housenumber": "18", "addr:postcode": "22885", "addr:street": "Am Sportplatz", "addr:suburb": "Willinghusen", "amenity": "kindergarten", "email": "kita-piratenschiff@gmx.de", "fax": "+49 40 238046-04", "name": "KiTa Piratenschiff", "operator": "Gemeinde Barsbüttel", "phone": "+49 40 71010-57", "website": "https://www.barsbuettel.de/buergerservice/verwaltung/kindertagesstaette-piratenschiff-900000178-22800.html"}}, {"type": "node", "id": 355251064, "lat": 53.5504041, "lon": 9.9292219, "tags": {"addr:city": "Hamburg", "addr:country": "DE", "addr:housenumber": "31", "addr:postcode": "22765", "addr:street": "Eulenstraße", "amenity": "kindergarten", "check_date": "2023-05-25", "email": "kita-eulenstrasse-31@elbkinder-kitas.de", "name": "Kita Eulenstraße", "operator": "Elbkinder", "phone": "+49 40 390 01 21", "short_name": "Die Eule", "website": "https://www.elbkinder-kitas.de/de/kita_finder/kita/236/", "wheelchair": "yes"}}, {"type": "node", "id": 366994067, "lat": 53.5979982, "lon": 9.8618241, "tags": {"amenity": "kindergarten", "name": "Kindergarten Teddybär"}}, {"type": "node", "id": 377688094, "lat": 53.5800425, "lon": 9.7628059, "tags": {"amenity": "kindergarten", "name": "Kindergarten der Johannes-Kirche", "source": "Survey", "toilets:wheelchair": "no", "wheelchair": "no"}}, {"type": "node", "id": 425583211, "lat": 53.5755364, "lon": 10.0234449, "tags": {"addr:housenumber": "77", "addr:postcode": "22083", "addr:street": "Humboldtstraße", "amenity": "kindergarten", "check_date": "2023-09-22", "name": "Kinderladen Pirateninsel", "opening_hours": "Mo-Fr 08:00-17:00", "operator": "Kinderladen Pirateninsel e.V.", "website": "https://kila-pirateninsel.de/", "wheelchair": "limited"}}, {"type": "node", "id": 425592054, "lat": 53.5842259, "lon": 10.0410976, "tags": {"addr:city": "Hamburg", "addr:country": "DE", "addr:housenumber": "19a", "addr:postcode": "22083", "addr:street": "Maurienstraße", "amenity": "kindergarten", "check_date": "2023-05-20", "name": "Ev. Kindertageseinrichtung (Kita) Alt-Barmbek"}}, {"type": "node", "id": 425601838, "lat": 53.5796864, "lon": 10.0221684, "tags": {"amenity": "kindergarten", "check_date": "2023-04-09", "name": "Kita Feuerwache e.V."}}, {"type": "node", "id": 443005184, "lat": 53.4943874, "lon": 9.9279743, "tags": {"amenity": "kindergarten", "name": "Kinderland Moorburg", "wheelchair": "no"}}, {"type": "node", "id": 445342310, "lat": 53.4891196, "lon": 10.2842302, "tags": {"amenity": "kindergarten", "name": "Flohzirkus"}}, {"type": "node", "id": 445342341, "lat": 53.4731848, "lon": 10.2760954, "tags": {"amenity": "kindergarten", "building": "yes", "name": "Waldkindergarten"}}, {"type": "node", "id": 446008325, "lat": 53.5728435, "lon": 9.9843738, "tags": {"addr:city": "Hamburg", "addr:housenumber": "2", "addr:postcode": "20144", "addr:street": "Parkallee", "amenity": "kindergarten", "capacity": "36", "max_age": "6", "min_age": "1", "name": "Strubbelkinder e.V.", "opening_hours": "Mo-Fr 07:30-17:00", "phone": "+49404500225", "website": "https://strubbelkinder.de/"}}, {"type": "node", "id": 456352940, "lat": 53.5715017, "lon": 9.9967626, "tags": {"amenity": "kindergarten", "name": "Alsterzwerge", "wheelchair": "no"}}, {"type": "node", "id": 458869731, "lat": 53.6005528, "lon": 10.2748087, "tags": {"amenity": "kindergarten"}}, {"type": "node", "id": 472167746, "lat": 53.5974378, "lon": 9.8816993, "tags": {"amenity": "kindergarten", "name": "Krippe"}}, {"type": "node", "id": 477335608, "lat": 53.5465781, "lon": 9.9618197, "tags": {"addr:city": "Hamburg", "addr:country": "DE", "addr:housenumber": "100", "addr:postcode": "20359", "addr:street": "St. Pauli Hafenstraße", "amenity": "kindergarten", "brand": "Deutsches Rotes Kreuz", "brand:short": "DRK", "brand:wikidata": "Q694104", "contact:email": "kita-lelka-birnbaum@ddrk-paedagogik.hamburg", "contact:phone": "+49 40 310089", "contact:website": "https://www.kita-hamburg-stpauli.de/startseite-kita-lelka-birnbaum.html", "name": "Kita Lelka Birnbaum", "operator": "DRK gemeinnützige Gesellschaft für Pädagogik Hamburg-Harburg mbH"}}, {"type": "node", "id": 556010425, "lat": 53.6617008, "lon": 9.8014427, "tags": {"addr:city": "Pinneberg", "addr:country": "DE", "addr:housenumber": "12", "addr:postcode": "25421", "addr:street": "Bismarckstraße", "amenity": "kindergarten", "name": "Wabe e.V. Kita"}}, {"type": "node", "id": 558626752, "lat": 53.5743453, "lon": 9.9482315, "tags": {"amenity": "kindergarten", "capacity": "40", "max_age": "6", "min_age": "1", "name": "Kinderhaus Fledermaus", "opening_hours": "Mo-Fr 07:00-16:30", "operator": "Perspektive e.V.", "phone": "+4940405090", "website": "https://www.kinderhausfledermaus.de/", "wheelchair": "limited"}}, {"type": "node", "id": 568399156, "lat": 53.5630404, "lon": 10.0228408, "tags": {"addr:city": "Hamburg", "addr:country": "DE", "addr:housenumber": "69", "addr:postcode": "22087", "addr:street": "Ifflandstraße", "amenity": "kindergarten", "check_date": "2024-01-14", "name": "Das Krippenhaus", "wheelchair": "no"}}, {"type": "node", "id": 568444875, "lat": 53.5809725, "lon": 10.0545826, "tags": {"addr:city": "Hamburg", "addr:housenumber": "11", "addr:postcode": "22081", "addr:street": "Pinelsweg", "amenity": "kindergarten", "name": "Kita Pinelsweg", "operator": "Elbkinder Vereinigung Hamburger Kitas gGmbH", "phone": "+49 40 41261560", "website": "https://www.elbkinder-kitas.de/de/kita_finder/kita/406", "wheelchair": "no"}}, {"type": "node", "id": 590004002, "lat": 53.5660778, "lon": 10.0565622, "tags": {"amenity": "kindergarten", "check_date": "2023-08-26", "name": "Kindertagesstätte Luisito", "website": "https://www.kita-luisito.de/"}}, {"type": "node", "id": 596467010, "lat": 53.5816612, "lon": 9.9780119, "tags": {"amenity": "kindergarten", "name": "Gänseblümchen", "wheelchair": "no"}}, {"type": "node", "id": 623257143, "lat": 53.5829055, "lon": 10.0338957, "tags": {"amenity": "kindergarten", "check_date": "2023-03-28", "name": "Murmeltier"}}, {"type": "node", "id": 642261830, "lat": 53.6197574, "lon": 9.9463551, "tags": {"addr:city": "Hamburg", "addr:country": "DE", "addr:housenumber": "14", "addr:postcode": "22459", "addr:street": "Friedrich-Ebert-Straße", "addr:suburb": "Niendorf", "amenity": "kindergarten", "check_date": "2023-05-04", "name": "IPICAPE", "opening_hours": "Mo-Fr 08:00-16:00", "operator": "IPICAPE e.V.", "phone": "+49 40 58917810", "source": "website", "website": "https://www.ipicape.de"}}, {"type": "node", "id": 663891961, "lat": 53.5729809, "lon": 9.975661, "tags": {"addr:city": "Hamburg", "addr:housenumber": "26", "addr:postcode": "20144", "addr:street": "Bogenstraße", "amenity": "kindergarten", "capacity": "72", "check_date": "2023-07-23", "denomination": "lutheran", "max_age": "6", "min_age": "3", "name": "Evangelischer Kindergarten St. Andreas", "opening_hours": "Mo-Fr 08:00-16:00", "operator": "Ev.-Luth. Kirchengemeinde St. Andreas", "religion": "christian", "website": "http://st-andreas.hamburg/kita-st-andreas-hamburg/", "wheelchair": "limited"}}, {"type": "node", "id": 685068913, "lat": 53.5812966, "lon": 9.9699292, "tags": {"addr:city": "Hamburg", "addr:country": "DE", "addr:housenumber": "205", "addr:postcode": "20253", "addr:street": "Eppendorfer Weg", "amenity": "kindergarten", "building": "yes", "capacity": "13", "description": "Integrative Pädagogik", "max_age": "3", "min_age": "0.25", "name": "Kita Die Strolche", "opening_hours": "Mo-Fr 08:00-16:00", "phone": "+494088953751", "website": "http://www.kita-die-strolche.de"}}, {"type": "node", "id": 691699542, "lat": 53.6668169, "lon": 9.9946587, "tags": {"amenity": "kindergarten", "name": "Kindergarten Spatzennest im Valvo-Park", "wheelchair": "no"}}, {"type": "node", "id": 693551421, "lat": 53.584015, "lon": 10.0219556, "tags": {"addr:city": "Hamburg", "addr:country": "DE", "addr:housenumber": "10", "addr:postcode": "22303", "addr:street": "Jarrestraße", "amenity": "kindergarten", "check_date": "2023-05-29", "name": "Kita Hölderlinsallee", "opening_hours": "Mo-Fr 07:00-17:30", "operator": "Kindergärten Finkenau", "phone": "+49 40 38633082"}}, {"type": "node", "id": 697084201, "lat": 53.5869083, "lon": 10.0264249, "tags": {"amenity": "kindergarten", "check_date": "2023-04-10", "name": "Kindertagesstätte Wabe"}}, {"type": "node", "id": 701724170, "lat": 53.554287, "lon": 10.0496687, "tags": {"addr:city": "Hamburg", "addr:country": "DE", "addr:housenumber": "12", "addr:postcode": "20537", "addr:street": "Luisenweg", "amenity": "kindergarten", "check_date": "2023-06-29", "name": "Kinderschlupf", "opening_hours": "Mo-Th 06:30-17:30; Fr 06:30-17:00", "phone": "+49 40 2507134", "website": "https://hh-hamm.de/kinderschlupf/kinder.html"}}, {"type": "node", "id": 737164496, "lat": 53.5501507, "lon": 9.9973447, "tags": {"amenity": "kindergarten", "check_date": "2023-11-06", "name": "Kita St. Petri"}}, {"type": "node", "id": 794209706, "lat": 53.5809484, "lon": 10.0252152, "tags": {"addr:housenumber": "126", "addr:street": "Weidestraße", "amenity": "kindergarten", "check_date": "2023-04-13", "name": "Kita Flohkiste"}}, {"type": "node", "id": 823643469, "lat": 53.609872, "lon": 9.8550356, "tags": {"addr:city": "Schenefeld", "addr:housenumber": "93-95", "addr:postcode": "22869", "addr:street": "Bogenstraße", "amenity": "kindergarten", "name": "Kindertagesstätte der Paulskirche", "operator": "Paulskirche Ev.-lutherische Kirchengemeinde", "source": "https://www.stadt-schenefeld.de/verzeichnis/visitenkarte.php?mandat=57995"}}, {"type": "node", "id": 837264967, "lat": 53.5895058, "lon": 9.9324827, "tags": {"addr:city": "Hamburg", "addr:housenumber": "366", "addr:postcode": "22525", "addr:street": "Kieler Straße", "amenity": "kindergarten", "name": "Bunte Erdmännchen", "operator": "Suricam e.V.", "website": "http://www.suricam.de"}}, {"type": "node", "id": 875843632, "lat": 53.5174482, "lon": 10.1690785, "tags": {"addr:city": "Hamburg", "addr:housenumber": "1-3", "addr:postcode": "21031", "addr:street": "Bockhorster Weg", "alt_name": "Ballin Kita mit Eltern-Kind-Zentrum Bockhorster Weg", "amenity": "kindergarten", "contact:website": "https://www.ballin.hamburg/angebote/ballin-kita-mit-eltern-kind-zentrum-bockhorster-weg/", "name": "KITA Das Spielnetz", "operator": "Ballin Stiftung e.V.", "wheelchair": "no"}}, {"type": "node", "id": 882342578, "lat": 53.5561014, "lon": 10.0556424, "tags": {"addr:city": "Hamburg", "addr:country": "DE", "addr:housenumber": "16-18", "addr:postcode": "20535", "addr:street": "Bei der Hammer Kirche", "amenity": "kindergarten", "check_date": "2023-09-05", "name": "Evangelisches Familienzentrum Hamburg Hamm"}}, {"type": "node", "id": 915304813, "lat": 53.556096, "lon": 10.0557208, "tags": {"amenity": "kindergarten", "name": "KiTa Dreifaltigkeit"}}, {"type": "node", "id": 919813440, "lat": 53.5728231, "lon": 9.8924513, "tags": {"amenity": "kindergarten", "check_date": "2023-03-29", "name": "KJSH e.V. KITA alte druckerei"}}, {"type": "node", "id": 996797193, "lat": 53.560881, "lon": 10.0588723, "tags": {"addr:city": "Hamburg", "addr:country": "DE", "addr:housenumber": "77", "addr:postcode": "20535", "addr:street": "Sievekingsallee", "amenity": "kindergarten", "check_date": "2023-04-23", "name": "Kita Hammer Strolche", "operator": "Evangelisch-Freikirchliche Gemeinde Hamburg-Hamm"}}, {"type": "node", "id": 1069649575, "lat": 53.624784, "lon": 10.0916228, "tags": {"addr:city": "Hamburg", "addr:housenumber": "67", "addr:postcode": "22175", "addr:street": "Hohnerkamp", "amenity": "kindergarten", "name": "KiTa Hohnerkamp", "operator": "Kinderzentrum Bramfeld e.V.", "phone": "+494041285305"}}, {"type": "node", "id": 1075515776, "lat": 53.5409248, "lon": 10.2157562, "tags": {"addr:city": "Glinde", "addr:housenumber": "3", "addr:postcode": "21509", "addr:street": "Oher Weg", "amenity": "kindergarten", "name": "Kindergarten Kinderland", "operator": "Kinderland Glinde e.V.", "phone": "+49 40 7101158", "toilets:wheelchair": "no", "website": "https://kinderland-glinde.de", "wheelchair": "no"}}, {"type": "node", "id": 1108826446, "lat": 53.5686976, "lon": 9.9558204, "tags": {"addr:city": "Hamburg", "addr:country": "DE", "addr:housenumber": "86", "addr:postcode": "20259", "addr:street": "Eimsbütteler Chaussee", "amenity": "kindergarten", "check_date": "2023-05-09", "email": "kontakt@skandvorschule.de", "name": "Lek så in i Norden", "opening_hours": "Mo-Fr 08:00-16:00", "website": "https://skandvorschule.de/"}}, {"type": "node", "id": 1111567736, "lat": 53.5628077, "lon": 9.9674043, "tags": {"addr:city": "Hamburg", "addr:country": "DE", "addr:housenumber": "34 A", "addr:postcode": "20357", "addr:street": "Lagerstraße", "amenity": "kindergarten", "check_date": "2023-06-11", "name": "Musikkindergarten", "website": "http://www.musikkindergarten-hamburg.com/", "wheelchair": "limited"}}, {"type": "node", "id": 1123136245, "lat": 53.5669868, "lon": 9.9580363, "tags": {"amenity": "kindergarten", "check_date": "2023-08-18", "name": "Wurzelkinder e.V.", "website": "https://www.kita-wurzelkinder.de/", "wheelchair": "limited"}}, {"type": "node", "id": 1186001642, "lat": 53.6311799, "lon": 9.9511649, "tags": {"addr:city": "Hamburg", "addr:country": "DE", "addr:housenumber": "108-110", "addr:postcode": "22459", "addr:street": "Paul-Sorge-Straße", "addr:suburb": "Niendorf", "amenity": "kindergarten", "check_date": "2023-04-02", "name": "Kinderhaus Fliewatuut", "opening_hours": "Mo-Th 07:00-17:00; Fr 07:00-16:00", "operator": "Verein freier Kinderstätten e.V.", "phone": "+49 40 79695455", "source": "website", "website": "https://www.kinderhaus-fliewatuut.de/"}}, {"type": "node", "id": 1204948617, "lat": 53.6194767, "lon": 10.0322772, "tags": {"amenity": "kindergarten", "check_date": "2023-07-26", "name": "Deutsch-Spanischer Kindergarten"}}, {"type": "node", "id": 1226137273, "lat": 53.60155, "lon": 9.954987, "tags": {"addr:city": "Hamburg", "addr:country": "DE", "addr:housenumber": "30", "addr:postcode": "22529", "addr:street": "Grelckstraße", "amenity": "kindergarten", "description": "Hort", "name": "Le petit monde", "opening_hours": "13:00-18:00", "phone": "+4940 / 1806 1435", "social_facility": "day_care"}}, {"type": "node", "id": 1240111502, "lat": 53.5674806, "lon": 10.0439064, "tags": {"addr:city": "Hamburg", "addr:country": "DE", "addr:housenumber": "105", "addr:postcode": "22089", "addr:street": "Wandsbeker Chaussee", "amenity": "kindergarten", "check_date": "2023-07-16", "name": "Paula und Max", "opening_hours": "Mo-Fr 07:00-19:00", "phone": "+49 40 20944703", "website": "https://www.paulaundmax.de/wandsbeker.html"}}, {"type": "node", "id": 1276392537, "lat": 53.5315493, "lon": 10.2606947, "tags": {"addr:city": "Reinbek", "addr:country": "DE", "addr:housenumber": "18", "addr:postcode": "21465", "addr:street": "Oher Straße", "amenity": "kindergarten", "name": "Kindergarten Schönningstedt"}}, {"type": "node", "id": 1291681194, "lat": 53.5773229, "lon": 10.0428155, "tags": {"amenity": "kindergarten", "check_date": "2023-10-03", "name": "Kirchengemeinde Alt-Barmbek"}}, {"type": "node", "id": 1308192679, "lat": 53.5807381, "lon": 10.0484485, "tags": {"addr:city": "Hamburg", "addr:country": "DE", "addr:housenumber": "19", "addr:postcode": "22081", "addr:street": "Gerstenkamp", "amenity": "kindergarten", "name": "Villa Regenbogen"}}, {"type": "node", "id": 1313408590, "lat": 53.5499373, "lon": 10.2459958, "tags": {"addr:city": "Reinbek", "addr:country": "DE", "addr:housenumber": "3", "addr:postcode": "21465", "addr:street": "Kirchenstieg", "amenity": "kindergarten", "check_date": "2023-10-08", "name": "Ev.Kita Reinbek-Neuschönnigstedt", "operator": "Evangelischer Kindertagesstättenverband Hamburg", "operator:type": "religious", "website": "https://kirchenstieg.eva-kita.de/"}}, {"type": "node", "id": 1317305677, "lat": 53.5738581, "lon": 10.0399958, "tags": {"addr:housenumber": "42", "addr:street": "Marschnerstraße", "amenity": "kindergarten", "check_date": "2024-02-05", "name": "Kita Marschnerstraße", "operator": "Kulturelle Vereinigung Volksheim e.V.", "phone": "+49 40 296366", "website": "http://www.kita-marschnerstrasse.de/"}}, {"type": "node", "id": 1334359106, "lat": 53.581138, "lon": 9.7541561, "tags": {"addr:housenumber": "51", "addr:postcode": "22559", "addr:street": "Rissener Dorfstraße", "amenity": "kindergarten", "name": "Kindergarten Zaubermäuse", "toilets:wheelchair": "no", "wheelchair": "limited"}}, {"type": "node", "id": 1338591534, "lat": 53.6183964, "lon": 10.0276208, "tags": {"alt_name": "Kita Alsterpalais", "amenity": "kindergarten", "name": "Flachsland Elementarbereich", "operator": "Flachsland Zukunftsschulen gemeinnützige GmbH", "phone": "+49 40 52985287", "website": "https://flachsland-zukunftsschulen.de/alsterpalais/bildungshaus/kita/"}}, {"type": "node", "id": 1343921386, "lat": 53.6024754, "lon": 10.1547768, "tags": {"amenity": "kindergarten", "name": "Kita Rahlstedter Bahnhofstraße"}}, {"type": "node", "id": 1345080659, "lat": 53.6753711, "lon": 10.023886, "tags": {"amenity": "kindergarten", "name": "Dschungelkinder", "wheelchair": "limited"}}, {"type": "node", "id": 1349142825, "lat": 53.586044, "lon": 10.0226601, "tags": {"amenity": "kindergarten", "check_date": "2023-03-28", "name": "Pfützenracker", "operator": "Kindergärten Finkennau e.V.", "website": "http://www.kindergaerten-finkenau.de"}}, {"type": "node", "id": 1387524253, "lat": 53.404544, "lon": 9.9729908, "tags": {"amenity": "kindergarten", "name": "DRK Kindergarten Emmelndorf"}}, {"type": "node", "id": 1456334383, "lat": 53.5387515, "lon": 10.2272303, "tags": {"addr:city": "Glinde", "addr:country": "DE", "addr:housenumber": "84", "addr:postcode": "21509", "addr:street": "Schönhorst", "amenity": "kindergarten", "name": "Evangelischer Integrationskindergarten \"Wilde Wiese\"", "wheelchair": "yes"}}, {"type": "node", "id": 1456337145, "lat": 53.5491725, "lon": 10.2179678, "tags": {"addr:city": "Glinde", "addr:country": "DE", "addr:housenumber": "100", "addr:postcode": "21509", "addr:street": "Am Sportplatz", "amenity": "kindergarten", "check_date": "2023-04-30", "name": "Kindergarten \"Wurzelzwerge\"", "wheelchair": "limited"}}, {"type": "node", "id": 1464557691, "lat": 53.558528, "lon": 10.0447842, "tags": {"amenity": "kindergarten", "check_date": "2023-05-15", "name": "KiTa-Aktiv-Hamm", "wheelchair": "yes"}}, {"type": "node", "id": 1475036419, "lat": 53.6199308, "lon": 10.0901413, "tags": {"amenity": "kindergarten", "name": "Katholischer Kindergarten St. Wilhelm", "toilets:wheelchair": "no", "wheelchair": "limited"}}, {"type": "node", "id": 1488301666, "lat": 53.5724608, "lon": 9.8687564, "tags": {"addr:city": "Hamburg", "addr:country": "DE", "addr:housenumber": "28", "addr:postcode": "22607", "addr:street": "Bei der Flottbeker Mühle", "amenity": "kindergarten", "check_date": "2023-06-29", "description": "Evangelische Kindertagesstätte", "name": "KITA Bugenhagen", "wheelchair": "yes"}}, {"type": "node", "id": 1498471102, "lat": 53.5547134, "lon": 10.0206459, "tags": {"amenity": "kindergarten", "check_date": "2023-08-06", "contact:fax": "+49 40 24870754", "contact:phone": "+49 40 24870658", "contact:website": "https://www.studierendenwerk-hamburg.de/studierendenwerk/de/familienservice/lage_kitas/detail/?id=72", "name": "Die Stifte", "operator": "Studentenwerk Hamburg"}}, {"type": "node", "id": 1506825585, "lat": 53.5482112, "lon": 10.056909, "tags": {"addr:city": "Hamburg", "addr:housenumber": "17-19", "addr:postcode": "20537", "addr:street": "Osterbrook", "amenity": "kindergarten", "name": "Kita in der Schule Osterbrook", "operator": "Hamburger Schulverein von 1875 e.V.", "phone": "+49 40 2102477", "website": "https://hamburgerschulverein.de/kita-finder/osterbrook/"}}, {"type": "node", "id": 1507602146, "lat": 53.5684023, "lon": 9.9566271, "tags": {"addr:city": "Hamburg", "addr:country": "DE", "addr:housenumber": "4-6", "addr:postcode": "20259", "addr:street": "Eppendorfer Weg", "amenity": "kindergarten", "check_date": "2023-05-25", "name": "Schmuddelkinder"}}, {"type": "node", "id": 1508703722, "lat": 53.6178838, "lon": 9.8953858, "tags": {"amenity": "kindergarten", "name": "Spielplatz", "wheelchair": "yes"}}, {"type": "node", "id": 1565970640, "lat": 53.6379418, "lon": 9.9454221, "tags": {"addr:city": "Hamburg", "addr:country": "DE", "addr:housenumber": "136", "addr:postcode": "22455", "addr:street": "Vielohweg", "addr:suburb": "Niendorf", "amenity": "kindergarten", "check_date": "2023-04-27", "contact:website": "http://vielohweg.eva-kita.de/start.html", "name": "Ev. Kindergarten im Immanuel-Haus", "opening_hours": "Mo-Fr 08:00-16:00", "phone": "+49 40 5521660", "source": "website", "website": "https://vielohweg.eva-kita.de"}}, {"type": "node", "id": 1573885526, "lat": 53.6014965, "lon": 9.9886333, "tags": {"addr:city": "Hamburg", "addr:country": "DE", "addr:housenumber": "4a", "addr:postcode": "22297", "addr:street": "Deelbögenkamp", "amenity": "kindergarten", "check_date": "2023-08-19", "name": "Kita Deelbögenkamp", "operator": "Kinderwelt Hamburg"}}, {"type": "node", "id": 1578174845, "lat": 53.5915688, "lon": 10.040719, "tags": {"addr:housenumber": "17", "addr:postcode": "22305", "addr:street": "Hellbrookstraße", "amenity": "kindergarten", "check_date": "2023-05-31", "name": "Monster AG"}}, {"type": "node", "id": 1583907252, "lat": 53.7278359, "lon": 10.2610033, "tags": {"addr:city": "Bargteheide", "addr:country": "DE", "addr:housenumber": "4", "addr:postcode": "22941", "addr:street": "Am Markt", "amenity": "kindergarten", "brand": "Deutsches Rotes Kreuz", "brand:wikidata": "Q694104", "brand:wikipedia": "de:Deutsches Rotes Kreuz", "name": "DRK Kindergarten", "short_name": "DRK"}}, {"type": "node", "id": 1596062258, "lat": 53.6029346, "lon": 9.9556512, "tags": {"addr:city": "Hamburg", "addr:country": "DE", "addr:housenumber": "22", "addr:postcode": "22529", "addr:street": "Rütersbarg", "amenity": "kindergarten", "name": "Kinderladen Papelucho", "phone": "+4940 / 583 165"}}, {"type": "node", "id": 1600859206, "lat": 53.561743, "lon": 9.8231546, "tags": {"addr:city": "Hamburg", "addr:housenumber": "3", "addr:postcode": "22587", "addr:street": "Schenefelder Landstraße", "amenity": "kindergarten", "name": "Kindergarten Maria Grün", "wheelchair": "yes"}}, {"type": "node", "id": 1600859763, "lat": 53.5634075, "lon": 9.8262423, "tags": {"amenity": "kindergarten", "name": "Waldorf Kindergarten"}}, {"type": "node", "id": 1606810849, "lat": 53.4355437, "lon": 9.9053689, "tags": {"amenity": "kindergarten"}}, {"type": "node", "id": 1649446505, "lat": 53.5470069, "lon": 10.0851139, "tags": {"amenity": "kindergarten", "check_date": "2024-02-28", "name": "Kita Sunshine", "website": "https://www.kita-sunshine.de"}}, {"type": "node", "id": 1650806153, "lat": 53.6148159, "lon": 10.0094171, "tags": {"addr:city": "Hamburg", "addr:housenumber": "66b", "addr:postcode": "22297", "addr:street": "Maienweg", "amenity": "kindergarten", "name": "Kita Alsterberg", "operator": "Kita Alsterberg e.V.", "phone": "+49 40 6083523", "website": "https://kita-alsterberg.de"}}, {"type": "node", "id": 1686178717, "lat": 53.607738, "lon": 9.9772483, "tags": {"addr:city": "Hamburg", "addr:country": "DE", "addr:housenumber": "139a", "addr:postcode": "22453", "addr:street": "Borsteler Chaussee", "amenity": "kindergarten", "email": "kth.st.peter@eva-kita.de", "name": "Evangelischer Kindergarten St. Peter", "operator": "Kirchengemeindeverband der Kindertageseinrichtungen im Ev.-Luth. Kirchenkreis Hamburg-Ost", "phone": "+49 40 553 49 35", "website": "https://borsteler-chaussee.eva-kita.de/start.html"}}, {"type": "node", "id": 1693079927, "lat": 53.4647235, "lon": 10.3130506, "tags": {"addr:city": "Escheburg", "addr:country": "DE", "addr:housenumber": "3", "addr:postcode": "21039", "addr:street": "Schulweg", "amenity": "kindergarten", "contact:website": "http://www.escheburger-strolche.de/", "name": "Escheburger Strolche e.V."}}, {"type": "node", "id": 1699385992, "lat": 53.5710323, "lon": 10.108559, "tags": {"addr:housenumber": "111", "addr:street": "Rodigallee", "amenity": "kindergarten", "email": "info@lieblings-kita.de", "name": "Lieblings-Kita", "phone": "+49 40 18061679", "website": "https://www.lieblings-kita.de"}}, {"type": "node", "id": 1701618944, "lat": 53.6150718, "lon": 10.116685, "tags": {"addr:housenumber": "100", "addr:postcode": "22159", "addr:street": "August-Krogmann-Straße", "amenity": "kindergarten", "name": "Wabe-Kindertagesstätte Farmsen", "website": "https://www.wabe.de/standort/wabe-kita-farmsen/"}}, {"type": "node", "id": 1708240577, "lat": 53.6334667, "lon": 10.1298099, "tags": {"amenity": "kindergarten", "name": "Naturkindergarten Kokopelli"}}, {"type": "node", "id": 1712782906, "lat": 53.5540256, "lon": 9.9547147, "tags": {"addr:city": "Hamburg", "addr:housenumber": "9", "addr:postcode": "22767", "addr:street": "Gerritstraße", "amenity": "kindergarten", "name": "Praxisausbildungsstätte der Staatlichen Fachschule für Sozialpädagogik, Kindertagesheim"}}, {"type": "node", "id": 1719900349, "lat": 53.5705872, "lon": 10.0889553, "tags": {"amenity": "kindergarten", "check_date": "2023-08-09", "name": "Kita Lummerland"}}, {"type": "node", "id": 1732823934, "lat": 53.3978583, "lon": 10.1591134, "tags": {"amenity": "kindergarten", "name": "Kindergarten Hoopte"}}, {"type": "node", "id": 1768962443, "lat": 53.607483, "lon": 9.9098088, "tags": {"amenity": "kindergarten", "check_date": "2023-03-12", "name": "Ev. Kindergarten Elisabethkirche Eidelstedt", "operator:type": "religious"}}, {"type": "node", "id": 1809077142, "lat": 53.5788824, "lon": 10.0309548, "tags": {"amenity": "kindergarten", "check_date": "2023-08-09", "name": "BarmbeKids - Kindertagespflege", "opening_hours": "Mo-Fr 08:00-18:00", "operator": "Hülya Löhler", "website": "https://www.barmbekids.de"}}, {"type": "node", "id": 1823900755, "lat": 53.6338702, "lon": 10.0194194, "tags": {"amenity": "kindergarten", "name": "Kindergarten St. Lukas"}}, {"type": "node", "id": 1843036024, "lat": 53.5789501, "lon": 9.8098096, "tags": {"amenity": "kindergarten", "name": "Kita Iserbrooker Weg"}}, {"type": "node", "id": 1843036025, "lat": 53.5819058, "lon": 9.8158496, "tags": {"amenity": "kindergarten", "name": "Kinderhaus Blümchen"}}, {"type": "node", "id": 1843036026, "lat": 53.5829902, "lon": 9.8151657, "tags": {"amenity": "kindergarten", "name": "Kindergarten Sapperweg"}}, {"type": "node", "id": 1853063246, "lat": 53.6343301, "lon": 9.8417848, "tags": {"addr:city": "Halstenbek", "addr:housenumber": "10", "addr:postcode": "25469", "addr:street": "Gustavstraße", "amenity": "kindergarten", "name": "Kindertagesstätte Erlöserkirche", "website": "https://kitaerloeserkirche.de/"}}, {"type": "node", "id": 1859845794, "lat": 53.588025, "lon": 10.2332742, "tags": {"amenity": "kindergarten", "name": "Kindergarten"}}, {"type": "node", "id": 1867275140, "lat": 53.491915, "lon": 10.3152203, "tags": {"amenity": "kindergarten", "name": "Sonnenblume"}}, {"type": "node", "id": 1896506329, "lat": 53.5610058, "lon": 10.0321295, "tags": {"addr:city": "Hamburg", "addr:country": "DE", "addr:housenumber": "6", "addr:postcode": "22087", "addr:street": "Elisenstraße", "amenity": "kindergarten", "check_date": "2024-05-26", "name": "Kita Elisenstraße", "phone": "+49 40 255674", "website": "https://www.elbkinder-kitas.de/"}}, {"type": "node", "id": 1911269418, "lat": 53.5614753, "lon": 10.0606028, "tags": {"amenity": "kindergarten", "name": "Kindergarten Pauluskirche"}}, {"type": "node", "id": 1912131352, "lat": 53.5532507, "lon": 9.9802911, "tags": {"addr:city": "Hamburg", "addr:country": "DE", "addr:housenumber": "22", "addr:postcode": "20355", "addr:street": "Kohlhöfen", "amenity": "kindergarten", "contact:fax": "+49 40 35712329", "contact:phone": "+49 40 342877", "contact:website": "https://www.elbkinder-kitas.de/de/kita_finder/kita/315", "name": "Kita Kohlhöfen", "opening_hours": "Mo-Tu 06:00-18:00, Fr 06:00-17:00; PH off", "operator": "Elbkinder Vereinigung Hamburger Kitas gGmbH"}}, {"type": "node", "id": 1933400830, "lat": 53.5751775, "lon": 9.8472851, "tags": {"addr:housenumber": "22", "addr:postcode": "22549", "addr:street": "Rugenbarg", "amenity": "kindergarten", "check_date": "2023-07-18", "name": "Haus Mignon"}}, {"type": "node", "id": 1968378712, "lat": 53.5609837, "lon": 9.9254949, "tags": {"addr:city": "Hamburg", "addr:country": "DE", "addr:housenumber": "52", "addr:postcode": "22761", "addr:street": "Bahrenfelder Steindamm", "amenity": "kindergarten", "check_date": "2023-09-16", "name": "Mien Lüttjenwelt", "website": "https://www.luettjenwelt.de/"}}, {"type": "node", "id": 1969399423, "lat": 53.5630682, "lon": 10.0219707, "tags": {"addr:city": "Hamburg", "addr:country": "DE", "addr:housenumber": "69", "addr:postcode": "22087", "addr:street": "Ifflandstraße", "amenity": "kindergarten", "name": "Bilingualer Kindergarten", "toilets:wheelchair": "no", "website": "http://www.kita-ifflandstrasse.de", "wheelchair": "no"}}, {"type": "node", "id": 1970213104, "lat": 53.6152223, "lon": 10.0634072, "tags": {"addr:housenumber": "28", "addr:postcode": "22309", "addr:street": "Erich-Ziegel-Ring", "amenity": "kindergarten", "name": "Kita Erich-Ziegel-Ring", "source": "website", "website": "https://www.elbkinder-kitas.de/de/kita_finder/kita/205"}}, {"type": "node", "id": 1983595857, "lat": 53.5472618, "lon": 9.9825835, "tags": {"amenity": "kindergarten", "brand": "Deutsches Rotes Kreuz", "brand:short": "DRK", "brand:wikidata": "Q694104", "capacity": "56", "contact:email": "kita-fleetpiraten@drk-paedagogik.hamburg", "contact:phone": "+49 40 37519939", "contact:website": "http://www.kita-hamburg-neustadt.de", "isced:level": "0", "long_name": "Kindertagesstätte Fleetpiraten", "max_age": "6", "min_age": "0", "name": "Kita Fleetpiraten", "opening_hours": "Mo-Fr 06:00-18:00;PH,Sa,Su off", "operator": "Deutsches Rotes Kreuz Kreisverband Hamburg-Harburg e.V.", "wheelchair": "limited"}}, {"type": "node", "id": 1990736554, "lat": 53.5469727, "lon": 10.1697293, "tags": {"amenity": "kindergarten"}}, {"type": "node", "id": 2043611494, "lat": 53.5470857, "lon": 10.106183, "tags": {"addr:city": "Hamburg", "addr:country": "DE", "addr:housenumber": "83", "addr:postcode": "22119", "addr:street": "Schiffbeker Weg", "amenity": "kindergarten", "check_date:opening_hours": "2020-12-08", "contact:phone": "+49 40 89728848", "contact:website": "http://www.schmusebacke.de/unsere-kitas/kita-billstedt.html", "name": "Kita Schmusebacke", "opening_hours": "Mo-Fr 06:00-18:00; PH off"}}, {"type": "node", "id": 2046238628, "lat": 53.5466156, "lon": 10.0986719, "tags": {"addr:city": "Hamburg", "addr:country": "DE", "addr:housenumber": "2", "addr:postcode": "22119", "addr:street": "Steinfeldtstraße", "amenity": "kindergarten", "name": "Kita Glückliche Kids", "phone": "+49 40 328 45 418", "website": "http://www.kita-glueckliche-kids.de"}}, {"type": "node", "id": 2050335254, "lat": 53.5565249, "lon": 10.0785219, "tags": {"addr:city": "Hamburg", "addr:country": "DE", "addr:housenumber": "186", "addr:postcode": "22111", "addr:street": "Sievekingsallee", "amenity": "kindergarten", "check_date": "2023-09-28", "name": "Kita - Kleine Wissenschaftler", "opening_hours": "Mo-Fr 06:00-18:00", "phone": "+49 40 24888656", "website": "http://www.kita-kleinewissenschaftler.de/"}}, {"type": "node", "id": 2055560517, "lat": 53.4658779, "lon": 9.9864891, "tags": {"addr:city": "Hamburg", "addr:country": "DE", "addr:housename": "Fleethaus", "addr:housenumber": "2", "addr:postcode": "21079", "addr:street": "Schellerdamm", "amenity": "kindergarten", "name": "Kinderhaus Fleethaus", "website": "https://sternipark.de/"}}, {"type": "node", "id": 2079158048, "lat": 53.5475072, "lon": 10.0269339, "tags": {"amenity": "kindergarten", "check_date": "2023-06-11", "name": "Bilinguale Kindertagesstätte PhorMiniS"}}, {"type": "node", "id": 2092693378, "lat": 53.5553, "lon": 9.94557, "tags": {"addr:housenumber": "82", "addr:street": "Chemnitzstraße", "amenity": "kindergarten", "check_date": "2024-03-20", "description": "Leben und Lernen in Familiengruppen Heilpädagogik, Ergotherapie, Physiotherapie, Logopädie, hundgestützte Therapie viele Ausflüge, Feste individuelle Angebote zur Resilienzförderung Kleingruppenarbeit & Freispiel", "name": "Kinderclub Chamäleon", "opening_hours": "Mo-Fr 08:00-17:00", "phone": "+49 40 51903178", "website": "http://www.kinderclub-chamäleon.de/"}}, {"type": "node", "id": 2127656087, "lat": 53.6399093, "lon": 10.1194892, "tags": {"amenity": "kindergarten", "name": "Die Wilde 13"}}, {"type": "node", "id": 2127656190, "lat": 53.6393687, "lon": 10.1183574, "tags": {"amenity": "kindergarten", "check_date": "2023-10-12", "name": "Kinderstube"}}, {"type": "node", "id": 2129780003, "lat": 53.5616187, "lon": 9.9132034, "tags": {"amenity": "kindergarten", "check_date": "2023-09-12", "name": "Elbpiraten Hamburg", "url": "http://www.elbpiraten-kita.de"}}, {"type": "node", "id": 2149809527, "lat": 53.5284509, "lon": 10.1467926, "tags": {"addr:city": "Hamburg", "addr:country": "DE", "addr:housenumber": "6a", "addr:postcode": "22115", "addr:street": "Oskar-Schlemmer-Straße", "amenity": "kindergarten", "name": "Kindergarten St. Stephanus", "operator": "Kath. Pfarrei St. Paulus", "website": "http://www.katholische-kitas-hamburg.de/katholische-kitas/hamburg-mitte/st-stephanus-muemmelmannsberg/", "wheelchair": "yes"}}, {"type": "node", "id": 2159110606, "lat": 53.5591532, "lon": 10.1045831, "tags": {"addr:city": "Hamburg", "addr:country": "DE", "addr:housenumber": "105f", "addr:postcode": "22119", "addr:street": "Manshardtstraße", "amenity": "kindergarten", "name": "Kita Arche Noah der Kirchengemeinde Philippus und Rimbert", "opening_hours": "Mo-Fr 06:00-18:00", "operator": "Kirchengemeinde Phillippus und Rimbert", "operator:type": "religious", "phone": "+49 40 6519092", "preschool": "yes", "website": "https://184.eva-kita.de/"}}, {"type": "node", "id": 2161700274, "lat": 53.5608856, "lon": 9.8334521, "tags": {"access": "private", "amenity": "kindergarten", "email": "kiga.fueak@blankenese.de", "name": "Ev. Kindertagesstätte Blankenese im Bereich d. Führungsakademie", "opening_hours": "Mo-Fr 07:00-17:00", "operator": "evangelisch-lutherischen Kirchengemeinde Blankenese", "phone": "+49 40 869871", "website": "https://manteuffelstr.eva-kita.de/"}}, {"type": "node", "id": 2164565019, "lat": 53.5685997, "lon": 9.8998646, "tags": {"amenity": "kindergarten", "capacity": "92", "email": "info@kita-nordvind.de", "name": "kita nordvind", "opening_hours": "Mo-Fr 07:00-17:00", "operator": "Kita Nordvind GmbH", "phone": "+49 40 881307-39", "website": "https://www.kita-nordvind.de/"}}, {"type": "node", "id": 2166578440, "lat": 53.5697077, "lon": 9.9809689, "tags": {"addr:city": "Hamburg", "addr:country": "DE", "addr:housenumber": "2", "addr:postcode": "20146", "addr:street": "Bornstraße", "amenity": "kindergarten", "capacity": "70", "check_date:opening_hours": "2023-08-24", "contact:phone": "+49 40 449124", "contact:website": "http://www.studierendenwerk-hamburg.de/studierendenwerk/de/familienservice/lage_kitas/detail/?id=68", "max_age": "6", "min_age": "1", "name": "KiTa Bornstraße", "opening_hours": "Mo-Th 07:30-17:30; Fr 7:30-16:00; PH off", "opening_hours:signed": "no", "operator": "Studierendenwerk Hamburg (AÖR)"}}, {"type": "node", "id": 2178840208, "lat": 53.5540337, "lon": 9.9304947, "tags": {"amenity": "kindergarten", "name": "Kita Kleine Rainstraße"}}, {"type": "node", "id": 2180937959, "lat": 53.5711708, "lon": 9.945829, "tags": {"amenity": "kindergarten", "check_date": "2023-05-29", "name": "Regenbogenkind", "wheelchair": "no"}}, {"type": "node", "id": 2197318674, "lat": 53.5236543, "lon": 10.2851914, "tags": {"amenity": "kindergarten", "name": "Ev.-luth. Kindertagesstätte Wohltorf"}}, {"type": "node", "id": 2203511141, "lat": 53.542498, "lon": 10.1107225, "tags": {"addr:city": "Hamburg", "addr:country": "DE", "addr:housenumber": "32", "addr:street": "Öjendorfer Weg", "amenity": "kindergarten", "contact:phone": "+49 40 7331044", "contact:website": "https://www.falkennest.de/", "email": "kontakt@falkennest.de", "level": "0;1", "name": "Kindergarten Falkennest", "operator": "Falkenhaus Hamburg e.V.", "phone": "+49 40 7331044", "preschool": "yes", "website": "https://www.falkennest.de"}}, {"type": "node", "id": 2218638266, "lat": 53.4863882, "lon": 10.2147871, "tags": {"amenity": "kindergarten", "check_date": "2024-05-14", "contact:website": "http://www.wabe-hamburg.de/de/kindertagesstaetten/hamburg/bergedorf.html", "name": "Kindertagesstätte Neuer Mohnhof", "wheelchair": "yes"}}, {"type": "node", "id": 2222111292, "lat": 53.6184477, "lon": 9.9493506, "tags": {"addr:city": "Hamburg", "addr:country": "DE", "addr:housenumber": "18-24", "addr:postcode": "22459", "addr:street": "Niendorfer Marktplatz", "addr:suburb": "Niendorf", "amenity": "kindergarten", "check_date": "2023-03-26", "name": "Wurzelzwerge", "opening_hours": "Mo-Th 08:00-17:00; Fr 08:00-16:00", "phone": "+49 40 58972290", "preschool": "yes", "source": "website", "website": "https://www.wurzelzwerge.info/", "wheelchair": "limited"}}, {"type": "node", "id": 2262102700, "lat": 53.5722752, "lon": 9.95048, "tags": {"amenity": "kindergarten", "check_date": "2023-05-02", "name": "Kita Früchtchen"}}, {"type": "node", "id": 2265800472, "lat": 53.5671972, "lon": 9.9562668, "tags": {"amenity": "kindergarten", "check_date": "2023-05-25", "name": "Villa Wackelzahn"}}, {"type": "node", "id": 2268141912, "lat": 53.5550517, "lon": 10.0181309, "tags": {"amenity": "kindergarten", "check_date": "2024-04-06", "name": "CampusKinder"}}, {"type": "node", "id": 2295903676, "lat": 53.6899048, "lon": 9.8133254, "tags": {"addr:city": "Borstel-Hohenraden", "addr:country": "DE", "addr:housenumber": "99", "addr:postcode": "25494", "addr:street": "Quickborner Straße", "amenity": "kindergarten", "name": "Johanniter-Kindergarten Pusteblume"}}, {"type": "node", "id": 2296353270, "lat": 53.4251661, "lon": 10.024841, "tags": {"addr:city": "Seevetal", "addr:country": "DE", "addr:housenumber": "17", "addr:postcode": "21217", "addr:street": "Große Wiesen", "amenity": "kindergarten", "name": "Kindergarten Große Wiesen"}}, {"type": "node", "id": 2324866924, "lat": 53.5790541, "lon": 9.9449903, "tags": {"addr:city": "Hamburg", "addr:country": "DE", "addr:housenumber": "49", "addr:postcode": "20257", "addr:street": "Methfesselstraße", "amenity": "kindergarten", "name": "Bengel & Engel", "website": "http://www.bengel-engel.de", "wheelchair": "no"}}, {"type": "node", "id": 2357438316, "lat": 53.5337129, "lon": 9.865744, "tags": {"addr:city": "Hamburg", "addr:country": "DE", "addr:housenumber": "14", "addr:postcode": "21129", "addr:street": "Finkenwerder Norderdeich", "amenity": "kindergarten", "name": "KiTa Finkenwerder Norderdeich"}}, {"type": "node", "id": 2381646628, "lat": 53.5420778, "lon": 10.0990092, "tags": {"amenity": "kindergarten", "name": "Kita"}}, {"type": "node", "id": 2398256425, "lat": 53.5764637, "lon": 10.0467208, "tags": {"amenity": "kindergarten", "check_date": "2023-11-12", "name": "Kindergarten BarUhle 1"}}, {"type": "node", "id": 2429444889, "lat": 53.6007186, "lon": 9.9635127, "tags": {"amenity": "kindergarten", "name": "KITA Kleine Entdecker"}}, {"type": "node", "id": 2446734567, "lat": 53.5951864, "lon": 10.1495778, "tags": {"addr:city": "Hamburg", "addr:country": "DE", "addr:housenumber": "64", "addr:postcode": "22149", "addr:street": "Rahlstedter Straße", "amenity": "kindergarten", "name": "KiTa \"Räuberhöhle\"", "phone": "+49 40 6773984"}}, {"type": "node", "id": 2461980863, "lat": 53.468919, "lon": 9.9855114, "tags": {"amenity": "kindergarten", "brand": "Deutsches Rotes Kreuz", "brand:wikidata": "Q694104", "contact:email": "kita-harburger-schlossinsel@drk-paedagogik.hamburg", "contact:phone": "+49 40 32027255", "contact:website": "http://schlossinsel.kita-hamburg-harburg.de/", "isced:level": "0", "max_age": "6", "min_age": "0", "name": "KITA Schlossinsel", "opening_hours": "Mo-Fr 06:00-18:00;PH,Sa,Su off", "operator": "DRK Kreisverband Hamburg-Harburg e.V."}}, {"type": "node", "id": 2468095460, "lat": 53.6861622, "lon": 10.0257459, "tags": {"addr:city": "Norderstedt", "addr:country": "DE", "addr:housenumber": "147", "addr:street": "Segeberger Chaussee", "amenity": "kindergarten", "check_date": "2023-07-02", "entrance": "yes", "name": "Kindergarten am Böhmerwald"}}, {"type": "node", "id": 2477656528, "lat": 53.4961615, "lon": 10.003674, "tags": {"amenity": "kindergarten", "name": "Kita Am Inselpark"}}, {"type": "node", "id": 2499733590, "lat": 53.5817318, "lon": 9.9330043, "tags": {"amenity": "kindergarten", "name": "Kita Nubeluz"}}, {"type": "node", "id": 2518352577, "lat": 53.5572637, "lon": 9.9159953, "tags": {"amenity": "kindergarten", "check_date": "2023-11-09", "name": "Zwergennest"}}, {"type": "node", "id": 2535498403, "lat": 53.5263607, "lon": 10.1457239, "tags": {"addr:city": "Hamburg", "addr:housenumber": "10", "addr:postcode": "22115", "addr:street": "Franz-Marc-Straße", "amenity": "kindergarten", "name": "Kita Franz-Marc-Straße", "phone": "+49 40 7155036"}}, {"type": "node", "id": 2535709761, "lat": 53.5420247, "lon": 10.1278528, "tags": {"addr:city": "Hamburg", "addr:country": "DE", "addr:housenumber": "2", "addr:postcode": "22117", "addr:street": "Öjendorfer Höhe", "amenity": "kindergarten", "name": "Kita Öjendorfer Höhe", "phone": "+49 40 7135502"}}, {"type": "node", "id": 2536085164, "lat": 53.5326461, "lon": 10.1452836, "tags": {"addr:city": "Hamburg", "addr:country": "DE", "addr:housenumber": "4", "addr:postcode": "22115", "addr:street": "Mondrianweg", "amenity": "kindergarten", "name": "Kita Mondrianweg", "phone": "+49 40 7154858"}}, {"type": "node", "id": 2562518288, "lat": 53.4882292, "lon": 10.1532531, "tags": {"amenity": "kindergarten", "name": "Zauberkasten"}}, {"type": "node", "id": 2563436620, "lat": 53.6131153, "lon": 10.049123, "tags": {"amenity": "kindergarten", "name": "Ev. Kindertagesstätte Martin-Luther-King", "wheelchair": "no"}}, {"type": "node", "id": 2571327587, "lat": 53.4848037, "lon": 10.160346, "tags": {"amenity": "kindergarten", "contact:website": "http://www.drk-kiju.de/einrichtungen/springmaus", "name": "Kinderhaus Springmaus"}}, {"type": "node", "id": 2606826688, "lat": 53.5444127, "lon": 10.0208129, "tags": {"addr:city": "Hamburg", "addr:country": "DE", "addr:housenumber": "61", "addr:postcode": "20097", "addr:street": "Amsinckstraße", "amenity": "kindergarten", "check_date": "2023-06-07", "contact:website": "http://www.kinderzimmer-kita.de/hamburg-city-sued", "name": "Kinderzimmer City Süd", "opening_hours": "Mo-Fr 07:00-19:00; PH off"}}, {"type": "node", "id": 2624790075, "lat": 53.5820826, "lon": 9.9495284, "tags": {"addr:city": "Hamburg", "addr:country": "DE", "addr:housenumber": "63", "addr:postcode": "20255", "addr:street": "Eidelstedter Weg", "alt_name": "KiTa Bollerwagen", "amenity": "kindergarten", "capacity": "16", "check_date:opening_hours": "2023-01-08", "max_age": "6", "min_age": "2.5", "name": "Kindergruppe Bollerwagen", "opening_hours": "Mo-Fr 08:00-16:30", "opening_hours:signed": "no", "operator": "Kindergruppe Bollerwagen e.V.", "phone": "+49 40 409616", "website": "https://www.bollerwagen.org/"}}, {"type": "node", "id": 2626887362, "lat": 53.5108594, "lon": 10.2105557, "tags": {"amenity": "kindergarten", "name": "Kita Regenbogen"}}, {"type": "node", "id": 2652364380, "lat": 53.5505606, "lon": 9.9335442, "tags": {"addr:city": "Hamburg", "addr:country": "DE", "addr:housenumber": "2a", "addr:postcode": "22765", "addr:street": "Winterstraße", "amenity": "kindergarten", "check_date": "2023-08-05", "name": "Fröbel-Kindergarten", "wheelchair": "yes"}}, {"type": "node", "id": 2659519370, "lat": 53.4889537, "lon": 10.1584727, "tags": {"addr:city": "Hamburg", "addr:country": "DE", "addr:housenumber": "7", "addr:postcode": "21035", "addr:street": "Fleetplatz", "amenity": "kindergarten", "contact:phone": "+49 40 63604888", "contact:website": "http://www.schmusebacke.de/unsere-kitas/kita-allermoehe.html", "level": "1", "name": "Kindertagesstätte Schmusebacke", "opening_hours": "Mo-Fr 06:00-18:00; PH off"}}, {"type": "node", "id": 2665885193, "lat": 53.4290609, "lon": 10.2700716, "tags": {"amenity": "kindergarten", "contact:website": "http://kirchenstegel.eva-kita.de/start.html", "name": "Ev. Kita St. Nicolai Altengamme"}}, {"type": "node", "id": 2671481447, "lat": 53.5601478, "lon": 10.1063449, "tags": {"addr:city": "Hamburg", "addr:country": "DE", "addr:housenumber": "6", "addr:postcode": "22119", "addr:street": "Graßmannweg", "amenity": "kindergarten", "contact:phone": "+49 40 73083515", "contact:website": "http://www.frosch-kita.de", "name": "Frosch Kita", "opening_hours": "Mo-Th 06:00-18:00; Fr 06:00-17:00; PH off"}}, {"type": "node", "id": 2711212885, "lat": 53.4489249, "lon": 10.2283906, "tags": {"amenity": "kindergarten", "check_date": "2023-10-04", "contact:website": "http://www.elbkinder-kitas.de/de/kita_finder/kita/128", "name": "Kita Curslacker Deich"}}, {"type": "node", "id": 2719747179, "lat": 53.4647614, "lon": 9.987961, "tags": {"addr:city": "Hamburg", "addr:country": "DE", "addr:housenumber": "23a", "addr:postcode": "21079", "addr:street": "Theodor-Yorck-Straße", "amenity": "kindergarten", "check_date": "2023-10-03", "email": "hafencampus@kinderstadt-kitas.de", "fax": "+49 40 38036981", "level": "0", "name": "Kinderstadt Kita Hafencampus", "operator": "Kinderstadt Kitas GmbH", "phone": "+49 40 38036980", "toilets:wheelchair": "yes", "website": "https://kinderstadt-kitas.de/"}}, {"type": "node", "id": 2719939298, "lat": 53.4739035, "lon": 10.2385213, "tags": {"addr:city": "Hamburg", "addr:country": "DE", "addr:housenumber": "263", "addr:postcode": "21039", "addr:street": "Curslacker Heerweg", "amenity": "kindergarten", "check_date": "2023-09-07", "contact:phone": "+49 40 72962206", "contact:website": "http://www.schmusebacke.de/unsere-kitas/kita-curslack.html", "name": "Kita Schmusebacke", "opening_hours": "Mo-Fr 06:00-18:00; PH off"}}, {"type": "node", "id": 2732766967, "lat": 53.5821632, "lon": 9.9479091, "tags": {"addr:city": "Hamburg", "addr:country": "DE", "addr:housenumber": "75", "addr:postcode": "20255", "addr:street": "Eidelstedter Weg", "amenity": "kindergarten", "check_date": "2023-06-28", "name": "Kita Kinderkönigreich", "operator": "Kinderkönigreich e.V.", "website": "http://kita-kinderkoenigreich.de"}}, {"type": "node", "id": 2732913089, "lat": 53.4442351, "lon": 10.1735106, "tags": {"amenity": "kindergarten", "name": "Kindergarten Grashüpfer"}}, {"type": "node", "id": 2754599369, "lat": 53.5754593, "lon": 9.951107, "tags": {"amenity": "kindergarten", "capacity": "70", "check_date:opening_hours": "2022-10-08", "max_age": "6", "min_age": "0.75", "name": "Kita Heußweg", "opening_hours": "Mo-Fr 07:30-17:00", "opening_hours:signed": "no", "phone": "+494031701212", "website": "http://www.kita-heussweg.de", "wheelchair": "limited"}}, {"type": "node", "id": 2771955710, "lat": 53.4395592, "lon": 9.9920196, "tags": {"addr:city": "Hamburg", "addr:housenumber": "1b", "addr:postcode": "21079", "addr:street": "Schneverdinger Weg", "amenity": "kindergarten", "website": "https://hamburger-spielhaeuser.de/spielhaeuser/harburg"}}, {"type": "node", "id": 2793252489, "lat": 53.558901, "lon": 9.9022794, "tags": {"addr:city": "Hamburg", "addr:country": "DE", "addr:housenumber": "17", "addr:postcode": "22763", "addr:street": "Jürgen-Töpfer-Straße", "amenity": "kindergarten", "check_date": "2023-03-30", "name": "Kita im Othmarschen Park"}}, {"type": "node", "id": 2893350300, "lat": 53.687346, "lon": 9.7786385, "tags": {"amenity": "kindergarten", "check_date": "2024-04-12", "name": "Die Miniforscher", "note": "Position im Gebäude unbekannt"}}, {"type": "node", "id": 2938516330, "lat": 53.5665853, "lon": 9.8746497, "tags": {"amenity": "kindergarten", "check_date": "2023-04-15", "name": "Kita Seestraße"}}, {"type": "node", "id": 2942420825, "lat": 53.5575243, "lon": 9.9489031, "tags": {"addr:city": "Hamburg", "addr:country": "DE", "addr:housenumber": "108", "addr:postcode": "22767", "addr:street": "Holstenstraße", "amenity": "kindergarten", "check_date": "2023-10-31", "name": "Paula& Max", "opening_hours": "Mo-Fr 07:00-19:00", "operator": "Paula & Max Kindertagesstätten GmbH", "phone": "+49 40 38904892", "website": "https://www.paulaundmax.de/location/august-luetgens-park/"}}, {"type": "node", "id": 2942468260, "lat": 53.5690073, "lon": 10.0441248, "tags": {"addr:city": "Hamburg", "addr:country": "DE", "addr:housenumber": "39", "addr:postcode": "22089", "addr:street": "Eilbeker Weg", "amenity": "kindergarten", "check_date": "2023-07-23", "name": "Paula & Max", "opening_hours": "Mo-Fr 07:00-19:00", "phone": "+49 40 20971681", "website": "https://www.paulaundmax.de/eilbeker.html"}}, {"type": "node", "id": 2942468295, "lat": 53.5829783, "lon": 9.9703584, "tags": {"addr:city": "Hamburg", "addr:country": "DE", "addr:housenumber": "115", "addr:postcode": "20253", "addr:street": "Hoheluftchaussee", "amenity": "kindergarten", "capacity": "40", "max_age": "6", "min_age": "0", "name": "Kita Paula & Max - Hoheluftchaussee", "opening_hours": "Mo-Th 07:00-18:00, Fr 07:00-17:00", "operator": "Paula und Max Kindertagesstätten GmbH", "phone": "+49 40 42107968", "website": "https://www.paulaundmax.de/hoheluft.html", "wheelchair": "yes"}}, {"type": "node", "id": 2942475709, "lat": 53.5619334, "lon": 9.9542404, "tags": {"addr:city": "Hamburg", "addr:country": "DE", "addr:housenumber": "3", "addr:postcode": "22769", "addr:street": "Oelkersallee", "alt_name": "Paula und Max", "amenity": "kindergarten", "check_date": "2024-05-13", "name": "Paula & Max", "opening_hours": "Mo-Fr 07:00-18:00", "phone": "+49 40 46005792", "website": "https://www.paulaundmax.de/oelkersallee.html", "wheelchair": "no"}}, {"type": "node", "id": 2945667069, "lat": 53.6050524, "lon": 10.120266, "tags": {"addr:housenumber": "162", "addr:postcode": "22159", "addr:street": "Berner Heerweg", "amenity": "kindergarten", "name": "KiTa Berner Heerweg", "operator": "SterniPark GmbH", "website": "https://sternipark.de/"}}, {"type": "node", "id": 3017127971, "lat": 53.6528508, "lon": 10.008719, "tags": {"addr:city": "Hamburg", "addr:housenumber": "22", "addr:postcode": "22415", "addr:street": "Wördenmoorweg", "amenity": "kindergarten", "name": "Evangelische Kita Ansgar Langenhorn", "short_name": "Ansgar Kita"}}, {"type": "node", "id": 3035925823, "lat": 53.551083, "lon": 10.1015311, "tags": {"addr:city": "Hamburg", "addr:country": "DE", "addr:housenumber": "165", "addr:postcode": "22119", "addr:street": "Legienstraße", "amenity": "kindergarten", "name": "KITA Kinderparadies Billstedt", "operator": "Özlem Eke"}}, {"type": "node", "id": 3039303919, "lat": 53.4724816, "lon": 10.3130789, "tags": {"amenity": "kindergarten", "name": "KITA Kleeblatt"}}, {"type": "node", "id": 3046736575, "lat": 53.6200735, "lon": 10.0820561, "tags": {"addr:city": "Hamburg", "addr:country": "DE", "addr:housenumber": "22", "addr:postcode": "22175", "addr:street": "Anderheitsallee", "amenity": "kindergarten", "check_date": "2023-05-20", "name": "Kita Anderheitsallee", "operator": "Kinderzentrum Bramfeld e.V.", "phone": "+49 40 64224285"}}, {"type": "node", "id": 3073457015, "lat": 53.5510325, "lon": 9.9245995, "tags": {"amenity": "kindergarten", "check_date": "2023-04-18", "name": "Katholische Kindertagesstätte St. Marien"}}, {"type": "node", "id": 3073493647, "lat": 53.6203899, "lon": 9.9501371, "tags": {"addr:city": "Hamburg", "addr:country": "DE", "addr:housenumber": "18", "addr:postcode": "22459", "addr:street": "Niendorfer Kirchenweg", "addr:suburb": "Niendorf", "amenity": "kindergarten", "check_date": "2023-04-05", "name": "Katholischer Kindergarten St. Ansgar", "opening_hours": "Mo-Fr 08:00-16:00", "phone": "+49 40 23898096", "preschool": "no", "source": "website", "website": "https://www.katholische-kitas-hamburg.de/?id=106"}}, {"type": "node", "id": 3074433542, "lat": 53.6169406, "lon": 9.9503498, "tags": {"addr:city": "Hamburg", "addr:country": "DE", "addr:housenumber": "241", "addr:postcode": "22453", "addr:street": "Kollaustraße", "addr:suburb": "Niendorf", "amenity": "kindergarten", "check_date": "2023-09-17", "name": "Ev.-Luth. Kindertagesstätte Regenbogen Niendorf", "opening_hours": "Mo-Fr 08:00-16:00", "phone": "+49 40 584675", "preschool": "yes", "source": "website", "website": "https://kollaustr.eva-kita.de"}}, {"type": "node", "id": 3075953186, "lat": 53.598868, "lon": 9.9965082, "tags": {"amenity": "kindergarten", "check_date": "2023-09-18", "name": "Katholischer Kindergarten St. Antonius", "wheelchair": "yes"}}, {"type": "node", "id": 3077174955, "lat": 53.5363846, "lon": 10.1092561, "tags": {"amenity": "kindergarten", "name": "Kita Billstedter Hauptstraße"}}, {"type": "node", "id": 3078967520, "lat": 53.6108955, "lon": 10.0635592, "tags": {"amenity": "kindergarten", "name": "Katholische Kindertagesstätte St. Johannis"}}, {"type": "node", "id": 3096116404, "lat": 53.5817951, "lon": 9.9439136, "tags": {"addr:city": "Hamburg", "addr:housenumber": "98", "addr:postcode": "20255", "addr:street": "Lutterothstraße", "amenity": "kindergarten", "capacity": "74", "max_age": "6", "min_age": "3", "name": "Kinderhaus 4 Zeiten - Elementarhaus", "opening_hours": "Mo-Fr 07:30-17:00", "operator": "Kinderhaus 4 Zeiten gGmbH", "phone": "+4940752557900", "website": "https://www.kita4zeiten.de/", "wheelchair": "no"}}, {"type": "node", "id": 3121764106, "lat": 53.5442757, "lon": 10.02904, "tags": {"amenity": "kindergarten", "check_date": "2023-06-07", "contact:website": "http://kidscastle-hamburg.de/", "name": "Die City-Süd Rabauken"}}, {"type": "node", "id": 3121764107, "lat": 53.5437247, "lon": 10.0295578, "tags": {"amenity": "kindergarten", "check_date": "2023-06-07", "name": "Die Zipfelmützen"}}, {"type": "node", "id": 3127437429, "lat": 53.6041569, "lon": 10.0393731, "tags": {"addr:city": "Hamburg", "addr:housenumber": "405", "addr:postcode": "22309", "addr:street": "Fuhlsbüttler Straße", "alt_name": "Kita im Wasserturmpalais", "amenity": "kindergarten", "check_date": "2023-03-25", "name": "Kita Fuhlinge", "operator": "Stiftung Kindergärten Finkenau", "phone": "+49 40 334679290", "website": "https://finkenau.de/kita/kita-fuhlinge"}}, {"type": "node", "id": 3136936091, "lat": 53.419282, "lon": 10.2721667, "tags": {"alt_name": "Arche Noah", "amenity": "kindergarten", "name": "Kindergarten Drennhausen"}}, {"type": "node", "id": 3152686722, "lat": 53.5956057, "lon": 9.8905956, "tags": {"addr:housenumber": "2", "addr:postcode": "22547", "addr:street": "Moorwisch", "amenity": "kindergarten", "name": "Kita Moorwisch", "operator": "Evangelische Stiftung Alsterdorf", "website": "https://kita-moorwisch.de/kindertagesstaette/", "wheelchair": "yes"}}, {"type": "node", "id": 3163930232, "lat": 53.6352461, "lon": 10.0514545, "tags": {"addr:city": "Hamburg", "addr:country": "DE", "addr:housenumber": "223", "addr:postcode": "22337", "addr:street": "Wellingsbütteler Landstraße", "amenity": "kindergarten", "email": "natur-kila-pinocchio@hotmail.de", "name": "Natur Kinderladen Pinocchio", "opening_hours": "Mo-Fr 08:00-15:00", "phone": "+49 40 5000671", "toilets:wheelchair": "no", "website": "https://www.kita-natur-kinderladen-pinocchio.de/", "wheelchair": "limited"}}, {"type": "node", "id": 3190745568, "lat": 53.6171783, "lon": 9.9988738, "tags": {"addr:city": "Hamburg", "addr:housenumber": "24", "addr:postcode": "22453", "addr:street": "Heselstücken", "amenity": "kindergarten", "email": "info@kita-himmelsstürmer.de", "fax": "+49 40 38653990", "name": "Kita Himmelsstürmer", "operator": "Doris Heidenreich", "phone": "+49 40 38653988", "website": "http://www.kita-himmelsstürmer.de/"}}, {"type": "node", "id": 3203071761, "lat": 53.6018539, "lon": 9.8730458, "tags": {"addr:city": "Hamburg", "addr:housenumber": "115", "addr:postcode": "22547", "addr:street": "Kleiberweg", "amenity": "kindergarten", "name": "Ev.-Luth. Kita Emmaus", "operator": "Ev. Luth. Kita-Werk Hamburg-West/Südholstein;Ev.-Luth. Emmaus-Kirchengemeinde Hamburg-Lurup", "operator:type": "religious", "website": "https://kleiberweg.eva-kita.de/"}}, {"type": "node", "id": 3256354875, "lat": 53.6352011, "lon": 9.9573638, "tags": {"addr:city": "Hamburg", "addr:country": "DE", "addr:housenumber": "2", "addr:postcode": "22455", "addr:street": "Sachsenweg", "addr:suburb": "Niendorf", "amenity": "kindergarten", "check_date": "2023-04-10", "name": "Ev. Kindergarten Verheißungskirche", "opening_hours": "Mo-Fr 08:00-16:00", "phone": "+49 40 69608781", "source": "website", "website": "https://sachsenweg.eva-kita.de/willkommen.html"}}, {"type": "node", "id": 3295145261, "lat": 53.5649146, "lon": 9.9135986, "tags": {"addr:city": "Hamburg", "addr:housenumber": "45", "addr:postcode": "22761", "addr:street": "Bahrenfelder Chaussee", "amenity": "kindergarten", "check_date": "2023-05-25", "name": "Kita ZwergenAufstand", "operator": "Yvonne Pietzko"}}, {"type": "node", "id": 3367461793, "lat": 53.5433985, "lon": 10.1447204, "tags": {"addr:city": "Hamburg", "addr:country": "DE", "addr:housenumber": "266", "addr:postcode": "22117", "addr:street": "Möllner Landstraße", "amenity": "kindergarten", "name": "Kita Möllner Landstraße"}}, {"type": "node", "id": 3421253903, "lat": 53.53163, "lon": 10.1494587, "tags": {"addr:city": "Hamburg", "addr:housenumber": "25", "addr:postcode": "22115", "addr:street": "Kandinskyallee", "amenity": "kindergarten", "name": "Kita Kandinskyallee", "operator": "Elbkinder - Vereinigung Hamburger Kitas", "website": "https://www.elbkinder-kitas.de/de/kita_finder/kita/310"}}, {"type": "node", "id": 3421254906, "lat": 53.5308687, "lon": 10.1469173, "tags": {"addr:city": "Hamburg", "addr:country": "DE", "addr:housenumber": "73", "addr:postcode": "22115", "addr:street": "Mümmelmannsberg", "amenity": "kindergarten", "name": "Kinderhaus St. Nicolaus", "operator": "Ev. Stiftung Alsterdorf"}}, {"type": "node", "id": 3436597249, "lat": 53.6467071, "lon": 9.9104658, "tags": {"addr:city": "Hamburg", "addr:country": "DE", "addr:housenumber": "8", "addr:postcode": "22457", "addr:street": "Walter-Jungleib-Straße", "amenity": "kindergarten", "check_date": "2024-06-09", "email": "kontakt@kikaka.de", "min_age": "5", "name": "Vorschulakademie Käptn Kaninchen", "opening_hours": "Mo-Fr 07:00-17:30; PH closed", "operator": "Käptn Kaninchen GmbH", "website": "https://kikaka.de/"}}, {"type": "node", "id": 3468212761, "lat": 53.5446278, "lon": 9.9806982, "tags": {"amenity": "kindergarten", "check_date": "2023-12-16", "name": "Kinderzimmer Stubbenhuk", "toilets:wheelchair": "no", "website": "http://www.kinderzimmer-stubbenhuk.de", "wheelchair": "yes"}}, {"type": "node", "id": 3503823432, "lat": 53.5541983, "lon": 9.9844728, "tags": {"amenity": "kindergarten", "name": "Wolkenzwerge", "operator": "Axel Springer Verlag"}}, {"type": "node", "id": 3524733883, "lat": 53.472951, "lon": 10.2298702, "tags": {"addr:city": "Hamburg", "addr:housenumber": "2", "addr:postcode": "21039", "addr:street": "Achterschlag", "amenity": "kindergarten", "name": "Montessori Kinderhaus Vierlanden", "website": "https://www.montessori-vierlanden.de"}}, {"type": "node", "id": 3579618474, "lat": 53.5629917, "lon": 9.8145411, "tags": {"amenity": "kindergarten", "contact:website": "http://www.strollers.de/", "name": "Strollers Kinderhaus"}}, {"type": "node", "id": 3590832811, "lat": 53.5415999, "lon": 9.9946781, "tags": {"amenity": "kindergarten", "check_date": "2023-05-14", "name": "Kita St. Katharinen"}}, {"type": "node", "id": 3625175177, "lat": 53.569074, "lon": 10.0443089, "tags": {"addr:city": "Hamburg", "addr:housenumber": "51-53", "addr:postcode": "22089", "addr:street": "Eilbeker Weg", "amenity": "kindergarten", "name": "Kindertagesstätte Eilbeker Weg", "opening_hours": "07:00-17:00", "operator": "Kinderwelt Hamburg e.V.", "source": "http://www.kinderwelt-hamburg.de", "website": "http://www.kinderwelt-hamburg.de"}}, {"type": "node", "id": 3647946932, "lat": 53.5812704, "lon": 10.0616136, "tags": {"amenity": "kindergarten", "check_date": "2023-07-26", "name": "Evangelische Kita Dulsberg"}}, {"type": "node", "id": 3664754341, "lat": 53.5788677, "lon": 9.9408387, "tags": {"amenity": "kindergarten", "capacity": "50", "check_date:opening_hours": "2021-02-19", "max_age": "6", "min_age": "1", "name": "Deutsch-Spanischer Kindergarten Lokomotive", "opening_hours": "Mo-Fr 08:00-16:00", "phone": "+494053027391", "website": "https://lokomotive-hh.de/"}}, {"type": "node", "id": 3664754342, "lat": 53.5793655, "lon": 9.9403926, "tags": {"addr:housenumber": "18", "addr:street": "Langenfelder Damm", "amenity": "kindergarten", "name": "LaDa 18", "opening_hours": "Mo-Fr 08:15-16:00"}}, {"type": "node", "id": 3668931448, "lat": 53.5800623, "lon": 9.9388142, "tags": {"addr:city": "Hamburg", "addr:housenumber": "41", "addr:postcode": "20257", "addr:street": "Langenfelder Damm", "amenity": "kindergarten", "check_date": "2023-07-21", "name": "Krippe Minimeter", "operator": "Die halben Meter gGmbH", "website": "https://www.diehalbenmeter.de/"}}, {"type": "node", "id": 3685489621, "lat": 53.5473091, "lon": 9.9656746, "tags": {"amenity": "kindergarten", "check_date": "2023-08-12", "name": "Kinderzimmer Astraturm"}}, {"type": "node", "id": 3696097584, "lat": 53.5777609, "lon": 9.9517732, "tags": {"amenity": "kindergarten", "capacity": "24", "contact:website": "http://www.hoppetosse-hamburg.de/", "max_age": "6", "min_age": "2", "name": "Kinderladen Hoppetosse", "opening_hours": "Mo-Fr 07:30-17:00", "opening_hours:signed": "no", "operator": "Hoppetosse e.V.", "phone": "+494027865408", "website": "http://www.hoppetosse-hamburg.de", "wheelchair": "yes"}}, {"type": "node", "id": 3710502980, "lat": 53.579594, "lon": 9.9533704, "tags": {"amenity": "kindergarten", "capacity": "45", "description": "Teilzeit mit Mittagessen, pädagogische Förderung Englisch", "max_age": "6", "min_age": "1", "name": "Hamburg International Kids", "opening_hours": "Mo-Fr 08:00-16:00", "opening_hours:signed": "no", "operator": "Hamburg International Kids", "phone": "+491734011837", "website": "http://www.hamburg-international-kids.de"}}, {"type": "node", "id": 3710502982, "lat": 53.5794265, "lon": 9.9530814, "tags": {"amenity": "kindergarten", "check_date": "2023-07-02", "name": "Kita Telemannstraße"}}, {"type": "node", "id": 3768569699, "lat": 53.5517077, "lon": 9.9671857, "tags": {"addr:housenumber": "13", "addr:street": "Budapester Straße", "amenity": "kindergarten", "check_date": "2023-07-24", "contact:phone": "+49 40 3171935", "contact:website": "http://www.kindergarten-mafalda.de/", "name": "Kinderladen Mafalda", "wheelchair": "no"}}, {"type": "node", "id": 3791977352, "lat": 53.6001264, "lon": 10.1328182, "tags": {"amenity": "kindergarten", "contact:website": "http://www.regenbogen-in-hamburg.de/", "name": "Kita Regenbogen in Hamburg"}}, {"type": "node", "id": 3794239839, "lat": 53.5874048, "lon": 10.0675736, "tags": {"addr:city": "Hamburg", "addr:country": "DE", "addr:housenumber": "141C", "addr:postcode": "22049", "addr:street": "Alter Teichweg", "amenity": "kindergarten", "check_date": "2023-07-18", "name": "Kita Nimmerland", "opening_hours": "Mo-Fr 7:00-17:00"}}, {"type": "node", "id": 3799389452, "lat": 53.5688346, "lon": 9.9910756, "tags": {"amenity": "kindergarten", "capacity": "70", "contact:phone": "+49 40 444727", "contact:website": "https://www.elbkinder-kitas.de/de/kita_finder/kita/207", "description": "mit Schwerpunkten musikalische Förderung, Sport, Englisch", "max_age": "6", "min_age": "2", "name": "Kita Feldbrunnenstraße", "opening_hours": "Mo-Fr 06:00-18:00; PH off", "operator": "Elbkinder – Vereinigung Hamburger Kitas gGmbH"}}, {"type": "node", "id": 3808286230, "lat": 53.5827354, "lon": 9.8303676, "tags": {"amenity": "kindergarten", "check_date": "2024-05-08", "contact:website": "http://montessori-kinderhaus-iserbrook.de/", "name": "Montessori Kinderhaus Iserbrook"}}, {"type": "node", "id": 3813638857, "lat": 53.3990498, "lon": 10.0419059, "tags": {"addr:city": "Seevetal", "addr:housenumber": "26", "addr:postcode": "21220", "addr:street": "Carl-Benz-Straße", "amenity": "kindergarten", "name": "DRK Kita", "operator": "Deutsches Rotes Kreuz"}}, {"type": "node", "id": 3815168489, "lat": 53.5871962, "lon": 10.1696955, "tags": {"amenity": "kindergarten", "contact:website": "http://www.kita-kielkoppelstrasse.de/", "name": "Kita Kielkoppelstraße"}}, {"type": "node", "id": 3830363900, "lat": 53.5654618, "lon": 9.992981, "tags": {"amenity": "kindergarten", "capacity": "25", "description": "Teilzeitbetreuung mit Mittagessen", "max_age": "6", "min_age": "2.5", "name": "Kindergarten Schneewittchen", "opening_hours": "Mo-Fr 08:00-15:00", "phone": "+4940440265", "website": "https://www.kiga-schneewittchen.de/"}}, {"type": "node", "id": 3854993308, "lat": 53.5859541, "lon": 10.0176266, "tags": {"amenity": "kindergarten", "name": "Kita Käptn Kaninchen"}}, {"type": "node", "id": 3858346757, "lat": 53.6934662, "lon": 9.9846179, "tags": {"amenity": "kindergarten", "name": "Kita Hummelhausen", "website": "https://derkinderwegen.de/"}}, {"type": "node", "id": 3957653228, "lat": 53.6119057, "lon": 10.0258447, "tags": {"addr:city": "Hamburg", "addr:housenumber": "5a", "addr:postcode": "22297", "addr:street": "Paul-Stritter-Weg", "amenity": "kindergarten", "name": "Kindertagesstätte am Werner Otto Institut", "operator": "Evangelische Stiftung Alsterdorf", "website": "https://www.kita-woi.de/", "wheelchair": "yes"}}, {"type": "node", "id": 3968025676, "lat": 53.5900608, "lon": 9.9638956, "tags": {"addr:city": "Hamburg", "addr:country": "DE", "addr:housenumber": "95a-d", "addr:postcode": "22529", "addr:street": "Grandweg", "amenity": "kindergarten", "name": "Kita Mobi", "operator": "Stiftung Kindergärten Finkenau"}}, {"type": "node", "id": 3984342353, "lat": 53.5420116, "lon": 10.0480515, "tags": {"amenity": "kindergarten", "check_date": "2023-10-22", "name": "Kita Sonnenschein", "website": "http://www.kindergaerten-finkenau.de/kita/sonnenschein/"}}, {"type": "node", "id": 3984763491, "lat": 53.5628242, "lon": 9.9242375, "tags": {"addr:city": "Hamburg", "addr:housenumber": "9", "addr:postcode": "22761", "addr:street": "Celsiusweg", "amenity": "kindergarten", "check_date": "2023-04-13", "name": "Apoidea e.V. Kita Celsiusweg", "operator": "Apoidea e.V."}}, {"type": "node", "id": 3992228495, "lat": 53.5911245, "lon": 9.8749556, "tags": {"amenity": "kindergarten", "name": "elbkinder Kita Lüttkamp", "operator": "elbkinder"}}, {"type": "node", "id": 3992869081, "lat": 53.5794363, "lon": 10.0635879, "tags": {"addr:city": "Hamburg", "addr:country": "DE", "addr:housenumber": "35", "addr:postcode": "22049", "addr:street": "Probsteier Straße", "amenity": "kindergarten", "email": "kita-probsteier@pedia-bildung.de", "fax": "+49 40 18138081", "min_age": "1", "name": "Bildungskindergarten „Probsteier“", "opening_hours": "Mo-Fr 08:00-16:00", "operator": "PEDIA gemmeinnützige Bildungs-GmbH", "phone": "+49 40 32513742", "website": "https://pedia-bildung.de/"}}, {"type": "node", "id": 3997622826, "lat": 53.5783504, "lon": 10.0600776, "tags": {"amenity": "kindergarten", "check_date": "2023-08-05", "name": "Meine Kita"}}, {"type": "node", "id": 4037273390, "lat": 53.5825635, "lon": 10.0081305, "tags": {"amenity": "kindergarten", "capacity": "50", "check_date": "2023-08-27", "min_age": "0", "name": "Kinderhaus Dorotheenstraße", "operator": "Johaniter-Unfall-Hilfe e. V.", "phone": "+49 40 558924860", "website": "https://www.johanniter.de/einrichtungen/fuer-kinder-und-jugendliche/kindertageseinrichtungen/johanniter-familienzentrum-dorotheenstrasse/kinderhaus-dorotheenstrasse/"}}, {"type": "node", "id": 4040137439, "lat": 53.5602318, "lon": 9.9849575, "tags": {"amenity": "kindergarten", "fax": "+49 40 636077-26", "name": "Kindertagesstätte an der Bucerius Law School", "phone": "+49 40 636077-25", "wheelchair": "no"}}, {"type": "node", "id": 4053483232, "lat": 53.5539932, "lon": 9.9646013, "tags": {"amenity": "kindergarten", "check_date": "2024-02-23", "name": "Evangelische Kita St. Pauli"}}, {"type": "node", "id": 4062086536, "lat": 53.5886246, "lon": 10.0721941, "tags": {"amenity": "kindergarten", "name": "Kinderhaus Alter Teichweg", "website": "https://www.kinderhausatw.de/"}}, {"type": "node", "id": 4065568863, "lat": 53.5727888, "lon": 9.9589831, "tags": {"amenity": "kindergarten", "check_date": "2023-05-05", "name": "Die halben Meter"}}, {"type": "node", "id": 4075565990, "lat": 53.5468204, "lon": 9.9314781, "tags": {"amenity": "kindergarten", "name": "Kinderhaus Mottenlos"}}, {"type": "node", "id": 4099002189, "lat": 53.6948547, "lon": 10.0509519, "tags": {"addr:city": "Norderstedt", "addr:country": "DE", "addr:housenumber": "1", "addr:postcode": "22851", "addr:street": "Bürgermeister-Bombeck-Straße", "addr:suburb": "Glashütte", "amenity": "kindergarten", "name": "Die Wittmoor-Streifenenten", "operator": "Kinderbetreuung Streifenenten-Club e. V."}}, {"type": "node", "id": 4130732489, "lat": 53.5662027, "lon": 9.9060275, "tags": {"addr:city": "Hamburg", "addr:country": "DE", "addr:housenumber": "1", "addr:postcode": "22761", "addr:street": "Haydnstraße", "alt_name": "Hawa Kassama Musikkindergarten bunte töne", "amenity": "kindergarten", "check_date:opening_hours": "2023-06-24", "contact:email": "info@bunte-toene.de", "contact:phone": "+49 40 572 274 33", "contact:website": "http://www.bunte-toene-musikkindergarten.de/kontakt/", "name": "bunte töne", "opening_hours": "Mo-Th 07:30-17:30, Fr 07:30-17:00, Sa, Su off", "opening_hours:signed": "no", "social_facility:for": "child", "website": "https://www.bunte-toene-musikkindergarten.de/"}}, {"type": "node", "id": 4170876691, "lat": 53.5523112, "lon": 9.927123, "tags": {"amenity": "kindergarten", "check_date": "2023-08-05", "name": "Kurz&Klein"}}, {"type": "node", "id": 4184225908, "lat": 53.5962032, "lon": 10.0023662, "tags": {"addr:city": "Hamburg", "addr:housenumber": "30", "addr:street": "Ohlsdorfer Straße", "amenity": "kindergarten", "check_date": "2023-04-05", "name": "Stadtpark Knirpse"}}, {"type": "node", "id": 4196783914, "lat": 53.6377813, "lon": 9.921693, "tags": {"amenity": "kindergarten", "name": "Kita Königskinder"}}, {"type": "node", "id": 4221634810, "lat": 53.6937962, "lon": 9.7944434, "tags": {"addr:city": "Borstel-Hohenraden", "addr:country": "DE", "addr:housenumber": "4a", "addr:postcode": "25495", "addr:street": "Langenbargen", "amenity": "kindergarten", "email": "kiga-kummerfeld@versanet.de", "fax": "+49 4101 845613", "name": "St. Martin", "operator": "Kita - Werk Pinneberg", "phone": "+49 4101 74688", "website": "https://langenbargen.eva-kita.de/"}}, {"type": "node", "id": 4232476521, "lat": 53.5783693, "lon": 9.9455627, "tags": {"amenity": "kindergarten", "capacity": "14", "max_age": "3", "min_age": "0.75", "name": "Kinderladen Rombergstraße e.V.", "opening_hours": "Mo-Fr 08:00-16:30", "phone": "+4940498180", "website": "http://www.kinderladen-rombergstr.de"}}, {"type": "node", "id": 4242015385, "lat": 53.6176788, "lon": 9.9894029, "tags": {"amenity": "kindergarten", "check_date": "2023-05-18", "name": "Wichtel-Kindergarten", "website": "https://www.wichtelkg.de/"}}, {"type": "node", "id": 4271858918, "lat": 53.5735199, "lon": 9.976798, "tags": {"addr:city": "Hamburg", "addr:housenumber": "13A", "addr:postcode": "20144", "addr:street": "Grindelberg", "after_school": "yes", "amenity": "kindergarten", "capacity": "59", "description": "Kindergarten (45 Plätze), Kinderkrippe (14 Plätze), Kindertagesstätte (Schüler bis 2 Schuljahr)", "email": "kiga.grindelberg@gmx.de", "lunch": "yes", "max_age": "8", "min_age": "3", "name": "Kindergarten Grindelberg", "nursery": "yes", "opening_hours": "Mo-Fr 8:00-16:00", "operator": "Kindertagesstätte Grindelberg gGmbH", "phone": "+49 40 457263", "preschool": "yes", "website": "http://www.kiga-grindelberg.de"}}, {"type": "node", "id": 4324787248, "lat": 53.549971, "lon": 10.2473574, "tags": {"addr:city": "Reinbek", "addr:housenumber": "4", "addr:postcode": "21465", "addr:street": "Querweg", "amenity": "kindergarten", "brand": "Arbeiterwohlfahrt", "brand:short": "AWO", "brand:wikidata": "Q627256", "name": "AWO Kindertagesstätte Querweg", "operator": "AWO Soziale Dienstleistungen gGmbH", "operator:type": "private_non_profit", "phone": "+49 40 7113413"}}, {"type": "node", "id": 4385625753, "lat": 53.5589262, "lon": 10.047476, "tags": {"amenity": "kindergarten", "check_date": "2023-04-15", "name": "Kita Kleine Füchse"}}, {"type": "node", "id": 4398050019, "lat": 53.5765859, "lon": 10.0414888, "tags": {"amenity": "kindergarten", "check_date": "2023-04-28", "name": "Pfützenspringer"}}, {"type": "node", "id": 4403404289, "lat": 53.5501814, "lon": 9.9482487, "tags": {"amenity": "kindergarten", "check_date": "2024-03-19", "name": "Kita Taka-Tuka-Land", "operator": "TOMURCUK-KITAS HAMBURG Kita-TaKa-TuKa-Land-Hamburg", "website": "https://kita-ttl.de/"}}, {"type": "node", "id": 4425695134, "lat": 53.59368, "lon": 10.0010505, "tags": {"amenity": "kindergarten", "name": "Apoidea favo bambini"}}, {"type": "node", "id": 4436605008, "lat": 53.5721652, "lon": 9.9813345, "tags": {"amenity": "kindergarten", "capacity": "20", "max_age": "3", "min_age": "1", "name": "Bilinguale Krippe Cocorí", "opening_hours": "Mo-Fr 08:00-17:00", "phone": "+494042948744", "website": "https://www.kita-cocori.de/"}}, {"type": "node", "id": 4456336151, "lat": 53.566846, "lon": 9.9977034, "tags": {"amenity": "kindergarten", "capacity": "50", "description": "Waldorfpädagogik", "max_age": "6", "min_age": "3", "name": "Waldorfkindergarten Hamburg Mitte", "opening_hours": "Mo-Fr 07:45-16:00", "phone": "+494045000377", "website": "http://www.kigamitte.de", "wheelchair": "no"}}, {"type": "node", "id": 4459064735, "lat": 53.5759353, "lon": 10.0298345, "tags": {"amenity": "kindergarten", "name": "Finkis", "operator": "Stiftung Kindergärten Finkenau", "website": "http://www.kindergaerten-finkenau.de/kita/finkis/"}}, {"type": "node", "id": 4475020118, "lat": 53.5736188, "lon": 9.735544, "tags": {"addr:city": "Wedel", "addr:country": "DE", "addr:housenumber": "14", "addr:postcode": "22880", "addr:street": "Von-Linné-Straße", "amenity": "kindergarten", "name": "Fröbel Wasserstrolche", "operator": "Fröbel"}}, {"type": "node", "id": 4514296974, "lat": 53.6229802, "lon": 10.0265306, "tags": {"amenity": "kindergarten", "check_date": "2023-05-02", "name": "Kindergarten Maienweg", "website": "https://www.kindergarten-maienweg.de/"}}, {"type": "node", "id": 4514299861, "lat": 53.6235918, "lon": 10.0257212, "tags": {"amenity": "kindergarten", "name": "Kita Kleine Füchse", "website": "http://kleinefuechse.de/standorte/maienweg/"}}, {"type": "node", "id": 4524915747, "lat": 53.5601933, "lon": 9.9750766, "tags": {"addr:city": "Hamburg", "addr:housenumber": "35", "addr:postcode": "20357", "addr:street": "Karolinenstraße", "amenity": "kindergarten", "check_date": "2023-06-01", "description": "Kita für sprach- und mehrfach behinderte Kinder", "name": "Kita Karolinenstraße", "operator": "Elbkinder Vereinigung Hamburger Kitas gGmbH", "social_facility": "day_care", "social_facility:for": "disabled;child", "website": "https://www.elbkinder-kitas.de/de/kita_finder/kita/564", "wheelchair": "limited"}}, {"type": "node", "id": 4539274092, "lat": 53.5482837, "lon": 9.9334525, "tags": {"addr:housenumber": "2", "addr:postcode": "22765", "addr:street": "Am Felde", "amenity": "kindergarten", "check_date": "2023-08-17", "name": "Panini Kinderladen", "name:de": "Panini Kinderladen", "website": "https://www.panini-hamburg.de/"}}, {"type": "node", "id": 4586857539, "lat": 53.5745186, "lon": 9.9564799, "tags": {"amenity": "kindergarten", "name": "Kinderhaus Monaddrei"}}, {"type": "node", "id": 4730248340, "lat": 53.6740861, "lon": 10.2414626, "tags": {"amenity": "kindergarten", "name": "Krippe \"Die Königskinder\"", "opening_hours": "07:00-17:00", "operator": "Wohnen - Fördern - Entwickeln gGmbH/Interpares e. V.", "website": "http://www.interpares-ev.de/krippe/"}}, {"type": "node", "id": 4764512949, "lat": 53.6002612, "lon": 10.0051945, "tags": {"amenity": "kindergarten", "name": "Evangelische Kita Paul-Gerhardt Winterhude", "opening_hours": "Mo-Fr 08:00-16:00", "operator": "Kirchengemeindeverband der Kindertageseinrichtungen im Ev.-Luth. Kirchenkreis Hamburg-Ost (KGV)", "source": "survey", "website": "https://braamkamp.eva-kita.de/"}}, {"type": "node", "id": 4785230757, "lat": 53.5814275, "lon": 10.0822276, "tags": {"amenity": "kindergarten", "name": "Kita Hänsel und Gretel"}}, {"type": "node", "id": 4858273382, "lat": 53.5967627, "lon": 10.0022235, "tags": {"amenity": "kindergarten", "check_date": "2023-08-19", "name": "Kinderladen Himmelstraße", "wheelchair": "limited"}}, {"type": "node", "id": 4864620859, "lat": 53.5528179, "lon": 9.9283004, "tags": {"addr:housenumber": "31", "addr:postcode": "22765", "addr:street": "Nöltingstraße", "amenity": "kindergarten", "email": "info@filefant.de", "name": "Filefant", "opening_hours": "Mo-Fr 08:00-16:00", "phone": "+49 40 390 85 63", "website": "http://filefant.de"}}, {"type": "node", "id": 4947283482, "lat": 53.5218297, "lon": 10.317236, "tags": {"addr:city": "Aumühle", "addr:country": "DE", "addr:housenumber": "27a", "addr:postcode": "21521", "addr:street": "Ernst-Anton-Straße", "amenity": "kindergarten", "name": "Montessori-Kinderhaus", "operator": "Montessori-Kinderhaus Aumühle e.V."}}, {"type": "node", "id": 5020850210, "lat": 53.5428809, "lon": 10.0040085, "tags": {"amenity": "kindergarten", "check_date": "2023-05-24", "email": "kita-am-lohsepark@elbkinder-kitas.de", "name": "KiTa am Lohsepark", "opening_hours": "Mo-Th 06:00-18:00; Fr 06:00-17:00", "operator": "elbkinder, Vereinigung Hamburger Kitas", "phone": "+49 40 30709582", "website": "https://www.elbkinder-kitas.de/"}}, {"type": "node", "id": 5060337230, "lat": 53.5605152, "lon": 10.0431469, "tags": {"addr:city": "Hamburg", "addr:country": "DE", "addr:housenumber": "12a", "addr:postcode": "20535", "addr:street": "Sievekingsallee", "amenity": "kindergarten", "check_date": "2023-08-15", "name": "Evangelische Integrationskita Simeon", "opening_hours": "Mo-Th 07:00-17:30; Fr 07:00-16:30; PH off", "phone": "+49 40 2514540", "website": "https://www.kita-simeonkirche.de/"}}, {"type": "node", "id": 5075723145, "lat": 53.5820385, "lon": 10.1092362, "tags": {"addr:city": "Hamburg", "addr:country": "DE", "addr:housenumber": "162", "addr:postcode": "22045", "addr:street": "Ahrensburger Straße", "amenity": "kindergarten", "name": "Die Hörnchen", "phone": "+49 40 2501341", "website": "https://www.kitahoernchen.de/"}}, {"type": "node", "id": 5081330362, "lat": 53.5638543, "lon": 9.8806192, "tags": {"addr:city": "Hamburg", "addr:country": "DE", "addr:housenumber": "19", "addr:postcode": "22607", "addr:street": "Beselerstraße", "amenity": "kindergarten", "capacity": "114", "contact:email": "info@kinderzimmer-kita.de", "contact:phone": "+49 40 307 09 19 00", "contact:website": "https://www.kita-kinderzimmer.de/kontakt/sonstiges", "min_age": "6 months", "name": "Kinderzimmer Villa Flottbek", "opening_hours": "Mo-Fr 07:30-18:00; PH,Sa,Su off", "operator": "KMK Kinderzimmer GmbH & Co. KG", "operator:type": "private", "social_facility:for": "child", "website": "https://www.kita-kinderzimmer.de/hamburg-othmarschen"}}, {"type": "node", "id": 5088973425, "lat": 53.5682421, "lon": 9.9677237, "tags": {"addr:city": "Hamburg", "addr:housenumber": "27", "addr:postcode": "20357", "addr:street": "Schäferkampsallee", "amenity": "kindergarten", "capacity": "75", "description": "Konzept Montessori", "max_age": "6", "min_age": "1", "name": "Montessori-Kinderhaus monaddrei", "operator": "Monaddrei GmbH", "phone": "+494053308370", "website": "https://www.monaddrei.de/"}}, {"type": "node", "id": 5097638868, "lat": 53.5740381, "lon": 9.9915545, "tags": {"amenity": "kindergarten", "capacity": "35", "max_age": "6", "min_age": "2", "name": "Kiga Sterntaler e.V.", "opening_hours": "Mo-Fr 08:00-16:00", "phone": "+494040457485", "website": "https://sterntaler-hamburg.de/"}}, {"type": "node", "id": 5097638878, "lat": 53.5723143, "lon": 9.9843267, "tags": {"amenity": "kindergarten", "capacity": "70", "max_age": "6", "min_age": "1", "name": "KiTa Hallerstraße", "opening_hours": "Mo-Fr 06:30-17:30", "operator": "Studierendenwerk Hamburg (AÖR)", "phone": "+49 40 442046", "website": "https://www.studierendenwerk-hamburg.de/kita/kita-hallerstrasse"}}, {"type": "node", "id": 5097638879, "lat": 53.5684997, "lon": 9.9835831, "tags": {"amenity": "kindergarten", "capacity": "50", "max_age": "6", "min_age": "0.5", "name": "Joseph-Carlebach-Kindertagesstätte", "opening_hours": "Mo-Th 07:30-18:00; Fr 7:30-14:30", "operator": "Jüdische Gemeinde in Hamburg", "phone": "+494044094430", "religion": "jewish", "website": "https://www.jcsh.de/JCSBH/Kita.html"}}, {"type": "node", "id": 5098158895, "lat": 53.5425583, "lon": 10.2343594, "tags": {"addr:city": "Glinde", "addr:housenumber": "31", "addr:postcode": "21509", "addr:street": "Oher Weg", "amenity": "kindergarten", "contact:email": "kita-oher-weg@kitas-nord.de", "contact:fax": "+49 40 32 03 697", "contact:phone": "+49 40 32 03 67 94", "contact:website": "https://www.kitas-nord.de/de/kita_finder/kita/103", "description": "Bis auf wenige Schließungstage haben wir das ganze Jahr geöffnet, auch in den Schulferien", "name": "Kita Oher Weg", "opening_hours": "Mo-Su 06:00-18:00", "operator": "Elbkinder Vereinigung Kitas Nord gGmbH"}}, {"type": "node", "id": 5098542745, "lat": 53.5753369, "lon": 9.9468608, "tags": {"amenity": "kindergarten", "capacity": "36", "denomination": "lutheran", "max_age": "6", "min_age": "1", "name": "Ev. Kita Apostelkirche", "opening_hours": "Mo-Fr 08:00-16:00", "operator": "Ev.-luth. Kirchenkreis Hamburg Ost", "operator:type": "religious", "phone": "+4940406800", "religion": "christian", "website": "https://schwenckestr5.eva-kita.de/"}}, {"type": "node", "id": 5098542746, "lat": 53.5820595, "lon": 9.9438071, "tags": {"addr:housenumber": "107", "addr:street": "Eidelstedter Weg", "amenity": "kindergarten", "capacity": "60", "max_age": "3", "min_age": "1", "name": "Kinderhaus 4 Zeiten - Krippenhaus", "opening_hours": "Mo-Fr 07:30-17:00", "operator": "Kinderhaus 4 Zeiten gGmbH", "phone": "+49 40 752557910", "website": "https://www.kita4zeiten.de/", "wheelchair": "no"}}, {"type": "node", "id": 5105515543, "lat": 53.5423235, "lon": 10.1104002, "tags": {"amenity": "kindergarten", "check_date": "2023-10-25", "contact:website": "https://www.palaststrolche-hamburg.de/", "name": "Palaststrolche"}}, {"type": "node", "id": 5118292096, "lat": 53.6001724, "lon": 9.9969335, "tags": {"addr:city": "Hamburg", "addr:housenumber": "1", "addr:postcode": "22299", "addr:street": "Efeuweg", "amenity": "kindergarten", "contact:phone": "+49 40 66877087", "contact:website": "https://www.drachenkinderland.de", "name": "Drachenkinderland", "operator": "Kita Drachenkinderland GbR"}}, {"type": "node", "id": 5123958277, "lat": 53.5690024, "lon": 10.1026828, "tags": {"amenity": "kindergarten", "name": "Kindergarten Marienkäfer"}}, {"type": "node", "id": 5137266285, "lat": 53.575343, "lon": 10.0281736, "tags": {"amenity": "kindergarten", "name": "Barmbeker Lachmöwen", "website": "https://www.barmbeker-lachmoewen.de/", "wheelchair": "limited"}}, {"type": "node", "id": 5143191206, "lat": 53.5487368, "lon": 10.1679218, "tags": {"addr:city": "Oststeinbek", "addr:housenumber": "32b", "addr:postcode": "22113", "addr:street": "Meessen", "amenity": "kindergarten", "name": "Kindertagesstätte Meessen", "operator": "elbkinder", "website": "https://www.kitas-nord.de/de/kita_finder/kita/106"}}, {"type": "node", "id": 5318878673, "lat": 53.6173914, "lon": 10.1424083, "tags": {"addr:city": "Hamburg", "addr:country": "DE", "addr:housenumber": "81", "addr:postcode": "22147", "addr:street": "Greifenberger Straße", "alt_name": "Hawa Kassama Musikkindergarten bunte töne", "amenity": "kindergarten", "contact:email": "info2@bunte-toene.de", "contact:phone": "+49 40 637 495 30", "contact:website": "http://www.bunte-toene-musikkindergarten.de/kontakt/", "name": "bunte töne", "opening_hours": "Mo-Th 07:30-17:30, Fr 07:30-17:00, Sa, Su off", "social_facility:for": "child", "website": "https://www.bunte-toene-musikkindergarten.de/"}}, {"type": "node", "id": 5407846774, "lat": 53.5505774, "lon": 10.0169282, "tags": {"amenity": "kindergarten", "check_date": "2023-03-31", "name": "Das Monkey Haus"}}, {"type": "node", "id": 5643770778, "lat": 53.4627377, "lon": 9.9703727, "tags": {"amenity": "kindergarten", "check_date": "2023-04-02", "level": "0", "name": "Campus-Nest", "operator": "TU Hamburg", "operator:type": "private", "wheelchair": "yes"}}, {"type": "node", "id": 5747014859, "lat": 53.6317139, "lon": 10.0204129, "tags": {"addr:city": "Hamburg", "addr:housenumber": "80-84", "addr:postcode": "22335", "addr:street": "Erdkampsweg", "amenity": "kindergarten", "check_date": "2023-08-02", "description": "Die Kita ist nur in einem Teil, des EG, dieses Mehrfamilienhauses.", "email": "info@kita-lsk.de", "name": "Kita „Lütte Sternenkieker\"", "operator": "Christine Neitzel", "phone": "+49 40 50090500", "toilets:wheelchair": "no", "website": "http://luettesternenkieker.de/", "wheelchair": "yes"}}, {"type": "node", "id": 5771828531, "lat": 53.4686179, "lon": 9.7901343, "tags": {"addr:city": "Neu Wulmstorf", "addr:country": "DE", "addr:housenumber": "14", "addr:postcode": "21629", "addr:street": "Ernst-Moritz-Arndt-Straße", "amenity": "kindergarten", "contact:phone": "+49 40 728 29 805", "contact:website": "https://www.courage-neu-wulmstorf.de/index.php/kita-am-see.html", "email": "kita.amsee@ewe.net", "level": "1", "name": "KITA am See", "opening_hours": "Mo-Fr 07:00-17:00; PH off", "operator:type": "public", "wheelchair": "yes"}}, {"type": "node", "id": 5863620498, "lat": 53.5927264, "lon": 9.9296243, "tags": {"addr:city": "Hamburg", "addr:country": "DE", "addr:housenumber": "47", "addr:postcode": "22527", "addr:street": "Sportplatzring", "amenity": "kindergarten", "email": "info@die-kusimansen.de", "name": "Die Kusimansen", "phone": "+49 40 74322726", "website": "https://die-kusimansen.de", "wheelchair": "no"}}, {"type": "node", "id": 5888449356, "lat": 53.6009914, "lon": 10.0289133, "tags": {"addr:city": "Hamburg", "addr:country": "DE", "addr:housenumber": "4", "addr:postcode": "22297", "addr:street": "Kapstadtring", "amenity": "kindergarten", "check_date": "2023-10-15", "language:de": "main", "language:en": "yes", "lunch": "yes", "max_age": "6 years", "min_age": "4 months", "name": "Villa Luna Hamburg", "operator": "Villa Luna Kindertagesstätten GmbH / Villa Luna gGmbh", "website": "https://villaluna.de/hamburg/privater-kindergarten-hamburg/"}}, {"type": "node", "id": 5891396508, "lat": 53.4723252, "lon": 9.8841766, "tags": {"amenity": "kindergarten", "level": "0;1", "name": "Don Bosco", "opening_hours": "Mo-Fr 6:00-18:00", "phone": "+49 40 796 24 90", "website": "https://www.kita-donbosco.de/"}}, {"type": "node", "id": 5891666231, "lat": 53.471546, "lon": 9.8351547, "tags": {"amenity": "kindergarten", "name": "Kita Sonnenschein"}}, {"type": "node", "id": 5899382759, "lat": 53.5990972, "lon": 9.9608574, "tags": {"addr:city": "Hamburg", "addr:housenumber": "15b", "addr:postcode": "22529", "addr:street": "Vogt-Wells-Straße", "amenity": "kindergarten", "check_date": "2023-06-21", "level": "0", "name": "Kita Käptn Kaninchen", "operator": "Integrativo gGmbH", "website": "http://www.kaeptn-kaninchen.de/"}}, {"type": "node", "id": 5908907765, "lat": 53.5769732, "lon": 9.9428549, "tags": {"addr:city": "Hamburg", "addr:housenumber": "34", "addr:postcode": "20257", "addr:street": "Lappenbergsallee", "amenity": "kindergarten", "contact:phone": "+49 40-23517180", "image": "https://image.jimcdn.com/app/cms/image/transf/dimension=640x1024:format=jpg/path/s18e290c70d606f8f/image/i450b1cc490ce1a81/version/1681305371/image.jpg", "name": "Kind & Kunst", "operator": "Petra Rappl", "website": "https://www.kindundkunst-hamburg.de/", "wheelchair": "no"}}, {"type": "node", "id": 5918482435, "lat": 53.5680909, "lon": 9.8883759, "tags": {"amenity": "kindergarten", "check_date": "2023-03-28", "name": "Villa Vivendi"}}, {"type": "node", "id": 6019695861, "lat": 53.5963607, "lon": 9.9812806, "tags": {"amenity": "kindergarten", "check_date": "2023-07-30", "name": "Kita Momo"}}, {"type": "node", "id": 6032707709, "lat": 53.6350602, "lon": 9.7574311, "tags": {"addr:housenumber": "1b", "addr:street": "Heideweg", "amenity": "kindergarten", "name": "Kita Heideweg", "operator": "Lebenshilfe für Menschen mit Behinderungen im Kreis Pinneberg gGmbH", "website": "https://lebenshilfe-pi.de/ueberblick/appen-etz-heideweg/"}}, {"type": "node", "id": 6055903498, "lat": 53.6883772, "lon": 10.0445498, "tags": {"amenity": "kindergarten", "denomination": "lutheran", "name": "Kita an der Thomaskirche", "religion": "christian"}}, {"type": "node", "id": 6073387335, "lat": 53.4912401, "lon": 10.2063686, "tags": {"amenity": "kindergarten", "check_date": "2024-03-30", "level": "0", "name": "Kindertagesstätte Leuchtkäfer", "operator": "Deutsches Rotes Kreuz Kinder- und Jugendhilfe gGmbH", "phone": "+49 40 7212643", "short_name:de": "Kita Leuchtkäfer", "website": "https://www.drk-kiju.de/"}}, {"type": "node", "id": 6166993193, "lat": 53.6695616, "lon": 10.0857736, "tags": {"amenity": "kindergarten", "brand": "Deutsches Rotes Kreuz", "brand:short": "DRK", "brand:wikidata": "Q694104", "contact:email": "kita-jimknopf@drk-kiju.de", "contact:fax": "+49 40 64089391", "contact:phone": "+49 40 88947430", "contact:website": "https://www.drk-kiju.de/einrichtungen/kita-jim-knopf", "name": "Kindertagesstätte Jim Knopf", "opening_hours": "Mo-Th 06:30-17:30, Fr 06:30-17:00; PH,Sa,Su off", "operator": "DRK Hamburg gemeinnützige Gesellschaft zur Förderung der Kinder- und Jugendhilfe mbH"}}, {"type": "node", "id": 6171627681, "lat": 53.68509, "lon": 10.2450903, "tags": {"addr:housenumber": "3", "addr:street": "Langeneßweg", "amenity": "kindergarten", "name": "Die Wurzel Zwerge", "operator": "Deutsches Rotes Kreuz"}}, {"type": "node", "id": 6239939952, "lat": 53.5990532, "lon": 9.9642905, "tags": {"amenity": "kindergarten", "check_date": "2023-09-06", "name": "Kita Käptn Kaninchen"}}, {"type": "node", "id": 6255702064, "lat": 53.4012083, "lon": 9.7475425, "tags": {"addr:city": "Appel", "addr:country": "DE", "addr:housenumber": "1", "addr:postcode": "21279", "addr:street": "Am Kinderspielplatz", "addr:suburb": "Grauen", "amenity": "kindergarten", "name": "Kindergarten Appel", "phone": "+49 4165 217302", "source": "survey"}}, {"type": "node", "id": 6258704463, "lat": 53.5790475, "lon": 10.0675414, "tags": {"addr:city": "Hamburg", "addr:country": "DE", "addr:housenumber": "27", "addr:postcode": "22041", "addr:street": "Walddörferstraße", "amenity": "kindergarten", "email": "kita-piggeldy@t-online.de", "min_age": "2", "name": "Kita Piggeldy", "opening_hours": "Mo-Fr 07:30-16:00", "operator": "Ina Kahrmann", "phone": "+49 40 68915575", "website": "http://www.kita-piggeldy.de"}}, {"type": "node", "id": 6293479512, "lat": 53.5624683, "lon": 9.9166458, "tags": {"addr:city": "Hamburg", "addr:country": "DE", "addr:housenumber": "3g", "addr:postcode": "22761", "addr:street": "Paul-Dessau-Straße", "amenity": "kindergarten", "check_date": "2023-08-08", "name": "kidspace Bahrenpark"}}, {"type": "node", "id": 6306416801, "lat": 53.5667367, "lon": 9.9753325, "tags": {"addr:city": "Hamburg", "addr:country": "DE", "addr:housenumber": "27", "addr:postcode": "20146", "addr:street": "Laufgraben", "amenity": "kindergarten", "capacity": "28", "max_age": "6", "min_age": "1", "name": "Kita Flohzirkus e.V.", "opening_hours": "Mo-Fr 07:30-17:00", "phone": "+4940456992", "url": "http://flohzirkus-ev.de/", "wheelchair": "no"}}, {"type": "node", "id": 6357848161, "lat": 53.6306304, "lon": 10.0217455, "tags": {"addr:city": "Hamburg", "addr:housenumber": "64", "addr:postcode": "22335", "addr:street": "Erdkampsweg", "amenity": "kindergarten", "check_date": "2023-06-04", "description": "bilinguale und integrative Kita", "email": "erdkampsweg@kinderwelt-hamburg.de", "fax": "+49 40 38682021", "name": "Kita Erdkampsweg", "note": "Die Kita ist nur in einem Teil, des EG, dieses Mehrfamilienhauses.", "operator": "Kinderwelt Hamburg e. V.", "phone": "+49 40 38682020", "website": "https://kinderwelt-hamburg.de/kitas/erdkampsweg/", "wheelchair": "yes"}}, {"type": "node", "id": 6357871688, "lat": 53.6312175, "lon": 10.0203776, "tags": {"addr:city": "Hamburg", "addr:housenumber": "79", "addr:postcode": "22335", "addr:street": "Erdkampsweg", "amenity": "kindergarten", "email": "Carmas.MiniHanseaten@web.de", "name": "Carmas Minihanseaten", "opening_hours": "Mo-Fr 07:00-17:00", "opening_hours:signed": "no", "operator": "Mandy Vandrey und Carolin Utzmann", "phone": "+49 40 20905258", "website": "https://carmas-minihanseaten.hamburg/", "wheelchair": "limited"}}, {"type": "node", "id": 6370496985, "lat": 53.6400409, "lon": 10.0215943, "tags": {"amenity": "kindergarten", "contact:website": "http://www.manikids.de", "name": "MaNi Kids"}}, {"type": "node", "id": 6413762430, "lat": 53.5712814, "lon": 10.0476449, "tags": {"amenity": "kindergarten", "name": "Kita Auenstraße", "operator": "AWO"}}, {"type": "node", "id": 6448114384, "lat": 53.6520801, "lon": 10.2614252, "tags": {"amenity": "kindergarten"}}, {"type": "node", "id": 6462504098, "lat": 53.5526253, "lon": 9.8559498, "tags": {"amenity": "kindergarten", "name": "Nienstedtener Waldwichtel", "phone": "+49 152 24282434"}}, {"type": "node", "id": 6515216153, "lat": 53.6189225, "lon": 10.0127022, "tags": {"addr:city": "Hamburg", "addr:housenumber": "22", "addr:postcode": "22335", "addr:street": "Alsterberg", "amenity": "kindergarten", "level": "0", "name": "Kinderladen Buddelkiste"}}, {"type": "node", "id": 6534854791, "lat": 53.5512906, "lon": 10.0857594, "tags": {"amenity": "kindergarten", "check_date": "2023-06-02", "contact:website": "http://www.rasselbande-horn.de/", "name": "KITA Rasselbande Horn"}}, {"type": "node", "id": 6619072754, "lat": 53.5364804, "lon": 10.1213414, "tags": {"addr:city": "Hamburg", "addr:housenumber": "19", "addr:postcode": "22117", "addr:street": "Druckerstraße", "amenity": "kindergarten", "check_date": "2024-06-04", "email": "kita-druckerstrasse@elbkinder-kitas.de", "name": "Kita Druckerstraße", "opening_hours": "Mo-Th 06:00-18:00; Fr 06:00-17:00", "operator": "Elbkinder Vereinigung Hamburger Kitas gGmbH", "phone": "+49 40 714877915", "website": "https://www.elbkinder-kitas.de/de/kita_finder/kita/135", "wheelchair": "yes"}}, {"type": "node", "id": 6635054117, "lat": 53.6910411, "lon": 9.7914731, "tags": {"addr:housenumber": "72", "addr:street": "Bundesstraße", "amenity": "kindergarten", "check_date": "2023-07-02", "name": "KITA St. Martin Außenstelle", "operator:type": "religious", "website": "https://langenbargen.eva-kita.de/"}}, {"type": "node", "id": 6639648382, "lat": 53.540471, "lon": 9.9954479, "tags": {"amenity": "kindergarten", "check_date": "2023-06-07", "name": "Kinderwelt Hamburg"}}, {"type": "node", "id": 6649482374, "lat": 53.468337, "lon": 9.96332, "tags": {"addr:city": "Hamburg", "addr:country": "DE", "addr:housenumber": "38", "addr:postcode": "21075", "addr:street": "Nobléestraße", "amenity": "kindergarten", "check_date": "2023-09-27", "email": "kitanobleestr@asb-hamburg.de", "entrance": "yes", "fax": "+49 40 76750603", "name": "Kita Nobleestraße", "opening_hours": "Mo-Th 07:00-17:30, Fr 07:00-17:00", "operator": "ASB Hamburg", "phone": "+49 40 76750605"}}, {"type": "node", "id": 6651740320, "lat": 53.4679275, "lon": 9.9637864, "tags": {"amenity": "kindergarten", "name": "elbkinder"}}, {"type": "node", "id": 6665933600, "lat": 53.5551677, "lon": 9.931941, "tags": {"amenity": "kindergarten", "contact:email": "kita-osterkirche@hamburg.de", "contact:phone": "+49 40 390 91 41", "contact:website": "https://zeissstr.eva-kita.de", "denomination": "protestant", "name": "Kindertagesstätte an der Osterkirche", "religion": "christian"}}, {"type": "node", "id": 6689544671, "lat": 53.573998, "lon": 9.8912649, "tags": {"amenity": "kindergarten", "check_date": "2023-03-29", "name": "Kindertagesstätte Albert-Einstein-Ring"}}, {"type": "node", "id": 6699482269, "lat": 53.6350343, "lon": 9.9664078, "tags": {"addr:city": "Hamburg", "addr:country": "DE", "addr:housenumber": "187", "addr:postcode": "22455", "addr:street": "Garstedter Weg", "addr:suburb": "Niendorf", "amenity": "kindergarten", "check_date": "2023-05-01", "name": "Kinderstube", "opening_hours": "Mo-Fr 07:30-14:00", "operator": "Kinderstube Sethweg e.V", "phone": "+49 40 57006070", "source": "website", "website": "https://www.kinderstubesethweg.de"}}, {"type": "node", "id": 6792816057, "lat": 53.5558043, "lon": 10.0716957, "tags": {"amenity": "kindergarten", "check_date": "2024-04-12", "email": "kita-horner-weg@elbkinder-kitas.de", "fax": "+49 40 6510003", "max_age": "6", "min_age": "0", "name": "Kindertagesstätte Horner Weg", "opening_hours": "Mo-Th 06:00-18:00, Fr 06:00-17:00; PH closed", "phone": "+49 40 6517229", "short_name": "Kita Horner Weg", "website": "https://www.elbkinder-kitas.de/de/kita_finder/kita/234"}}, {"type": "node", "id": 6964119490, "lat": 53.652704, "lon": 10.0076569, "tags": {"amenity": "kindergarten", "name": "Kita Wolkenflieger", "operator": "DRK Kreisverband Hamburg-Nord e. V."}}, {"type": "node", "id": 6965622303, "lat": 53.5788884, "lon": 9.7976494, "tags": {"amenity": "kindergarten", "entrance": "yes", "name": "Evangelische Kindertagesstätte Sülldorf", "website": "https://suelldorfer-kirchenweg.eva-kita.de"}}, {"type": "node", "id": 6976275506, "lat": 53.6712999, "lon": 9.9875647, "tags": {"addr:city": "Norderstedt", "addr:housenumber": "43", "addr:postcode": "22848", "addr:street": "Rugenbarg", "amenity": "kindergarten", "name": "Kita Spielhaus Kunterbunt", "operator": "Spielhaus Kunterbunt e.V.", "phone": "+49 40 88366037", "website": "https://spielhaus-kunterbunt.de"}}, {"type": "node", "id": 7042108980, "lat": 53.5938003, "lon": 10.0598593, "tags": {"amenity": "kindergarten", "name": "Kinderkrippe LaLeLu", "operator": "Kindergarten Bramfeld e.V.", "phone": "+49 40 69705883", "website": "https://kindergartenbramfeld.de"}}, {"type": "node", "id": 7042264018, "lat": 53.6541307, "lon": 10.2348327, "tags": {"addr:city": "Ahrensburg", "addr:country": "DE", "amenity": "kindergarten", "name": "Kinderbetreuung Kleiner Zaunkönig", "opening_hours": "Mo-Fr 07:30-16:30"}}, {"type": "node", "id": 7063911952, "lat": 53.5827383, "lon": 9.9747848, "tags": {"addr:city": "Hamburg", "addr:country": "DE", "addr:housenumber": "234", "addr:postcode": "20251", "addr:street": "Eppendorfer Weg", "amenity": "kindergarten", "contact:phone": "+49 40 4204132", "name": "Kind & Kegel", "website": "https://www.kindundkegel.org/krippengruppe/"}}, {"type": "node", "id": 7080923644, "lat": 53.7324346, "lon": 9.9098718, "tags": {"addr:city": "Quickborn", "addr:country": "DE", "addr:housenumber": "55", "addr:postcode": "25451", "addr:street": "Feldbehnstraße", "amenity": "kindergarten", "check_date": "2024-05-21", "name": "Freie Kita Quickborn", "website": "https://www.freie-kita-quickborn.de"}}, {"type": "node", "id": 7123387541, "lat": 53.5889263, "lon": 9.8557509, "tags": {"addr:city": "Hamburg", "addr:housenumber": "76d", "addr:postcode": "22549", "addr:street": "Bornheide", "amenity": "kindergarten", "name": "Kita Sonnengarten", "operator": "Kita-Werk Altona-Blankenese", "website": "https://kita-sonnengarten.de"}}, {"type": "node", "id": 7176690320, "lat": 53.687005, "lon": 10.0926813, "tags": {"addr:city": "Hamburg", "addr:housenumber": "8", "addr:postcode": "22397", "addr:street": "Huulkamp", "amenity": "kindergarten", "name": "AWO Krippe Huulkamp", "operator": "AWO Hamburg", "preschool": "no", "website": "https://www.kita-huulkamp.de"}}, {"type": "node", "id": 7185318404, "lat": 53.6053163, "lon": 9.9739524, "tags": {"addr:city": "Hamburg", "addr:housenumber": "49", "addr:postcode": "22453", "addr:street": "Brödermannsweg", "amenity": "kindergarten", "name": "KiTa Inselkids e.V.", "operator": "Kita Inselkids e.V."}}, {"type": "node", "id": 7198954404, "lat": 53.6851432, "lon": 10.248561, "tags": {"addr:city": "Ahrensburg", "addr:housenumber": "6", "addr:postcode": "22926", "addr:street": "Niebüllweg", "amenity": "kindergarten", "name": "Krippe Niebüllweg", "operator": "DRK Stormarn e.V.", "website": "http://www.drk-stormarn.de/angebote/kindertagesstaetten/krippe-niebuellweg-ahrensburg.html"}}, {"type": "node", "id": 7199238468, "lat": 53.567408, "lon": 9.9675902, "tags": {"addr:city": "Hamburg", "addr:housenumber": "8", "addr:postcode": "20357", "addr:street": "Schäferstraße", "amenity": "kindergarten", "name": "Baby-Krippe am Schlump", "operator": "Bildung und Betreuung e.V. Anja Mecklenburg", "website": "http://www.baby-krippe.de/"}}, {"type": "node", "id": 7199238469, "lat": 53.5682172, "lon": 9.9677082, "tags": {"amenity": "kindergarten", "check_date": "2023-07-09", "name": "KiTa Montessori Kinderhaus monaddrei", "operator": "Institut zur Förderung der ganzheitlichen Bildung und Beratung für Kinder, Eltern und PädagogInnen gGmbH."}}, {"type": "node", "id": 7204925818, "lat": 53.5515303, "lon": 10.0788484, "tags": {"addr:city": "Hamburg", "addr:housenumber": "55", "addr:postcode": "22111", "addr:street": "Beim Rauhen Hause", "amenity": "kindergarten", "check_date": "2023-06-30", "name": "KiTa Kleine Füchse", "operator": "Akademikerbund Hamburg e.V", "website": "http://kleinefuechse.de/"}}, {"type": "node", "id": 7207415218, "lat": 53.5981169, "lon": 9.9828048, "tags": {"amenity": "kindergarten", "name": "Elementarbereich KIta Baumhaus", "operator": "Pestalozzi-Stiftung Hamburg", "website": "https://www.pestalozzi-kita.de/kita-hamburg-eppendorf/"}}, {"type": "node", "id": 7207415219, "lat": 53.6006334, "lon": 9.9809701, "tags": {"amenity": "kindergarten", "name": "Anschar-Krümel", "operator": "Stiftung Anscharhöhe", "website": "https://www.anscharhoehe.de/wir-uber-uns/kinderbetreuung.html"}}, {"type": "node", "id": 7216369571, "lat": 53.4954232, "lon": 10.2500989, "tags": {"addr:city": "Wentorf bei Hamburg", "addr:housenumber": "4", "addr:postcode": "21465", "addr:street": "Am Burgberg", "amenity": "kindergarten", "name": "Evangelischer Kindergarten", "operator": "Evangelisch-Lutherische Kirchengemeinde Wentorf", "preschool": "yes", "short_name": "Ev. Kindergarten", "website": "https://kirche-wentorf.de/kindergarten.html"}}, {"type": "node", "id": 7222347599, "lat": 53.4948074, "lon": 10.1325135, "tags": {"addr:city": "Hamburg", "addr:housenumber": "19a", "addr:postcode": "21033", "addr:street": "Am Gleisdreieck", "amenity": "kindergarten", "name": "Frosch-Kita - Haus Gelb", "operator": "PMP Projektmanagement GmbH", "website": "https://www.frosch-kita.de/frosch-kita-billwerder-gelb.html"}}, {"type": "node", "id": 7222347606, "lat": 53.4956771, "lon": 10.1331948, "tags": {"addr:housenumber": "16a", "addr:street": "Am Gleisdreieck", "amenity": "kindergarten", "name": "KiTa Am Gleisdreieck", "operator": "Pestalozzi-Stiftung Hamburg", "website": "https://www.pestalozzi-kita.de/kita-hamburg-bergedorf/"}}, {"type": "node", "id": 7222347638, "lat": 53.4935492, "lon": 10.1350537, "tags": {"addr:housenumber": "7a", "addr:street": "Am Gleisdreieck", "amenity": "kindergarten", "name": "Kinderhaus MiLa", "operator": "Rudolf-Ballin-Stiftung e.V.", "website": "https://www.rudolf-ballin-stiftung.de/kita/mittlerer-landweg"}}, {"type": "node", "id": 7222347653, "lat": 53.4942002, "lon": 10.1319718, "tags": {"addr:housenumber": "4a", "addr:street": "Am Gleisdreieck", "amenity": "kindergarten", "name": "Frosch-Kita - Haus Rot", "operator": "PMP Projekt Management Partner GmbH", "website": "https://www.frosch-kita.de/frosch-kita-billwerder-rot.html"}}, {"type": "node", "id": 7222616060, "lat": 53.5855619, "lon": 9.9754853, "tags": {"addr:city": "Hamburg", "addr:housenumber": "2", "addr:postcode": "20251", "addr:street": "Husumer Straße", "amenity": "kindergarten", "name": "KiGa Kleine Engel", "operator": "Kleine Engel gGmbH", "website": "https://www.kleine-engel-hamburg.de/"}}, {"type": "node", "id": 7228985887, "lat": 53.5504894, "lon": 9.9481104, "tags": {"amenity": "kindergarten", "name": "KiTa der Rudolf Steiner Schule Altona", "operator": "Rudolf Steiner Schule Altona e.V.", "website": "https://www.waldorfkindergaerten-hamburg.de/altona.html"}}, {"type": "node", "id": 7236719295, "lat": 53.6004654, "lon": 10.1177953, "tags": {"addr:housenumber": "115", "addr:street": "Berner Heerweg", "amenity": "kindergarten", "name": "JUL-Kita Berner Heerweg", "operator": "JUL gemeinnützige GmbH", "phone": "+49 40 88943787", "website": "https://www.jul-kita.de/hamburg-kita-berner-heerweg/"}}, {"type": "node", "id": 7238682081, "lat": 53.6210211, "lon": 9.900244, "tags": {"addr:city": "Hamburg", "addr:housenumber": "44", "addr:postcode": "22523", "addr:street": "Oliver-Lißy-Straße", "amenity": "kindergarten", "check_date": "2024-06-02", "description": "Inklusive Kita in Hamburg-Eidelstedt", "name": "Kita für Alle", "operator": "Das Rauhe Haus Kinder- und Jugendhilfe", "phone": "+49 40 57257608"}}, {"type": "node", "id": 7258416485, "lat": 53.5597691, "lon": 9.9394358, "tags": {"amenity": "kindergarten", "name": "Kita Mitte Altona"}}, {"type": "node", "id": 7328155064, "lat": 53.6472335, "lon": 9.9073413, "tags": {"addr:city": "Hamburg", "addr:housenumber": "4", "addr:postcode": "22457", "addr:street": "Am Dänenstein", "amenity": "kindergarten", "max_age": "6", "min_age": "1", "name": "Kita am Dänenstein", "operator:type": "private", "phone": "+494055007521", "website": "https://www.kita-am-daenenstein.de/", "wheelchair": "yes"}}, {"type": "node", "id": 7366757030, "lat": 53.4608163, "lon": 9.9504397, "tags": {"amenity": "kindergarten", "capacity": "90", "contact:fax": "+49 40 1818-862748", "contact:phone": "+49 40 1818-863332", "contact:website": "http://www.kunterbunt-hamburg.de", "entrance": "yes", "isced:level": "0", "name": "Kita Kunterbunt", "opening_hours": "Mo-Fr 05:30-18:00"}}, {"type": "node", "id": 7366878547, "lat": 53.461373, "lon": 9.945108, "tags": {"addr:city": "Hamburg", "addr:country": "DE", "addr:housenumber": "2c", "addr:postcode": "21075", "addr:street": "Hans-Dewitz-Ring", "amenity": "kindergarten", "brand": "Deutsches Rotes Kreuz", "brand:wikidata": "Q694104", "capacity": "90", "check_date": "2024-02-02", "contact:email": "kita-kinderwaldschloesschen@drk-paedagogik.hamburg", "contact:phone": "+49 40 76759837", "contact:website": "https://www.kita-hamburg-heimfeld.de", "max_age": "6", "min_age": "2", "name": "Kita Kinderwaldschlösschen", "opening_hours": "Mo-Sa 05:30-22:00", "operator": "DRK Kreisverband Hamburg-Harburg e.V."}}, {"type": "node", "id": 7385973093, "lat": 53.5594165, "lon": 10.0200846, "tags": {"amenity": "kindergarten", "email": "kita.stgeorg@asklepios.com", "name": "Kita Lohmühlenstrolche", "opening_hours": "Mo-Fr 05:45-18:00", "operator": "Asklepios Klinik St. Georg", "phone": "+49 40 18 18-85 26 95", "website": "https://www.lohmühlenstrolche.de"}}, {"type": "node", "id": 7531864143, "lat": 53.5794703, "lon": 10.1308402, "tags": {"addr:city": "Hamburg", "addr:housenumber": "35", "addr:postcode": "22045", "addr:street": "Kelloggstraße", "amenity": "kindergarten", "name": "Kita Kelloggstraße", "operator": "Rudolf-Ballin-Stiftung"}}, {"type": "node", "id": 7581339089, "lat": 53.729131, "lon": 9.7764507, "tags": {"addr:city": "Ellerhoop", "addr:country": "DE", "addr:housenumber": "5", "addr:postcode": "25373", "addr:street": "Dorfstraße", "amenity": "kindergarten", "fixme": "genaue position ist unklar", "isced:level": "0", "max_age": "6", "min_age": "0", "name": "Die kleinen Kobolde", "website": "https://www.kindergarten-ellerhoop.de/"}}, {"type": "node", "id": 7627132718, "lat": 53.4527869, "lon": 9.9738955, "tags": {"amenity": "kindergarten", "level": "0", "name": "Lilliput", "operator:type": "private", "wheelchair": "yes"}}, {"type": "node", "id": 7683649285, "lat": 53.6043214, "lon": 9.9606606, "tags": {"addr:housenumber": "67", "addr:street": "Kollaustraße", "amenity": "kindergarten", "contact:phone": "+49 40 386423-93", "contact:website": "https://finkenau.de/kita/mucklas/", "email": "mucklas@finkenau.de", "name": "Kita Mucklas", "opening_hours": "Mo-Fr 07:00-17:00"}}, {"type": "node", "id": 7791958010, "lat": 53.7237221, "lon": 10.0035681, "tags": {"amenity": "kindergarten", "name": "Kita Albert Schweitzer", "operator": "Ev.-Luth. Kita-Werk Hamburg-West/Südholstein"}}, {"type": "node", "id": 7846035718, "lat": 53.5483809, "lon": 9.9224018, "tags": {"addr:city": "Hamburg", "addr:housenumber": "76-78", "addr:postcode": "22763", "addr:street": "Arnoldstraße", "amenity": "kindergarten", "check_date": "2023-09-30", "email": "kinderlandfederleicht@outlook.de", "name": "Kita Kinderland Federleicht", "website": "https://www.kinderlandfederleicht.de/"}}, {"type": "node", "id": 7973770020, "lat": 53.6447393, "lon": 10.0859367, "tags": {"addr:city": "Hamburg", "addr:country": "DE", "addr:housenumber": "188", "addr:postcode": "22391", "addr:street": "Wellingsbüttler Weg", "amenity": "kindergarten", "email": "info@alsterknirpse.de", "name": "Die Alsterknirpse", "phone": "+49 40 6085 2023", "website": "https://www.alsterknirpse.de"}}, {"type": "node", "id": 7997593105, "lat": 53.4790239, "lon": 10.2058988, "tags": {"amenity": "kindergarten", "name": "Kita Schilfparkkinder", "operator": "Internationaler Bund", "phone": "+49 40 18 235 18 18", "website": "https://www.internationaler-bund.de/standort/211681"}}, {"type": "node", "id": 8069003619, "lat": 53.4767235, "lon": 9.8563981, "tags": {"amenity": "kindergarten", "capacity": "36", "max_age": "6", "min_age": "1", "name": "Kindertagesstätte Baumhuus", "opening_hours": "Mo-Fr 06:00-18:00"}}, {"type": "node", "id": 8069054141, "lat": 53.477289, "lon": 9.8495748, "tags": {"amenity": "kindergarten", "check_date": "2023-04-19", "contact:phone": "+49 40 79004970", "contact:website": "https://kita-neunmalklug.business.site/", "name": "Kindertagesstätte Neunmalklug", "opening_hours": "Mo-Fr 07:30-16:30"}}, {"type": "node", "id": 8192310110, "lat": 53.568344, "lon": 9.9535529, "tags": {"addr:city": "Hamburg", "addr:housenumber": "41-43", "addr:postcode": "20259", "addr:street": "Doormannsweg", "amenity": "kindergarten", "check_date": "2023-05-02", "name": "Deutsch-Chinesischer Kindergarten Hamburg", "operator": "PEDIA gemeinnützige Bildung International GmbH", "website": "https://www.chinesischer-kindergarten.de/"}}, {"type": "node", "id": 8286121093, "lat": 53.6047578, "lon": 10.0233056, "tags": {"addr:city": "Hamburg", "addr:country": "DE", "addr:housenumber": "35", "addr:postcode": "22297", "addr:street": "Mexikoring", "amenity": "kindergarten", "check_date": "2024-05-02", "name": "Zentrum für Kindesentwicklung", "website": "https://kindesentwicklung.com/standorte/city-nord/"}}, {"type": "node", "id": 8412982255, "lat": 53.4653236, "lon": 9.8131809, "tags": {"addr:city": "Hamburg", "addr:country": "DE", "addr:housenumber": "5", "addr:postcode": "21149", "addr:street": "Im Fischbeker Heidbrook", "amenity": "kindergarten", "name": "kinderzimmer Heidbrook", "opening_hours": "Mo-Fr 07:00-19:00", "operator": "KMK Kinderzimmer GmbH & Co. KG", "website": "https://www.kita-kinderzimmer.de/standorte/hamburg-neugraben-fischbek-heidbrook/"}}, {"type": "node", "id": 8412982260, "lat": 53.4682998, "lon": 9.8139802, "tags": {"addr:city": "Hamburg", "addr:country": "DE", "addr:housenumber": "24", "addr:postcode": "21149", "addr:street": "Im Fischbeker Heidbrook", "amenity": "kindergarten", "capacity": "150", "name": "FRÖBEL-Kindergarten Fischbeker Höfe", "note": "Eröffnung soll Stand 10.02.2021 gem. Homepage im März 2021 sein", "opening_hours": "Mo-Fr 07:00-18:00", "operator": "FRÖBEL", "phone": "+49 152 228 390 15", "website": "https://fischbeker-hoefe-hamburg.froebel.info"}}, {"type": "node", "id": 8517138591, "lat": 53.5329, "lon": 10.3104978, "tags": {"amenity": "kindergarten", "name": "Sachsenwaldkinder", "website": "https://www.waldkita-aumuehle.de/"}}, {"type": "node", "id": 8661013739, "lat": 53.5675435, "lon": 9.9593842, "tags": {"addr:city": "Hamburg", "addr:housenumber": "35", "addr:postcode": "20259", "addr:street": "Lindenallee", "amenity": "kindergarten", "check_date": "2023-05-03", "name": "Krippe am Lindenpark"}}, {"type": "node", "id": 8673038347, "lat": 53.4958994, "lon": 9.9944552, "tags": {"addr:housenumber": "1a", "addr:postcode": "21107", "addr:street": "Schlöperstieg", "amenity": "kindergarten", "check_date": "2023-06-26", "email": "kita-tigerente@awo-Hamburg.de", "entrance": "main", "name": "Kindergarten Tigerente", "opening_hours": "Mo-Fr 07:30-16:00", "operator": "AWO", "phone": "+49 40 7521819"}}, {"type": "node", "id": 8786837218, "lat": 53.5835324, "lon": 9.8564194, "tags": {"amenity": "kindergarten", "name": "Kita Barlsheide", "operator": "Hamburger Kind - Bildung und Betreuung gGmbH", "website": "https://hamburgerschulverein.de/kita-finder/kita-barlsheide"}}, {"type": "node", "id": 8813767336, "lat": 53.5812421, "lon": 9.8225816, "tags": {"amenity": "kindergarten", "name": "Villa Schief", "phone": "+49 163 6655889"}}, {"type": "node", "id": 8840194503, "lat": 53.5987, "lon": 10.0336995, "tags": {"addr:city": "Hamburg", "addr:country": "DE", "addr:housenumber": "71", "addr:postcode": "22303", "addr:street": "Feldahornweg", "amenity": "kindergarten", "contact:email": "feldahornweg@kinderwelt-hamburg.de", "contact:phone": "+49 40 94 36 96 94", "contact:website": "https://kinderwelt-hamburg.de/standorte/feldahornweg/", "language:de": "main", "language:en": "yes", "name": "Kita Feldahornweg", "opening_hours": "Mo-Fr 07:00-17:30", "operator": "Kinderwelt Hamburg e.V.", "start_date": "2021-06-01"}}, {"type": "node", "id": 8888478426, "lat": 53.5662474, "lon": 9.9640425, "tags": {"amenity": "kindergarten", "check_date": "2023-07-10", "name": "Kinderhaus", "opening_hours": "Mo-Fr 07:00-17:00", "operator": "Kinderhaus Margaretenstraße e.V."}}, {"type": "node", "id": 8888478430, "lat": 53.568158, "lon": 9.9640906, "tags": {"amenity": "kindergarten", "contact:email": "krippe.fliegenpilze@web.de", "contact:phone": "+49 40 44140337", "name": "Kita Fliegenpilze", "website": "http://krippe-fliegenpilze.de"}}, {"type": "node", "id": 8903883810, "lat": 53.4765532, "lon": 9.8467389, "tags": {"addr:city": "Hamburg", "addr:housenumber": "1-5", "addr:postcode": "21147", "addr:street": "Merlingasse", "amenity": "kindergarten", "name": "KiTa Kinderzimmer Vogelkamp", "opening_hours": "Mo-Fr 07:30-18:00", "operator": "KMK kinderzimmer GmbH & Co. KG", "operator:type": "private", "website": "https://www.kita-kinderzimmer.de/standorte/hamburg-neugraben-fischbek-vogelkamp/"}}, {"type": "node", "id": 8971673147, "lat": 53.6183062, "lon": 10.0339457, "tags": {"amenity": "kindergarten", "contact:website": "https://www.kita-kinderzimmer.de/standorte/hamburg-ohlsdorf-ohlsdoerp/", "name": "kinderzimmer Oolsdörp", "operator": "KMK kinderzimmer GmbH & Co. KG"}}, {"type": "node", "id": 8979181919, "lat": 53.5957746, "lon": 9.9710122, "tags": {"addr:city": "Hamburg", "addr:country": "DE", "addr:housenumber": "25", "addr:postcode": "22529", "addr:street": "Heinrich-Kock-Weg", "amenity": "kindergarten", "contact:website": "https://www.kita-kinderzimmer.de/standorte/hamburg-lokstedt-suederfeldpark/", "entrance": "yes", "name": "Kinderzimmer Süderfeldpark"}}, {"type": "node", "id": 9081969385, "lat": 53.6285526, "lon": 10.1251089, "tags": {"addr:city": "Hamburg", "addr:housenumber": "32", "addr:postcode": "22159", "addr:street": "Lienaustraße", "amenity": "kindergarten", "name": "Waldkindergarten Berne", "operator": "Waldameisen gGmbH", "website": "https://waldameisen.de/standort-berne/waldkindergarten-berne/"}}, {"type": "node", "id": 9197416642, "lat": 53.6359896, "lon": 9.9183527, "tags": {"addr:city": "Hamburg", "addr:housenumber": "5", "addr:postcode": "22457", "addr:street": "Frohmestraße", "amenity": "kindergarten", "name": "Vorschulakademie Käptn Kaninchen", "opening_hours": "Mo-Fr 07:30-15:45", "operator": "Kita Käptn Kaninchen", "preschool": "yes", "website": "https://kikaka.de/haeuser/vorschulakademie-frohmestrasse/"}}, {"type": "node", "id": 9211960661, "lat": 53.5479078, "lon": 10.0171317, "tags": {"addr:city": "Hamburg", "addr:housenumber": "1-5", "addr:postcode": "20097", "addr:street": "Sonninstraße", "amenity": "kindergarten", "check_date": "2024-01-18", "name": "Kita im Sonninquartier", "operator": "Deutsches Rotes Kreuz Hamburg Altona und MItte gemeinnützige Gesellschaft für Kinder Soziales und Jugend KISO mbH", "phone": "+49 40 23613996", "website": "https://www.drk-altona-mitte.de/angebote/kindertagesstaetten/kita-im-sonninquartier.html"}}, {"type": "node", "id": 9221973723, "lat": 53.6046452, "lon": 10.0229379, "tags": {"amenity": "kindergarten", "check_date": "2024-06-01", "name": "City Kinder"}}, {"type": "node", "id": 9224780397, "lat": 53.6048489, "lon": 10.0263466, "tags": {"addr:city": "Hamburg", "addr:housenumber": "10a", "addr:postcode": "22297", "addr:street": "Überseering", "amenity": "kindergarten", "check_date": "2024-03-14", "contact:email": "ruebenkamp@kmk-kinderzimmer.de <ruebenkamp@kmk-kinderzimmer.de", "contact:phone": "+49 40 27157420", "contact:website": "https://www.kita-kinderzimmer.de/standorte/hamburg-city-nord-ruebenkamp/", "name": "kinderzimmer Rübenkamp", "opening_hours": "Mo-Fr 07:00-19:00", "operator": "KMK kinderzimmer GmbH & Co. KG"}}, {"type": "node", "id": 9261388332, "lat": 53.6028474, "lon": 10.0307716, "tags": {"addr:city": "Hamburg", "addr:country": "DE", "addr:housenumber": "4", "addr:postcode": "22297", "addr:street": "Winterlindenweg", "amenity": "kindergarten", "contact:email": "winterlindenweg@kinderwelt-hamburg.de", "contact:website": "https://kinderwelt-hamburg.de/standorte/winterlindenweg/", "language:de": "main", "language:en": "yes", "name": "Kita Winterlindenweg", "operator": "Kinderwelt Hamburg e.V.", "start_date": "2022-02"}}, {"type": "node", "id": 9403796980, "lat": 53.6242479, "lon": 10.1247739, "tags": {"amenity": "kindergarten", "name": "Die Waldkinder Hamburg", "operator": "Naturkindergarten Die Waldkinder Hamburg gGmbH", "website": "http://www.waldkinder-hamburg.de/"}}, {"type": "node", "id": 9429703650, "lat": 53.6869072, "lon": 10.0055261, "tags": {"amenity": "kindergarten", "name": "Evangelische Kindertagesstätte Vicelin"}}, {"type": "node", "id": 9501555958, "lat": 53.7273903, "lon": 9.9242753, "tags": {"amenity": "kindergarten", "brand": "Deutsches Rotes Kreuz", "brand:short": "DRK", "brand:wikidata": "Q694104", "name": "DRK Kita Quickborn Hainbuchenstieg", "opening_hours": "Mo-Fr 08:00-17:00", "operator": "DRK-Kreisverband Pinneberg", "phone": "+4941066409922", "survey:date": "2022-08-23", "website": "https://www.drk-kreis-pinneberg.de/angebote/jugend-und-familie/kindertageseinrichtungen-und-familienzentren/kita-quickborn-hainbuchenstieg.html", "wheelchair": "yes"}}, {"type": "node", "id": 9762255053, "lat": 53.4735316, "lon": 9.7884884, "tags": {"addr:city": "Neu Wulmstorf", "addr:housenumber": "77", "addr:postcode": "21629", "addr:street": "Bahnhofstraße", "amenity": "kindergarten", "brand": "AWO", "brand:wikidata": "Q627256", "contact:email": "kita.wiesen.wulmstorf@awo-juki.de", "isced:level": "0", "level": "0", "max_age": "6", "min_age": "0", "name": "AWO Kindertagesstätte Wulmstorfer Wiesen", "operator": "AWO Soziale Dienste Bezirk Hannover gGmbH", "wheelchair": "yes"}}, {"type": "node", "id": 10214377459, "lat": 53.5564199, "lon": 9.9236318, "tags": {"addr:city": "Hamburg", "addr:housenumber": "11", "addr:postcode": "22765", "addr:street": "Planckstraße", "amenity": "kindergarten", "name": "Sternipark Kinderhaus Planckstraße", "wheelchair": "yes"}}, {"type": "node", "id": 10303519423, "lat": 53.6758489, "lon": 10.1437256, "tags": {"amenity": "kindergarten", "name": "Waldkindergarten Bergstedt", "website": "https://www.waldkindergarten-bergstedt.de/Start/"}}, {"type": "node", "id": 10566985780, "lat": 53.6145356, "lon": 10.0361426, "tags": {"amenity": "kindergarten", "name": "Evangelische Kita Ohlsdorf"}}, {"type": "node", "id": 10580002291, "lat": 53.683316, "lon": 10.0310173, "tags": {"addr:city": "Norderstedt", "addr:housenumber": "557", "addr:postcode": "22851", "addr:street": "Tangstedter Landstraße", "amenity": "kindergarten", "name": "Krippe Ministerne", "opening_hours": "Mo-Fr 06:30-17:30", "operator": "Stadt Norderstedt", "operator:type": "public", "phone": "+49 40 60920216", "website": "https://www.norderstedt.de/Soziales-und-Familie/Kinderbetreuung/Krippen-und-Kindergartenplatz-finden/St%C3%A4dtische-Krippen-Kinderg%C3%A4rten-und-Schulhorte/Krippe-Ministerne"}}, {"type": "node", "id": 10584349668, "lat": 53.6195333, "lon": 10.0336365, "tags": {"amenity": "kindergarten"}}, {"type": "node", "id": 10680774907, "lat": 53.6333745, "lon": 9.9204447, "tags": {"amenity": "kindergarten", "name": "Kita Muggelkinder", "start_date": "2003-08", "website": "https://www.muggelkinder.de/"}}, {"type": "node", "id": 10680798605, "lat": 53.6465835, "lon": 9.9094151, "tags": {"amenity": "kindergarten", "name": "Kita \"die Mütze\"", "website": "https://www.kita-die-muetze.de/"}}, {"type": "node", "id": 10680812005, "lat": 53.6473539, "lon": 9.9092756, "tags": {"amenity": "kindergarten", "name": "Kita Käptn Kaninchen Erlebnis Kita", "website": "https://kikaka.de/standorte/kita-roman-zeller-platz-6-8/"}}, {"type": "node", "id": 10807048891, "lat": 53.6302394, "lon": 10.1673442, "tags": {"amenity": "kindergarten", "name": "Die Hüpfzwerge"}}, {"type": "node", "id": 10873824337, "lat": 53.5922951, "lon": 9.987547, "tags": {"amenity": "kindergarten", "name": "Flitzepiepen"}}, {"type": "node", "id": 10896175423, "lat": 53.613404, "lon": 9.9100041, "tags": {"addr:city": "Hamburg", "addr:country": "DE", "addr:housenumber": "5", "addr:postcode": "22523", "addr:street": "Reemstückenkamp", "amenity": "kindergarten", "name": "Kita Reemstückenkamp", "operator": "Elbkinder", "phone": "+49-40-5706161", "website": "https://www.elbkinder-kitas.de/de/kita_finder/kita/411"}}, {"type": "node", "id": 10897000729, "lat": 53.5750709, "lon": 9.9452562, "tags": {"amenity": "kindergarten", "contact:email": "info@sonnenkinder-hamburg.de", "contact:phone": "+49 40 375 044 47", "contact:website": "https://www.sonnenkinder-hamburg.de/", "name": "Kita Sonnen-Kinder", "operator": "Kita Sonnen-Kinder Hamburg GmbH"}}, {"type": "node", "id": 10914178828, "lat": 53.5850984, "lon": 10.0266151, "tags": {"addr:city": "Hamburg", "addr:housenumber": "52-54", "addr:postcode": "22303", "addr:street": "Jarrestraße", "amenity": "kindergarten", "contact:website": "https://kita-trompitas.de", "name": "KiTa Trompitas", "operator": "Kita Trompitas GbR"}}, {"type": "node", "id": 10925463692, "lat": 53.6007255, "lon": 9.9995434, "tags": {"addr:city": "Hamburg", "addr:housenumber": "5b", "addr:postcode": "22299", "addr:street": "Hainbuchenweg", "amenity": "kindergarten", "contact:phone": "+49 40 5119843", "contact:website": "http://www.kinderladen-raupe-nimmersatt.de", "name": "Kinderladen Raupe Nimmersatt", "operator": "Kinderladen Raupe Nimmersatt e.V."}}, {"type": "node", "id": 10939301938, "lat": 53.4968126, "lon": 10.2775209, "tags": {"addr:city": "Wentorf bei Hamburg", "addr:housenumber": "6", "addr:postcode": "21465", "addr:street": "An der Lohe", "amenity": "kindergarten", "contact:website": "https://waldkindergarten-wentorf.de", "name": "Waldkindergarten Wentorf", "operator": "Waldkindergarten Wentorf e.V."}}, {"type": "node", "id": 10957958938, "lat": 53.5835287, "lon": 10.0518697, "tags": {"addr:city": "Hamburg", "addr:housenumber": "14", "addr:postcode": "22305", "addr:street": "Lämmersieth", "amenity": "kindergarten", "fixme": "genaue Lage im Gebäude?", "name": "Krippenbereich der Kita Pinelsweg", "operator": "Elbkinder Vereinigung Hamburger Kitas gGmbH", "phone": "+49 40 49200074", "website": "https://www.elbkinder-kitas.de/de/kita_finder/kita/406"}}, {"type": "node", "id": 10958958858, "lat": 53.5602927, "lon": 9.9733943, "tags": {"addr:city": "Hamburg", "addr:country": "DE", "addr:housenumber": "3", "addr:postcode": "20357", "addr:street": "Flora-Neumann-Straße", "amenity": "kindergarten", "name": "Kita Flora-Neumann-Straße", "operator": "Elbkinder Vereinigung Hamburger Kitas gGmbH", "website": "https://www.elbkinder-kitas.de/de/kita_finder/kita/215"}}, {"type": "node", "id": 11019901007, "lat": 53.6746969, "lon": 10.026456, "tags": {"amenity": "kindergarten", "email": "natur@kindergarten-schlaufuechse.de", "max_age": "6", "min_age": "1.5", "name": "Naturkindergarten \"Die Schlaufüchse\"", "opening_hours": "Mo-Fr 07:00-17:00", "phone": "+49 40 69656360", "website": "https://www.kindergarten-schlaufuechse.de/naturkindergarten-kiwittsmoor"}}, {"type": "node", "id": 11031741287, "lat": 53.5677041, "lon": 10.0626183, "tags": {"addr:city": "Hamburg", "addr:country": "DE", "addr:housenumber": "36", "addr:postcode": "22041", "addr:street": "Hammer Straße", "amenity": "kindergarten", "name": "Kindertagesstätte Luisito II"}}, {"type": "node", "id": 11031840865, "lat": 53.5939597, "lon": 10.1052026, "tags": {"addr:housenumber": "9", "addr:street": "Max-Herz-Ring", "amenity": "kindergarten", "name": "WABE-Kita Trabrennbahn", "phone": "+49 40 693 00 44", "website": "https://www.wabe.de/standort/wabe-kita-trabrennbahn/"}}, {"type": "node", "id": 11031867025, "lat": 53.5991144, "lon": 10.1151677, "tags": {"addr:city": "Hamburg", "addr:housenumber": "99", "addr:postcode": "22159", "addr:street": "Berner Heerweg", "amenity": "kindergarten", "name": "Kita in der schule Eckerkoppel", "operator": "Hamburger Schulverein von 1875 e.V.", "website": "https://hamburgerschulverein.de/kita-finder/eckerkoppel/"}}, {"type": "node", "id": 11034011706, "lat": 53.566572, "lon": 9.9572169, "tags": {"amenity": "kindergarten", "name": "WurzelKinder"}}, {"type": "node", "id": 11037172383, "lat": 53.5713892, "lon": 9.9605454, "tags": {"addr:housenumber": "17", "addr:street": "Weidenstieg", "amenity": "kindergarten", "check_date": "2024-05-27", "email": "tobekatzen@t-online.de", "name": "Tobekatzen", "wheelchair": "limited"}}, {"type": "node", "id": 11037181991, "lat": 53.5671891, "lon": 9.9646585, "tags": {"amenity": "kindergarten", "name": "Kinderhaus Bambino"}}, {"type": "node", "id": 11039713488, "lat": 53.5684276, "lon": 9.9610729, "tags": {"addr:housenumber": "47", "addr:street": "Bellealliancestraße", "amenity": "kindergarten", "check_date": "2024-06-03", "name": "Schöne kleine Welt", "website": "https://krippe-schoenekleinewelt.de", "wheelchair": "no"}}, {"type": "node", "id": 11045954781, "lat": 53.5952147, "lon": 9.8889884, "tags": {"addr:city": "Hamburg", "addr:housenumber": "15", "addr:postcode": "22547", "addr:street": "Langbargheide", "amenity": "kindergarten", "name": "Kita Morgenröte", "operator": "AWO Landesverband Hamburg e.V.", "phone": "+49 40 844101", "website": "https://www.kita-morgenroete.de/"}}, {"type": "node", "id": 11050472407, "lat": 53.654952, "lon": 10.0989838, "tags": {"addr:city": "Hamburg", "addr:housenumber": "40", "addr:postcode": "22393", "addr:street": "Langenstücken", "amenity": "kindergarten", "name": "Kath. Kita St. Bernard", "operator": "Katholische Pfarrei Seliger Johannes Prassek", "operator:type": "religious", "phone": "+49 40 6003234", "website": "https://www.st-bernard-hamburg.de/kindergarten/"}}, {"type": "node", "id": 11052835385, "lat": 53.5687366, "lon": 9.9568186, "tags": {"amenity": "kindergarten", "name": "Zauberzeit"}}, {"type": "node", "id": 11061843658, "lat": 53.644531, "lon": 10.0531393, "tags": {"addr:city": "Hamburg", "addr:housenumber": "82", "addr:postcode": "22339", "addr:street": "Hummelsbütteler Weg", "amenity": "kindergarten", "name": "Integrative Kindertagesstätte Theodor-Wenzel-Haus", "operator": "Ev.-Luth. Kirchenkreis Hamburg-Ost", "operator:type": "religious", "phone": "+49 40 53900550", "website": "https://twh-hamburg.de/integrative-kindertagesstaette/"}}, {"type": "node", "id": 11061843668, "lat": 53.644054, "lon": 10.0527826, "tags": {"addr:city": "Hamburg", "addr:housenumber": "25", "addr:postcode": "22339", "addr:street": "Poppenbüttler Stieg", "amenity": "kindergarten", "name": "Ev. Kita Christophorus", "phone": "+49 40 52019511", "website": "https://poppenbuettler-stieg.eva-kita.de/"}}, {"type": "node", "id": 11083183313, "lat": 53.6007865, "lon": 9.9431945, "tags": {"addr:city": "Hamburg", "addr:housenumber": "18", "addr:postcode": "22529", "addr:street": "Beim Amsinckpark", "amenity": "kindergarten", "name": "Ballin Kita im Amsinckpark", "operator": "Ballin Stiftung e.V.", "phone": "+49 40 58972112", "website": "https://www.ballin.hamburg/angebote/ballin-kita-im-amsinckpark/"}}, {"type": "node", "id": 11097565678, "lat": 53.617167, "lon": 10.0958897, "tags": {"amenity": "kindergarten", "name": "Don Chamäleon Kindergarten Bramfeld", "operator": "Don Chamäleon Kinderladen GmbH & Co. KG", "phone": "+49 40 20004242", "website": "https://don-chamaeleon.de"}}, {"type": "node", "id": 11174726528, "lat": 53.5890848, "lon": 9.9202023, "tags": {"amenity": "kindergarten", "contact:email": "kontakt@kikaka.de", "contact:phone": "+49 40 555 492 20", "contact:website": "https://kikaka.de/standorte/kita-kaptn-kaninchen-forsterweg-167a", "name": "Kita Käptn Kaninchen", "start_date": "2023-10-01"}}, {"type": "node", "id": 11180601645, "lat": 53.5668934, "lon": 9.9072547, "tags": {"amenity": "kindergarten", "name": "Mendelssohn KiTa"}}, {"type": "node", "id": 11222931051, "lat": 53.4979797, "lon": 10.0074032, "tags": {"amenity": "kindergarten", "level": "0", "name": "Lunakids"}}, {"type": "node", "id": 11272697113, "lat": 53.5638382, "lon": 9.8862949, "tags": {"amenity": "kindergarten", "email": "KiGa-PA@kathhw.de", "name": "Kita St. Paulus Augustinus", "operator": "Pfarrei St. Maria", "preschool": "yes"}}, {"type": "node", "id": 11291128421, "lat": 53.6008564, "lon": 10.051178, "tags": {"addr:city": "Hamburg", "addr:housenumber": "242a", "addr:postcode": "22307", "addr:street": "Steilshooper Straße", "amenity": "kindergarten", "name": "Die Kleinen Strolche", "operator": "Kinderwelt Hamburg", "phone": "+49406313321", "website": "https://kinderwelt-hamburg.de/standorte/die_kleinen_strolche/"}}, {"type": "node", "id": 11302338939, "lat": 53.7042763, "lon": 10.0051912, "tags": {"amenity": "kindergarten", "name": "KiTa Flügge Aadlers"}}, {"type": "node", "id": 11346668854, "lat": 53.5761632, "lon": 9.9467607, "tags": {"amenity": "kindergarten", "check_date": "2023-04-22", "name": "Kita Sillem", "wheelchair": "yes"}}, {"type": "node", "id": 11415338595, "lat": 53.5644532, "lon": 10.0646021, "tags": {"amenity": "kindergarten", "name": "Kita Hammer Straße"}}, {"type": "node", "id": 11449390447, "lat": 53.5680137, "lon": 9.9558662, "tags": {"amenity": "kindergarten", "name": "Zauberzeit"}}, {"type": "node", "id": 11602474803, "lat": 53.5507469, "lon": 9.9773806, "tags": {"amenity": "kindergarten", "email": "info@kita-zimtschnecke.de", "name": "Kita Zimtschnecke", "phone": "+49 40 35716875"}}, {"type": "node", "id": 11691279673, "lat": 53.5836839, "lon": 9.8529306, "tags": {"amenity": "kindergarten", "name": "Bunte Biene Elementar (Osdorf)", "opening_hours": "Mo-Fr 6:30-18:30; PH off"}}, {"type": "node", "id": 11708909003, "lat": 53.5139015, "lon": 9.9880216, "tags": {"addr:street": "Weimarer Straße", "amenity": "kindergarten", "name": "Fantasie Kinderhaus Weimarer Straße 15", "operator": "Fantasie Kinderhaus gGmbH", "phone": "+49 40 7526147", "website": "https://www.fantasiekinderhaus.de"}}, {"type": "node", "id": 11739472287, "lat": 53.5932204, "lon": 9.8525762, "tags": {"amenity": "kindergarten", "contact:phone": "+49 40 84908083", "contact:website": "https://www.drk-altona-mitte.de/angebote/kindertagesstaetten/kita-am-spielhafen.html", "name": "Kita am Spielhafen", "operator": "Deutsches Rotes Kreuz Hamburg Altona und MItte gemeinnützige Gesellschaft für Kinder, Soziales und Jugend KISO mbH"}}, {"type": "node", "id": 11751832142, "lat": 53.5939276, "lon": 10.0588642, "tags": {"addr:housenumber": "1-3", "addr:postcode": "22177", "addr:street": "Bramfelder Chaussee", "amenity": "kindergarten", "name": "KiKu Kinderland", "operator": "Kinderzentren Kunterbunt gGmbH", "website": "https://kinderzentren.de/hamburg-kita-kiku-kinderland"}}, {"type": "node", "id": 11758614615, "lat": 53.5662025, "lon": 9.9826056, "tags": {"amenity": "kindergarten"}}, {"type": "node", "id": 11758738722, "lat": 53.5581369, "lon": 9.9162212, "tags": {"addr:city": "Hamburg", "addr:housenumber": "6", "addr:postcode": "22763", "addr:street": "Antonia-Kozlova-Straße", "amenity": "kindergarten", "contact:email": "kontakt@kikaka.de", "contact:phone": "+49 40 55549220", "contact:website": "https://kikaka.de/standorte/kita-kaeptn-kaninchen-kolbenhoefe", "name": "Käptn Kaninchen", "opening_hours": "Mo-Fr 08:00-17:00"}}, {"type": "node", "id": 11775147600, "lat": 53.5773964, "lon": 9.9903774, "tags": {"amenity": "kindergarten", "capacity": "26", "max_age": "6", "min_age": "3", "name": "Enfantine Kinderclub Elementar", "opening_hours": "Mo-Fr 08:00-16:00", "operator": "Enfantine GmbH", "phone": "+494041498111", "website": "https://www.enfantine.de/"}}, {"type": "node", "id": 11778553641, "lat": 53.5485239, "lon": 9.9375614, "tags": {"addr:city": "Hamburg", "addr:housenumber": "11", "addr:postcode": "22767", "addr:street": "Schillerstraße", "amenity": "kindergarten", "name": "Kita Mini-Kratzbürsten", "operator": "Kindergarten Kratzbürsten e.V"}}, {"type": "node", "id": 11780581885, "lat": 53.5505666, "lon": 9.9653768, "tags": {"amenity": "kindergarten", "name": "Kita Zapperlot"}}, {"type": "node", "id": 11799566920, "lat": 53.5889785, "lon": 9.9514124, "tags": {"amenity": "kindergarten", "brand": "Deutsches Rotes Kreuz", "brand:short": "DRK", "brand:wikidata": "Q694104"}}, {"type": "node", "id": 11799628785, "lat": 53.5873692, "lon": 9.9795921, "tags": {"amenity": "kindergarten"}}, {"type": "node", "id": 11799631530, "lat": 53.5855215, "lon": 10.0217808, "tags": {"amenity": "kindergarten", "name": "Abraxas", "operator": "Stiftung Kindergärten Finkenau", "website": "https://finkenau.de/kita/abraxas/"}}, {"type": "node", "id": 11799780538, "lat": 53.5673988, "lon": 10.0293522, "tags": {"amenity": "kindergarten", "name": "Ev. Kita St. Gertrud"}}, {"type": "node", "id": 11804569125, "lat": 53.5870002, "lon": 10.1250195, "tags": {"addr:city": "Hamburg", "addr:housenumber": "71", "addr:postcode": "22045", "addr:street": "Tonndorfer Hauptstraße", "amenity": "kindergarten", "level": "2", "name": "KiTa Kuschelpanda", "operator": "Hattem und Mahdi GbR", "operator:type": "private", "phone": "+49 40 593 782 74", "website": "https://kitakuschelpanda.de/"}}, {"type": "node", "id": 11804589095, "lat": 53.588971, "lon": 10.1294915, "tags": {"addr:city": "Hamburg", "addr:housenumber": "20", "addr:postcode": "22045", "addr:street": "Küperstieg", "amenity": "kindergarten", "name": "Kita Küperstieg", "operator": "Elbkinder Vereinigung Hamburger Kitas gGmbH", "operator:type": "public", "phone": "+49  40 671 050 66", "website": "https://www.elbkinder-kitas.de/de/kita_finder/kita/342"}}, {"type": "node", "id": 11811659356, "lat": 53.5845289, "lon": 10.0201708, "tags": {"addr:housenumber": "6", "addr:street": "Lorenzengasse", "amenity": "kindergarten", "name": "Kinderhaus Knickweg"}}, {"type": "node", "id": 11811711316, "lat": 53.6036936, "lon": 10.0169334, "tags": {"addr:housenumber": "30f", "addr:street": "Überseering", "amenity": "kindergarten", "name": "Mucklas", "phone": "+49 40 33 46 79 230", "website": "https://finkenau.de/kita/mucklas/"}}, {"type": "node", "id": 11815759592, "lat": 53.6134833, "lon": 10.0759783, "tags": {"addr:city": "Hamburg", "addr:housenumber": "248;250", "addr:postcode": "22177", "addr:street": "Bramfelder Chaussee", "amenity": "kindergarten", "contact:instagram": "https://www.instagram.com/kitastadtinsel/", "description": "Zweisprachiger Kindergarten, deutsche und spanische Sprache", "description:es": "Jardín de infancia bilingüe, alemán y español", "facebook": "https://www.facebook.com/Kita-Stadtinsel-101924608888874", "name": "Kita Stadtinsel", "name:es": "La pequeña isla", "opening_hours": "Mo-Fr 07:00-17:00 open \"individuelle Absprachen möglich\"; PH off", "operator": "Hamburger BildungsPort Betriebs- und Projektberatungsgesellschaft mbH", "phone": "+49 40 55636627", "website": "https://www.kita-stadtinsel.de"}}, {"type": "node", "id": 11850383107, "lat": 53.5466181, "lon": 10.2734053, "tags": {"amenity": "kindergarten", "name": "Kindertageseinrichtung Ohe", "operator": "DRK"}}, {"type": "node", "id": 11869957297, "lat": 53.5552625, "lon": 9.9845169, "tags": {"addr:city": "Hamburg", "addr:housenumber": "8", "addr:postcode": "20355", "addr:street": "Caffamacherreihe", "amenity": "kindergarten", "name": "Kita kinderzimmer Valentinshof", "operator": "KMK kinderzimmer GmbH & Co. KG", "phone": "0175 3753147"}}, {"type": "node", "id": 11872046567, "lat": 53.6671963, "lon": 10.0217397, "tags": {"addr:housenumber": "23", "addr:street": "Laukamp", "amenity": "kindergarten", "name": "Kindertagespflege plietsche plüschmors", "website": "https://kindertagespflegeplietscheplueschmors.webador.de/"}}, {"type": "node", "id": 11878307793, "lat": 53.5647558, "lon": 9.8808737, "tags": {"amenity": "kindergarten", "name": "Kidspace"}}, {"type": "node", "id": 11910262107, "lat": 53.5596875, "lon": 9.9484362, "tags": {"amenity": "kindergarten", "name": "Villa Vinendi"}}, {"type": "node", "id": 11926002679, "lat": 53.5058022, "lon": 9.9927931, "tags": {"amenity": "kindergarten", "name": "Fantasie Kinderhaus"}}, {"type": "node", "id": 11927777172, "lat": 53.7293322, "lon": 10.0031443, "tags": {"addr:city": "Norderstedt", "addr:housenumber": "37", "addr:postcode": "22844", "addr:street": "Mühlenweg", "amenity": "kindergarten", "name": "Kinderhaus Leege", "phone": "+49 40 - 522 72 04"}}, {"type": "node", "id": 11935029021, "lat": 53.5575096, "lon": 9.958415, "tags": {"amenity": "kindergarten"}}, {"type": "node", "id": 11954671404, "lat": 53.6190388, "lon": 9.9021178, "tags": {"amenity": "kindergarten", "name": "Kita Hörgi", "operator": "SVE Hamburg Bildungspartner gGmbH", "website": "https://bildungspartner.hamburg/standorte/kita-hoergi/"}}, {"type": "node", "id": 11960994622, "lat": 53.5551517, "lon": 9.9622043, "tags": {"amenity": "kindergarten", "name": "Kita Friedenskirche", "operator": "Ev. Luth. Kita-Werk Hamburg-West/Südholstein", "website": "https://otzenstr.eva-kita.de/"}}, {"type": "node", "id": 11960994625, "lat": 53.5574653, "lon": 9.961405, "tags": {"amenity": "kindergarten", "name": "Kita Schilleroper", "operator": "SME e.V.", "website": "https://kita-schilleroper.de/"}}]}