{"version": 0.6, "generator": "Overpass API 0.7.62.1 084b4234", "osm3s": {"timestamp_osm_base": "2024-06-14T12:07:11Z", "copyright": "The data included in this document is from www.openstreetmap.org. The data is made available under ODbL."}, "elements": [{"type": "node", "id": 26600620, "lat": 53.5591518, "lon": 9.8852809, "tags": {"hvv:psv_type": "S", "light_rail": "yes", "name": "Othmarschen", "network": "HVV", "operator": "DB Netz AG;DB Station&Service AG", "public_transport": "station", "railway": "station", "railway:ref": "AOH", "railway:station_category": "4", "ref:station": "4817", "station": "light_rail", "uic_ref": "8004719", "wheelchair": "yes", "wikidata": "Q7108695"}}, {"type": "node", "id": 33070435, "lat": 53.5873864, "lon": 10.0449416, "tags": {"alt_name": "U S Barmbek", "departures_board": "realtime", "departures_board:speech_output": "no", "hvv:barrier_free": "yes", "hvv:psv_type": "S", "light_rail": "yes", "name": "Barmbek", "network": "Hamburger Verkehrsverbund", "network:short": "HVV", "network:wikidata": "Q896916", "official_name": "Hamburg-Barmbek (S-Bahn)", "on_demand": "no", "operator": "S-Bahn Hamburg GmbH", "public_transport": "station", "railway": "station", "railway:ref": "ABAP", "railway:station_category": "4", "request_stop": "yes", "station": "light_rail", "train": "yes", "uic_name": "Barmbek", "uic_ref": "8000805", "wheelchair": "no", "wikidata": "Q800870", "wikipedia": "de:Bahnhof Hamburg-Barmbek"}}, {"type": "node", "id": 52144713, "lat": 53.5462334, "lon": 9.9711435, "tags": {"hha_ref": "LB", "hvv:barrier_free": "no", "hvv:psv_type": "S", "layer": "-1", "light_rail": "yes", "name": "Landungsbrücken", "network": "HVV", "official_name": "Hamburg Landungsbrücken", "operator": "DB Netz AG;DB Station&Service AG", "public_transport": "station", "railway": "station", "railway:ref": "ALAS", "railway:station_category": "4", "ref:station": "3517", "station": "light_rail", "uic_name": "Hamburg Landungsbrücken", "uic_ref": "8003518", "wheelchair": "no"}}, {"type": "node", "id": 224889147, "lat": 53.647665, "lon": 9.9084998, "tags": {"hha_ref": "ABWD", "hvv:psv_type": "A", "light_rail": "yes", "name": "Burgwedel", "public_transport": "station", "railway": "station", "railway:ref": "ABWD", "station": "light_rail", "train": "yes", "uic_name": "Hamburg Burgwedel", "uic_ref": "8007046", "wheelchair": "yes", "wikidata": "Q19601669"}}, {"type": "node", "id": 224890157, "lat": 53.6342106, "lon": 9.9065479, "tags": {"addr:city": "Hamburg", "addr:postcode": "22457", "addr:street": "Pinneberger Straße", "hvv:psv_type": "A", "internet_access": "wlan", "light_rail": "yes", "name": "Schnelsen", "operator": "AKN", "public_transport": "station", "railway": "station", "railway:ref": "ASLS", "station": "train", "train": "yes", "uic_name": "Hamburg-Schnelsen", "uic_ref": "8007045", "wheelchair": "yes", "wikidata": "Q19601667"}}, {"type": "node", "id": 295998494, "lat": 53.602686, "lon": 9.8933936, "tags": {"hvv:barrier_free": "yes", "hvv:psv_type": "S", "light_rail": "yes", "name": "Elbgaustraße", "network": "HVV", "official_name": "Hamburg Elbgaustraße", "operator": "DB Netz AG", "public_transport": "station", "railway": "station", "railway:ref": "AEGS", "railway:station_category": "4", "station": "light_rail", "uic_name": "Hamburg Elbgaustr", "uic_ref": "8001739", "wheelchair": "yes", "wikidata": "Q5353739", "wikipedia": "de:Bahnhof Hamburg Elbgaustraße"}}, {"type": "node", "id": 300242481, "lat": 53.5495104, "lon": 9.984929, "tags": {"departures_board": "realtime", "departures_board:speech_output": "no", "hvv:barrier_free": "no", "hvv:psv_type": "S", "light_rail": "yes", "name": "Stadthausbrücke", "network": "Hamburger Verkehrsverbund", "network:short": "HVV", "network:wikidata": "Q896916", "official_name": "Hamburg-Stadthausbrücke", "operator": "S-Bahn Hamburg GmbH", "public_transport": "station", "railway": "station", "railway:ref": "ASHS", "railway:station_category": "4", "station": "light_rail", "train": "yes", "uic_name": "Hamburg Stadthausbrücke", "uic_ref": "8005663", "wheelchair": "yes", "wheelchair:description": "This entrance has no elevator, but the one on the other end of the platform does. The other entrance is at street Herrengraben.", "wikidata": "Q2805292"}}, {"type": "node", "id": 976776639, "lat": 53.6550342, "lon": 9.7976864, "tags": {"hvv:psv_type": "R;S", "light_rail": "yes", "name": "Pinneberg", "network": "HVV", "operator": "DB Netz AG", "platforms": "2", "public_transport": "station", "railway": "station", "railway:ref": "AP", "railway:station_category": "3", "station": "light_rail", "train": "yes", "uic_name": "Pinneberg", "uic_ref": "8004819", "website": "https://www.bahnhof.de/pinneberg", "wheelchair": "yes", "wikidata": "Q801317", "wikipedia": "de:Bahnhof Pinneberg"}}, {"type": "node", "id": 1680910488, "lat": 53.5531993, "lon": 10.0064364, "tags": {"hvv:psv_type": "R;S", "level": "-1", "light_rail": "yes", "name": "Hamburg Hauptbahnhof", "name:de": "Hamburg Hauptbahnhof", "name:el": "Κεντρικός σταθμός Αμβούργου", "name:en": "Hamburg Central Station", "name:es": "Estación central de Hamburgo", "name:fr": "Gare centrale de Hambourg", "name:it": "Stazione centrale di Amburgo", "name:ja": "ハンブルク中央駅", "name:nl": "Hamburg Centraal Station", "official_name": "Hamburg Hbf", "operator": "DB Station&Service AG", "public_transport": "station", "railway": "station", "railway:ref": "AH", "railway:station_category": "1", "ref:station": "2514", "short_name": "Hamburg Hbf", "station": "light_rail", "toilets:wheelchair": "yes", "train": "yes", "uic_name": "Hamburg Hbf", "uic_ref": "8002549", "url": "https://www.bahnhof.de/hamburg-hbf", "wheelchair": "yes", "wikidata": "Q6456", "wikipedia": "de:Hamburg Hauptbahnhof"}}, {"type": "node", "id": 1894315329, "lat": 53.5206983, "lon": 10.2781374, "tags": {"hvv:psv_type": "S", "light_rail": "yes", "name": "Wohltorf", "network": "HVV", "operator": "DB Netz AG", "public_transport": "station", "railway": "station", "railway:ref": "AWLF", "railway:station_category": "5", "station": "light_rail", "uic_ref": "8006541", "wheelchair": "yes", "wikidata": "Q19590358"}}, {"type": "node", "id": 2459919677, "lat": 53.5526959, "lon": 10.0075644, "tags": {"departures_board": "realtime", "departures_board:speech_output": "no", "level": "-1", "light_rail": "yes", "name": "Hamburg Hauptbahnhof", "network": "Hamburger Verkehrsverbund", "network:short": "HVV", "network:wikidata": "Q896916", "note": "Der Bahnhof der S-Bahn ist eine separate Betriebsstelle und daher ein separater Bahnhofs-Node!", "official_name": "Hamburg Hbf (S-Bahn)", "operator": "S-Bahn Hamburg GmbH", "public_transport": "station", "public_transport:station:part": "yes", "railway": "station", "railway:ref": "AHS", "railway:station:part": "yes", "railway:station_category": "1", "ref:IFOPT": "de:02000:10950", "ref:station": "2514", "short_name": "Hamburg Hbf", "station": "light_rail", "toilets:wheelchair": "yes", "train": "yes", "uic_name": "Hamburg Hbf (S-Bahn)", "uic_ref": "8098549", "website": "https://www.bahnhof.de/hamburg-hbf", "wheelchair": "yes", "wikidata": "Q6456", "wikipedia": "de:Hamburg Hauptbahnhof"}}, {"type": "node", "id": 2470903095, "lat": 53.5527185, "lon": 10.0249771, "tags": {"departures_board": "realtime", "departures_board:speech_output": "no", "hvv:psv_type": "S", "light_rail": "yes", "name": "Berliner Tor", "network": "HVV", "official_name": "Hamburg Berliner Tor", "operator": "DB Netz AG", "public_transport": "station", "railway": "station", "railway:ref": "ABTS", "railway:station_category": "3", "station": "light_rail", "wheelchair": "no"}}, {"type": "node", "id": 3068973927, "lat": 53.5611691, "lon": 10.0378965, "tags": {"departures_board": "realtime", "departures_board:speech_output": "no", "hvv:psv_type": "S", "light_rail": "yes", "name": "Landwehr", "network": "HVV", "official_name": "Hamburg Landwehr", "operator": "S-Bahn Hamburg GmbH", "public_transport": "station", "railway": "station", "railway:ref": "ALAN", "railway:station_category": "4", "station": "light_rail", "uic_name": "Hamburg Landwehr", "uic_ref": "8003519", "wheelchair": "yes", "wikidata": "Q16220800"}}, {"type": "node", "id": 3070913592, "lat": 53.6521774, "lon": 10.0940214, "tags": {"hvv:barrier_free": "no", "hvv:psv_type": "S", "light_rail": "yes", "name": "Poppenbüttel", "network": "HVV", "official_name": "Hamburg-Poppenbüttel", "operator": "DB Netz AG", "public_transport": "station", "railway": "station", "railway:ref": "APB", "railway:station_category": "5", "station": "light_rail", "uic_name": "Poppenbüttel", "uic_ref": "8004862", "wheelchair": "yes", "wikidata": "Q7229516", "wikipedia": "de:Bahnhof Hamburg-Poppenbüttel"}}, {"type": "node", "id": 3129651718, "lat": 53.5638296, "lon": 9.9677995, "tags": {"departures_board": "realtime", "departures_board:speech_output": "no", "hvv:barrier_free": "yes", "hvv:psv_type": "S", "light_rail": "yes", "name": "Sternschanze (Messe)", "network": "Hamburger Verkehrsverbund", "official_name": "Hamburg Sternschanze (S-Bahn)", "operator": "DB Netz AG", "public_transport": "station", "railway": "station", "railway:ref": "ASST", "railway:station_category": "3", "station": "light_rail", "uic_name": "Hamburg Sternschanze", "uic_ref": "8070146", "wheelchair": "yes", "wheelchair:description": "Aufzug nur zum S-Bahnsteig vorhanden", "wikidata": "Q321523", "wikipedia": "de:Bahnhof Hamburg Sternschanze"}}, {"type": "node", "id": 3135325888, "lat": 53.4740715, "lon": 9.8524866, "tags": {"hvv:psv_type": "S", "light_rail": "yes", "name": "Neugraben", "network": "HVV", "official_name": "Hamburg-Neugraben (S-Bahn)", "operator": "DB Netz AG;DB Station&Service AG", "public_transport": "station", "railway": "station", "railway:ref": "ANRS", "railway:station_category": "3", "ref:station": "2520", "station": "light_rail", "uic_name": "Hamburg-Neugraben", "uic_ref": "8002557", "wheelchair": "yes"}}, {"type": "node", "id": 3137287937, "lat": 53.529955, "lon": 10.3144857, "tags": {"hvv:psv_type": "S;R", "light_rail": "yes", "name": "Aumühle", "network": "HVV", "operator": "DB Netz AG", "public_transport": "station", "railway": "station", "railway:ref": "AAH", "railway:station_category": "4", "station": "light_rail", "uic_ref": "8000669", "wheelchair": "yes", "wikidata": "Q18619162", "wikipedia": "de:Bahnhof Aumühle"}}, {"type": "node", "id": 3183841635, "lat": 53.5538295, "lon": 9.9351453, "tags": {"hvv:psv_type": "R", "light_rail": "yes", "name": "Hamburg-Altona", "network": "HVV", "operator": "DB Netz AG;DB Station&Service AG", "public_transport": "station", "railway": "station", "railway:ref": "AA", "railway:station_category": "1", "station": "light_rail", "uic_name": "Hamburg-Altona", "uic_ref": "8002553", "url": "https://www.bahnhof.de/hamburg-altona", "wheelchair": "yes", "wikidata": "Q650270", "wikipedia": "de:Bahnhof Hamburg-Altona"}}, {"type": "node", "id": 3357946758, "lat": 53.5521527, "lon": 9.9345653, "tags": {"departures_board": "realtime", "departures_board:speech_output": "no", "hvv:barrier_free": "yes", "hvv:psv_type": "S", "light_rail": "yes", "name": "Hamburg-Altona", "network": "HVV", "official_name": "Hamburg-Altona (S-Bahn)", "operator": "DB Netz AG", "public_transport": "station", "railway": "station", "railway:ref": "AAS", "railway:station_category": "1", "short_name": "Altona", "station": "light_rail", "uic_name": "Hamburg-Altona(S)", "uic_ref": "8098553", "wheelchair": "limited", "wikidata": "Q650270", "wikipedia": "de:Bahnhof Hamburg-Altona"}}, {"type": "node", "id": 3372056972, "lat": 53.5980571, "lon": 10.0353635, "tags": {"departures_board": "realtime", "departures_board:speech_output": "no", "hvv:barrier_free": "no", "hvv:psv_type": "S", "light_rail": "yes", "name": "Alte Wöhr (Stadtpark)", "official_name": "Hamburg Alte Wöhr", "operator": "DB Netz AG;DB Station&Service AG", "public_transport": "station", "railway": "station", "railway:ref": "AAW", "railway:station_category": "5", "ref:station": "78", "station": "light_rail", "uic_name": "Alte Wöhr (Stadtpark)", "uic_ref": "8000512", "wheelchair": "yes", "wikidata": "Q19460179"}}, {"type": "node", "id": 3372056975, "lat": 53.6205472, "lon": 10.0317659, "tags": {"departures_board": "realtime", "departures_board:speech_output": "no", "hvv:barrier_free": "no", "hvv:psv_type": "S", "light_rail": "yes", "name": "Ohlsdorf", "network": "HVV", "official_name": "Hamburg-Ohlsdorf (S-Bahn)", "operator": "DB Netz AG", "public_transport": "station", "railway": "station", "railway:ref": "AOPS", "railway:station_category": "4", "station": "light_rail", "uic_name": "Ohlsdorf", "uic_ref": "8004661", "wheelchair": "yes", "wikidata": "Q800876", "wikipedia": "de:Bahnhof Hamburg-Ohlsdorf"}}, {"type": "node", "id": 3372145519, "lat": 53.5581648, "lon": 9.8608825, "tags": {"check_date:wheelchair": "2023-12-26", "hvv:psv_type": "S", "light_rail": "yes", "name": "Klein Flottbek (Botanischer Garten)", "network": "HVV", "official_name": "Hamburg-Klein Flottbek", "operator": "DB Netz AG", "public_transport": "station", "railway": "station", "railway:ref": "AFB", "railway:station_category": "4", "station": "light_rail", "uic_name": "Klein Flottbek", "uic_ref": "8003312", "wheelchair": "yes", "wikidata": "Q6420149", "wikipedia": "de:Bahnhof Hamburg-Klein Flottbek"}}, {"type": "node", "id": 3372147544, "lat": 53.5811262, "lon": 9.7974217, "tags": {"hvv:barrier_free": "yes", "hvv:psv_type": "S", "light_rail": "yes", "name": "Sülldorf", "network": "HVV", "official_name": "Hamburg-Sülldorf", "operator": "DB Netz AG", "public_transport": "station", "railway": "station", "railway:ref": "ASDF", "railway:station_category": "5", "station": "light_rail", "uic_name": "Sülldorf", "uic_ref": "8005785", "wheelchair": "yes", "wikidata": "Q16220573"}}, {"type": "node", "id": 3372168828, "lat": 53.4984734, "lon": 10.0068586, "tags": {"hvv:barrier_free": "yes", "hvv:psv_type": "S", "light_rail": "yes", "name": "Wilhelmsburg", "official_name": "Hamburg-Wilhelmsburg (S-Bahn)", "operator": "DB Netz AG", "public_transport": "station", "railway": "station", "railway:ref": "AWFS", "railway:station_category": "4", "station": "light_rail", "uic_name": "Hamburg-Wilhelmsburg", "uic_ref": "8002561", "website": "https://www.bahnhof.de/wilhelmsburg", "wheelchair": "yes", "wikidata": "Q800878", "wikimedia_commons": "Category:S-Bahnhof Wilhelmsburg", "wikipedia": "de:Bahnhof Hamburg-Wilhelmsburg"}}, {"type": "node", "id": 3707303127, "lat": 53.4607292, "lon": 9.9803507, "tags": {"hvv:barrier_free": "yes", "hvv:psv_type": "S", "layer": "-2", "light_rail": "yes", "name": "Harburg Rathaus", "name:zh": "哈爾堡政府站", "official_name": "Hamburg-Harburg Rathaus", "operator": "DB Netz AG", "public_transport": "station", "railway": "station", "railway:ref": "AHRF", "railway:station_category": "3", "start_date": "1983", "station": "light_rail", "uic_name": "Hamburg-Harburg Rathaus", "uic_ref": "8004267", "website": "https://www.bahnhof.de/harburg-rathaus", "wheelchair": "yes", "wikidata": "Q246179", "wikimedia_commons": "Category:S-Bahnhof Harburg Rathaus", "wikipedia": "de:Bahnhof Hamburg-Harburg Rathaus"}}, {"type": "node", "id": 4010276891, "lat": 53.4899751, "lon": 10.2063722, "tags": {"hvv:psv_type": "S", "light_rail": "yes", "name": "Bergedorf", "network": "Hamburger Verkehrsverbund", "network:short": "HVV", "network:wikidata": "Q896916", "operator": "S-Bahn Hamburg GmbH", "public_transport": "station", "railway": "station", "railway:ref": "ABG S", "railway:station_category": "3", "station": "light_rail", "train": "yes", "uic_ref": "8002554", "wheelchair": "yes", "wikidata": "Q320225", "wikipedia": "de:Bahnhof Hamburg-Bergedorf"}}, {"type": "node", "id": 4102358153, "lat": 53.5534288, "lon": 10.0230852, "tags": {"departures_board": "realtime", "departures_board:speech_output": "no", "hha_ref": "BT", "hvv:barrier_free": "yes", "hvv:psv_type": "U", "light_rail": "yes", "name": "Berliner Tor", "network": "Hamburger Verkehrsverbund", "operator": "Hamburger Hochbahn AG", "public_transport": "station", "railway": "station", "station": "subway", "subway": "yes", "wheelchair": "yes"}}, {"type": "node", "id": 4127523989, "lat": 53.5644641, "lon": 9.8152673, "tags": {"hvv:barrier_free": "dependent", "hvv:barrier_free_lines": "S1", "hvv:psv_type": "S", "light_rail": "yes", "name": "Blankenese", "network": "HVV", "official_name": "Hamburg-Blankenese", "operator": "DB Netz AG", "public_transport": "station", "railway": "station", "railway:ref": "AB", "railway:station_category": "3", "station": "light_rail", "uic_name": "Blankenese", "uic_ref": "8001007", "wheelchair": "yes", "wikidata": "Q800871", "wikipedia": "de:Bahnhof Hamburg-Blankenese"}}, {"type": "node", "id": 4128824965, "lat": 53.5646689, "lon": 10.0556724, "tags": {"departures_board": "realtime", "departures_board:speech_output": "no", "hvv:psv_type": "S", "light_rail": "yes", "name": "Hasselbrook", "network": "HVV", "official_name": "Hamburg Hasselbrook (S-Bahn)", "operator": "S-Bahn Hamburg GmbH", "public_transport": "station", "railway": "station", "railway:ref": "AHSB", "railway:station_category": "3", "station": "light_rail", "uic_name": "Hamburg Hasselbrook", "uic_ref": "8002628", "wheelchair": "yes", "wikidata": "Q800891", "wikipedia": "de:Bahnhof Hasselbrook"}}, {"type": "node", "id": 4129931556, "lat": 53.6326466, "lon": 10.0066778, "tags": {"hvv:psv_type": "S", "level": "-2", "light_rail": "yes", "name": "Hamburg Airport (Flughafen)", "network": "Hamburger Verkehrsverbund", "network:short": "HVV", "network:wikidata": "Q896916", "public_transport": "station", "railway": "station", "railway:ref": "AAI", "station": "light_rail", "train": "yes", "uic_ref": "8002547", "wheelchair": "yes"}}]}