{"version": 0.6, "generator": "Overpass API 0.7.62.1 084b4234", "osm3s": {"timestamp_osm_base": "2024-06-14T12:07:11Z", "copyright": "The data included in this document is from www.openstreetmap.org. The data is made available under ODbL."}, "elements": [{"type": "node", "id": 392491700, "lat": 53.586377, "lon": 10.045311, "tags": {"amenity": "marketplace", "check_date:opening_hours": "2023-09-25", "name": "Barmbeker Markt", "opening_hours": "Tu 13:00-18:00; Fr 14:00-18:00", "operator": "various", "wheelchair": "yes"}}, {"type": "node", "id": 428178744, "lat": 53.4897264, "lon": 10.1819599, "tags": {"amenity": "marketplace", "check_date:opening_hours": "2023-02-26", "name": "Wochenmarkt in Bergedorf-West", "opening_hours": "Th 08:00-13:00", "wheelchair": "yes"}}, {"type": "node", "id": 428178747, "lat": 53.4870296, "lon": 10.1807629, "tags": {"amenity": "marketplace"}}, {"type": "node", "id": 966478319, "lat": 53.5565202, "lon": 10.010496, "tags": {"amenity": "marketplace", "check_date:opening_hours": "2024-03-16", "name": "Wochenmarkt St. Georg", "opening_hours": "Th 09:00-13:30; PH off", "wheelchair": "yes"}}, {"type": "node", "id": 1091360072, "lat": 53.5515395, "lon": 9.9304108, "tags": {"amenity": "marketplace", "check_date": "2023-05-25", "check_date:opening_hours": "2024-05-25", "name": "Wochenmarkt Ottensen", "opening_hours": "Tu 08:00-14:00; We 12:00-18:30; Fr 08:00-18:30; Sa 09:30-15:00", "phone": "+49 40 428116068; +49 172 4328995; +49 40 428116070; +49 40 428116074", "website": "https://www.hamburg.de/wochenmarkt-altona/3875642/wochenmarkt-ottensen/", "wheelchair": "yes"}}, {"type": "node", "id": 1151008512, "lat": 53.7327072, "lon": 9.9037446, "tags": {"amenity": "marketplace", "name": "Wochenmarkt Quickborn", "opening_hours": "We,Sa 08:00-12:00", "wheelchair": "yes"}}, {"type": "node", "id": 1343921388, "lat": 53.6040144, "lon": 10.1548884, "tags": {"amenity": "marketplace", "check_date:opening_hours": "2022-07-02", "name": "Rahlstedter Markt", "opening_hours": "We,Sa 08:00-13:00", "operator": "Stadt Hamburg", "phone": "+49 173 2413616", "website": "https://www.hamburg.de/wochenmarkt-wandsbek/3961342/wochenmarkt-rahlstedter-bahnhofstrasse/"}}, {"type": "node", "id": 1420061015, "lat": 53.5170812, "lon": 9.9870127, "tags": {"amenity": "marketplace", "check_date:opening_hours": "2024-03-02", "name": "Stübenplatz", "opening_hours": "We,Sa 07:00-13:00", "wheelchair": "yes"}}, {"type": "node", "id": 1432027588, "lat": 53.5775969, "lon": 9.9430527, "tags": {"amenity": "marketplace", "check_date:opening_hours": "2023-05-01", "contact:phone": "+49 40 428013708", "contact:website": "https://www.hamburg.de/wochenmarkt-eimsbuettel/3888210/wochenmarkt-grundstrasse/", "name": "Wochenmarkt Grundstraße", "opening_hours": "Sa 08:30-13:00", "wheelchair": "yes"}}, {"type": "node", "id": 1482101384, "lat": 53.5489616, "lon": 10.0018523, "tags": {"amenity": "marketplace", "check_date:opening_hours": "2023-01-01", "name": "Burchardplatz", "opening_hours": "Tu 06:00-17:00; Th 06:00-16:00", "wheelchair": "yes"}}, {"type": "node", "id": 1489167148, "lat": 53.6513362, "lon": 9.8289884, "tags": {"amenity": "marketplace", "name": "Marktplatz", "opening_hours": "Mo-Sa 09:00-18:00"}}, {"type": "node", "id": 1532756852, "lat": 53.6736458, "lon": 10.2370289, "tags": {"amenity": "marketplace", "check_date:opening_hours": "2024-03-31", "name": "Ahrensburger Wochenmarkt", "opening_hours": "We 07:00-13:00; Sa 07:00-13:00", "operator": "Stadt Ahrensburg", "wheelchair": "yes"}}, {"type": "node", "id": 1532756856, "lat": 53.7285251, "lon": 10.2610691, "tags": {"amenity": "marketplace", "name": "Bargteheider Wochenmarkt", "opening_hours": "Fr 13:00-18:00"}}, {"type": "node", "id": 1532756861, "lat": 53.6781331, "lon": 10.1468328, "tags": {"amenity": "marketplace", "name": "Hoisbüttler Wochenmarkt", "opening_hours": "Fr 14:00+"}}, {"type": "node", "id": 1532756869, "lat": 53.6514789, "lon": 10.1622884, "tags": {"amenity": "marketplace", "check_date:opening_hours": "2022-12-07", "name": "Volksdorfer Wochenmarkt", "opening_hours": "We 08:00-13:00; Sa 08:00-13:00; PH off", "website": "http://www.volksdorfer-wochenmarkt.de/"}}, {"type": "node", "id": 1547008325, "lat": 53.6002329, "lon": 9.8363775, "tags": {"amenity": "marketplace", "opening_hours": "\"mittwochs\""}}, {"type": "node", "id": 1622113968, "lat": 53.5412905, "lon": 10.2135908, "tags": {"amenity": "marketplace", "name": "Glinder Markt", "opening_hours": "We,Sa", "source": "survey"}}, {"type": "node", "id": 1640829332, "lat": 53.5669653, "lon": 10.1639463, "tags": {"amenity": "marketplace", "name": "Wochmarkt Barsbüttel (Di & Fr)"}}, {"type": "node", "id": 1885154639, "lat": 53.6045371, "lon": 10.1187452, "tags": {"amenity": "marketplace", "name": "Wochenmarkt Farmsen-Berne", "opening_hours": "Th 14:00-18:00"}}, {"type": "node", "id": 1941875669, "lat": 53.6008386, "lon": 9.8377874, "tags": {"amenity": "marketplace", "name": "Öko-Wochenmarkt", "opening_hours": "Tu 14:00-18:00", "wheelchair": "yes"}}, {"type": "node", "id": 2028519843, "lat": 53.6319738, "lon": 9.9185089, "tags": {"amenity": "marketplace", "name": "Wochenmarkt", "opening_hours": "Tu,Fr 08:30-13:00"}}, {"type": "node", "id": 2275820654, "lat": 53.4956668, "lon": 10.2072096, "tags": {"amenity": "marketplace", "check_date:opening_hours": "2023-03-06", "name": "Lohbrügger Markt", "opening_hours": "We,Sa 08:00-13:00", "url": "http://www.wochenmarkt-bergedorf.de/"}}, {"type": "node", "id": 2360030866, "lat": 53.5093261, "lon": 10.2502115, "tags": {"amenity": "marketplace"}}, {"type": "node", "id": 2426416288, "lat": 53.6127756, "lon": 10.0248089, "tags": {"amenity": "marketplace", "check_date:opening_hours": "2022-05-22", "name": "Alsterdorfer Wochenmarkt", "opening_hours": "Fr 10:00-18:00", "website": "http://www.alsterdorfer-markt.de/anbieter-einkaufen-wochenmarkt.html", "wheelchair": "yes"}}, {"type": "node", "id": 2465070411, "lat": 53.6257244, "lon": 10.1397121, "tags": {"alt_name": "Markt Berne", "amenity": "marketplace", "name": "Berner Markt", "opening_hours": "Tu 08:30-13:00; Fr 08:30-18:00", "organic": "yes", "website": "https://www.berner-wochenmarkt.de/"}}, {"type": "node", "id": 2498874365, "lat": 53.5453838, "lon": 10.0240431, "tags": {"amenity": "marketplace", "check_date:opening_hours": "2021-09-29", "name": "Wochenmarkt Sachsenfeld", "opening_hours": "Mo 10:00-14:30; We 10:00-14:30", "ref:street": "Sachsenfeld"}}, {"type": "node", "id": 2498915733, "lat": 53.5686643, "lon": 9.9705744, "tags": {"amenity": "marketplace", "check_date:opening_hours": "2024-02-17", "name": "Wochenmarkt Gustav-Falke-Straße", "opening_hours": "Mo 08:30-14:00; Th 08:30-14:00", "ref:street": "Gustav-Falke-Straße", "wheelchair": "yes"}}, {"type": "node", "id": 2502009295, "lat": 53.5816022, "lon": 10.0626857, "tags": {"amenity": "marketplace", "check_date:opening_hours": "2023-07-26", "name": "Wochenmarkt Straßburger Platz", "opening_hours": "We 08:30-13:00; Fr 14:00-18:00", "wheelchair": "yes"}}, {"type": "node", "id": 2541585592, "lat": 53.6949871, "lon": 10.1386115, "tags": {"amenity": "marketplace", "name": "Ohlstedter Wochenmarkt", "opening_hours": "Tu, Fr 08:00-13:00"}}, {"type": "node", "id": 2576268707, "lat": 53.64974, "lon": 10.0156351, "tags": {"amenity": "marketplace", "check_date:opening_hours": "2021-11-12", "contact:phone": "+49 40 42804 6265", "contact:website": "https://www.hamburg.de/wochenmaerkte-hamburg-nord/3905114/wochenmarkt-langenhorner-markt/", "name": "Wochenmarkt Langenhorner Markt", "opening_hours": "Tu 11:30-18:00, Sa 08:30-13:00", "operator": "Stadt Hamburg / Herr Pfadenhauer", "wheelchair": "yes"}}, {"type": "node", "id": 2786084530, "lat": 53.4895422, "lon": 10.1585283, "tags": {"amenity": "marketplace", "check_date:opening_hours": "2023-09-03", "name": "Wochenmarkt Fleetplatz", "opening_hours": "Sa 08:00-13:00", "website": "http://www.wochenmarkt-bergedorf.de/standorte/", "wheelchair": "yes"}}, {"type": "node", "id": 4168316104, "lat": 53.6343174, "lon": 9.8411614, "tags": {"amenity": "marketplace", "check_date:opening_hours": "2023-08-26", "name": "Halstenbeker Wochenmarkt", "opening_hours": "Fr 07:30-12:30", "operator": "Gemeinde", "website": "https://www.halstenbek.de/kultur-freizeit/rund-um-halstenbek/wochenmarkt/", "wheelchair": "yes"}}, {"type": "node", "id": 4235224704, "lat": 53.5709542, "lon": 9.9903658, "tags": {"amenity": "marketplace", "name": "Wochenmarkt Turmweg", "opening_hours": "Th 08:30-14:00", "website": "https://www.hamburg.de/wochenmarkt-eimsbuettel/3888290/wochenmarkt-turmweg/", "wheelchair": "yes"}}, {"type": "node", "id": 4235224705, "lat": 53.584934, "lon": 10.0113066, "tags": {"amenity": "marketplace", "check_date:opening_hours": "2024-02-29", "name": "Goldbek Wochenmarkt", "opening_hours": "Tu 08:30-13:00; Th 08:30-13:00; Sa 08:30-13:00", "website": "https://www.hamburg.de/wochenmaerkte-hamburg-nord/3904680/wochenmarkt-goldbekufer/", "wheelchair": "yes"}}, {"type": "node", "id": 4521153897, "lat": 53.5394989, "lon": 10.1061293, "tags": {"amenity": "marketplace", "check_date:opening_hours": "2023-08-25", "contact:website": "https://www.hamburg.de/wochenmarkt-mitte/6251954/wochenmarkt-moellner-landstrasse/", "name": "Wochenmarkt Billstedt", "opening_hours": "Tu 09:00-13:00; Fr 09:00-18:00"}}, {"type": "node", "id": 4935703065, "lat": 53.4677216, "lon": 9.7919468, "tags": {"amenity": "marketplace", "name": "Wochenmarkt Neu Wulmstorf", "opening_hours": "We 08:00-13:00, Fr 08:00-18:00", "website": "https://www.neu-wulmstorf.de/portal/meldungen/wochenmarkt-913001193-20160.html"}}, {"type": "node", "id": 5083187310, "lat": 53.6071504, "lon": 9.9033947, "tags": {"amenity": "marketplace", "check_date:opening_hours": "2024-03-18", "name": "Wochenmarkt Eidelstedt", "opening_hours": "We 08:30-13:00; Fr 08:30-16:00; Sa 08:30-13:00", "wheelchair": "yes"}}, {"type": "node", "id": 5280198857, "lat": 53.626447, "lon": 10.0228461, "tags": {"amenity": "marketplace", "name": "Wochenmarkt Ratsmühlendamm", "opening_hours": "We,Fr 08:30-13:00", "wheelchair": "yes"}}, {"type": "node", "id": 5980149681, "lat": 53.5487254, "lon": 10.2469983, "tags": {"addr:city": "Reinbek", "addr:postcode": "21465", "addr:street": "Querweg", "amenity": "marketplace", "name": "Kö-Markt", "opening_hours": "Th 08:00-13:00; PH off"}}, {"type": "node", "id": 6185594474, "lat": 53.4885785, "lon": 10.2153515, "tags": {"amenity": "marketplace", "check_date:opening_hours": "2024-01-01", "name": "Wochenmarkt", "opening_hours": "Tu 08:00-13:00; Fr 08:00-16:00", "website": "http://www.wochenmarkt-bergedorf.de/"}}, {"type": "node", "id": 6185599227, "lat": 53.4891172, "lon": 10.2073149, "tags": {"amenity": "marketplace", "check_date:opening_hours": "2024-04-14", "name": "Bio-Wochenmarkt", "opening_hours": "Th 11:00-19:00", "website": "http://www.wochenmarkt-bergedorf.de/", "wheelchair": "yes"}}, {"type": "node", "id": 6219470414, "lat": 53.5905012, "lon": 9.986726, "tags": {"alt_name": "Wochenmarkt Marie-Jonas-Platz", "amenity": "marketplace", "check_date:opening_hours": "2022-01-23", "name": "Öko-Wochenmarkt und Regionales in Eppendorf", "opening_hours": "Tu 11:00-18:30; Th 11:00-18:30; Sa 10:00-15:00", "organic": "only", "website": "https://www.hamburg.de/wochenmaerkte-hamburg-nord/3905240/wochenmarkt-marie-jonas-platz/", "wheelchair": "yes"}}, {"type": "node", "id": 6321838069, "lat": 53.5432879, "lon": 10.0078011, "tags": {"amenity": "marketplace", "building": "yes", "name": "Hobenköök", "opening_hours": "Tu-Sa 09:00-19:00"}}, {"type": "node", "id": 6659833195, "lat": 53.5516274, "lon": 9.9388183, "tags": {"amenity": "marketplace", "check_date:opening_hours": "2022-11-02", "name": "Wochenmarkt Altona", "opening_hours": "We,Sa 08:00-14:00", "website": "https://www.hamburg.de/wochenmarkt-altona/3875638/wochenmarkt-altona/"}}, {"type": "node", "id": 6727732731, "lat": 53.576328, "lon": 10.0410135, "tags": {"amenity": "marketplace", "check_date:opening_hours": "2023-04-28", "name": "Wochenmarkt Vogelweide", "opening_hours": "Fr 12:00-18:00", "website": "https://www.hamburg.de/wochenmaerkte-hamburg-nord/3905190/wochemarkt-vogelweide/"}}, {"type": "node", "id": 7040839596, "lat": 53.4598003, "lon": 9.9801761, "tags": {"amenity": "marketplace", "name": "Bio-Wochenmarkt und Regionales Harburg", "opening_hours": "We 15:00-18:00", "organic": "only", "phone": "+49 40 67384181", "website": "https://www.hamburg.de/wochenmarkt-harburg/13297546/bio-wochenmarkt-harburg/", "wheelchair": "yes"}}, {"type": "node", "id": 7040839597, "lat": 53.4615535, "lon": 9.9799807, "tags": {"amenity": "marketplace", "check_date:opening_hours": "2023-11-06", "name": "Harburger Wochenmarkt Sand / Schloßmühlendamm", "opening_hours": "Mo-Sa 08:00-13:30", "phone": "+49 40 42871-2225", "website": "https://www.hamburg.de/wochenmarkt-harburg/4461032/wochenmarkt-harburg-sand/", "wheelchair": "yes"}}, {"type": "node", "id": 7170288174, "lat": 53.6015139, "lon": 10.0405145, "tags": {"amenity": "marketplace", "check_date:opening_hours": "2024-02-06", "name": "Wochenmarkt Hartzloh", "opening_hours": "Tu 08:30-13:00; Th 08:30-13:00; Sa 08:30-13:00"}}, {"type": "node", "id": 7204713782, "lat": 53.5339167, "lon": 10.0393329, "tags": {"amenity": "marketplace", "check_date:opening_hours": "2024-05-11", "name": "Rothenburgsorter Marktplatz", "opening_hours": "We,Sa 08:00-13:00"}}, {"type": "node", "id": 7837422180, "lat": 53.5611623, "lon": 9.8121763, "tags": {"amenity": "marketplace", "name": "Wochenmarkt Blankenese", "opening_hours": "Tu 7:30-14:00; We 8:30-13:00 \"Bio\"; Fr 7:30-18:00; Sa 7:30-13:30", "operator": "Marktgemeinschaft Blankenese e.V.", "website": "http://blankeneser-wochenmarkt.net/home/home.html"}}, {"type": "node", "id": 8325510582, "lat": 53.4979054, "lon": 10.0106531, "tags": {"amenity": "marketplace", "check_date:opening_hours": "2023-11-25", "name": "Wochenmarkt Berta-Kröger-Platz", "opening_hours": "Tu 08:00-13:00, Fr 08:30-17:30"}}, {"type": "node", "id": 8422688440, "lat": 53.5495424, "lon": 9.9645205, "tags": {"addr:postcode": "20359", "amenity": "marketplace", "contact:website": "https://spielbudenplatz.eu/erleben/events/st-pauli-nachtmarkt", "name": "St. Pauli Nachtmarkt", "opening_hours": "We 16:00-22:00", "organic": "yes", "wheelchair": "yes"}}, {"type": "node", "id": 8454136322, "lat": 53.5504647, "lon": 9.9800118, "tags": {"amenity": "marketplace", "name": "Wochenmarkt Großneumarkt", "opening_hours": "We, Sa 08:30-13:30", "wheelchair": "yes"}}, {"type": "node", "id": 10112426018, "lat": 53.3971622, "lon": 10.0420265, "tags": {"addr:street": "Schulstraße", "amenity": "marketplace", "name": "Maschener Wochenmarkt", "opening_hours": "Th 07:00-13:00", "website": "https://hgv-maschen.de/Was-wir-machen/Wochenmarkt/index.php/"}}, {"type": "node", "id": 10154790262, "lat": 53.5948277, "lon": 9.9993739, "tags": {"addr:city": "Hamburg", "addr:postcode": "22299", "addr:street": "Winterhuder Marktplatz", "amenity": "marketplace", "description": "Mittwochs und samstags findet ein regulärer Markt statt, freitags gibt es einen Bio -Wochenmarkt. Die verschiedenen Stände bieten unter anderem Obst und Gemüse, Backwaren, Wurstwaren, Käse, Fisch und Blumen an. Samstags ist der Markt erfahrungsgemäß etwas", "name": "Wochenmarkt Winterhuder Marktplatz", "opening_hours": "We 11:00-18:00; Fr 14:30-18:30; Sa 08:00-13:00", "website": "https://www.hamburg.de/wochenmaerkte-hamburg-nord/3905266/wochenmarkt-winterhuder-marktplatz/", "wheelchair": "limited"}}, {"type": "node", "id": 10223984351, "lat": 53.5535384, "lon": 10.2435862, "tags": {"amenity": "marketplace", "check_date:opening_hours": "2023-10-26", "name:signed": "no", "opening_hours": "Fr 05:00-16:00"}}, {"type": "node", "id": 10994230215, "lat": 53.6207006, "lon": 9.9531157, "tags": {"amenity": "marketplace", "name": "Wochenmarkt Tibarg", "opening_hours": "Th,Sa 08:30-13:30; Fr 09:00-12:30; PH off"}}, {"type": "node", "id": 11047718447, "lat": 53.4699031, "lon": 9.8521244, "tags": {"amenity": "marketplace", "name": "Neugrabener Wochenmarkt", "opening_hours": "Tu-Sa 07:00-13:00; We off; Fr off"}}, {"type": "node", "id": 11180671541, "lat": 53.5741773, "lon": 9.8935468, "tags": {"amenity": "marketplace", "name": "Flohmarkt Bahrenfeld", "opening_hours": "Mo,We,Sa 06:00-16:00", "wheelchair": "limited"}}, {"type": "node", "id": 11934942325, "lat": 53.6410541, "lon": 10.0810628, "tags": {"amenity": "marketplace", "name": "Wellingsbüttler Markt", "opening_hours": "Tu,Fr 08:00-13:00"}}]}