{"version": 0.6, "generator": "Overpass API 0.7.62.1 084b4234", "osm3s": {"timestamp_osm_base": "2024-06-14T12:07:11Z", "copyright": "The data included in this document is from www.openstreetmap.org. The data is made available under ODbL."}, "elements": [{"type": "node", "id": 266623670, "lat": 53.5905021, "lon": 9.8556434, "tags": {"addr:city": "Hamburg", "addr:country": "DE", "addr:housenumber": "70a", "addr:postcode": "22549", "addr:street": "Glückstädter Weg", "alt_name": "HdJ Osdorf", "amenity": "community_centre", "community_centre": "youth_centre", "community_centre:for": "child;juvenile", "name": "Haus der Jugend Osdorfer Born", "opening_hours": "Mo-Fr 13:00-21:00", "operator": "Bezirksamt Altona", "operator:type": "public", "website": "https://sozialraum-altona.de/einrichtung/haus-der-jugend-osdorfer-born/"}}, {"type": "node", "id": 362472581, "lat": 53.587521, "lon": 10.0698685, "tags": {"amenity": "community_centre", "name": "Kulturhof Dulsberg", "opening_hours": "\"je nach Veranstaltungen\""}}, {"type": "node", "id": 365346574, "lat": 53.515739, "lon": 9.9876807, "tags": {"amenity": "community_centre", "check_date:opening_hours": "2024-05-23", "community_centre": "community_hall", "contact:email": "treffpunkt-wilhelmsburg@sozialkontor.de", "contact:phone": "+49 40 18076266", "contact:website": "https://www.sozialkontor.de/angebote/treffpunkte/einrichtung/treffpunkt-wilhelmsburg/", "name": "Treffpunkt Wilhelmsburg", "opening_hours": "Mo 12:00-14:00; Fr 09:00-11:00", "operator": "BHH Sozialkontor gGmbH", "wheelchair": "no"}}, {"type": "node", "id": 369949254, "lat": 53.5310712, "lon": 10.1480763, "tags": {"addr:city": "Hamburg", "addr:country": "DE", "addr:housenumber": "8", "addr:postcode": "22115", "addr:street": "Kirchnerweg", "alt_name": "HdJ Mümmelmannsberg", "amenity": "community_centre", "community_centre": "youth_centre", "community_centre:for": "child;juvenile", "name": "Haus der Jugend Mümmelmannsberg", "operator": "Bezirksamt Hamburg-Mitte"}}, {"type": "node", "id": 369953001, "lat": 53.5421651, "lon": 10.1105657, "tags": {"addr:city": "Hamburg", "addr:country": "DE", "addr:housenumber": "30a", "addr:postcode": "22119", "addr:street": "Öjendorfer Weg", "amenity": "community_centre", "contact:phone": "+49 40 82245680", "contact:website": "https://www.kph-hamburg.de/index.php", "name": "Kulturpalast im Wasserwerk e.V", "wheelchair": "yes"}}, {"type": "node", "id": 369994531, "lat": 53.6110707, "lon": 10.077889, "tags": {"addr:city": "Hamburg", "addr:country": "DE", "addr:housenumber": "16", "addr:street": "Herthastraße", "alt_name": "HdJ Herthastraße", "amenity": "community_centre", "community_centre:for": "child;juvenile", "name": "Haus der Jugend Bramfeld", "operator": "Bezirksamt Wandsbek", "toilets:wheelchair": "no", "wheelchair": "limited"}}, {"type": "node", "id": 370537905, "lat": 53.5467422, "lon": 9.9721953, "tags": {"amenity": "community_centre", "community_centre:for": "child;juvenile", "name": "Jugend- und Kulturzentrum am Stintfang", "old_name": "Haus der Jugend Stintfang", "opening_hours": "Mo 12:00-19:00; Tu-We 12:00-18:00; Th 12:00-19:00; Fr 12:00-20:30; Sa off; Su 13:00-17:00", "operator": "Jugend und Kulturzentrum Neustadt e. V.", "short_name": "JUKZ", "website": "http://www.jukz.de/"}}, {"type": "node", "id": 370541052, "lat": 53.614398, "lon": 10.0576138, "tags": {"addr:city": "Hamburg", "addr:country": "DE", "addr:housenumber": "43", "addr:postcode": "22309", "addr:street": "Gropiusring", "alt_name": "HdJ Steilshoop", "amenity": "community_centre", "community_centre": "youth_centre", "community_centre:for": "child;juvenile", "fixme": "Lokalisierung im Gebäude", "name": "Haus der Jugend Steilshoop", "operator": "Bezirksamt Wandsbek", "operator:type": "public", "website": "http://www.hdj-steilshoop.de"}}, {"type": "node", "id": 370542254, "lat": 53.5646169, "lon": 9.9149965, "tags": {"addr:city": "Hamburg", "addr:housenumber": "39", "addr:postcode": "22761", "addr:street": "Bahrenfelder Chaussee", "alt_name": "Jugendzentrum Bahrenfeld", "amenity": "community_centre", "community_centre:for": "juvenile", "loc_name": "JuBa", "name": "Jugend- und Freizeitzentrum Bahrenfeld", "opening_hours": "Mo 14:00-18:30; Tu 14:30-18:30; We 14:00-20:00; Th 14:30-18:00; Fr 14:00-19:00", "operator": "Arbeiter-Samariter-Bund Landesverband Hamburg e.V.", "website": "https://www.asb-hamburg.de/unsere-angebote/kinder-und-jugend/jugendeinrichtungen/juba-bahrenfeld/", "wheelchair": "limited"}}, {"type": "node", "id": 372597033, "lat": 53.5611485, "lon": 10.1068788, "tags": {"addr:housenumber": "5", "addr:postcode": "22119", "addr:street": "Dannerallee", "amenity": "community_centre", "name": "Bürgerhaus Horner Geest", "opening_hours": "Mo,Tu,Th 10:00-13:00; We 13:00-17:00", "website": "http://bürgertreff-dannerallee.de/"}}, {"type": "node", "id": 372598273, "lat": 53.5612434, "lon": 10.1070698, "tags": {"addr:housenumber": "5", "addr:postcode": "22119", "addr:street": "Dannerallee", "amenity": "community_centre", "community_centre:for": "child", "name": "Spielhaus Horner Geest"}}, {"type": "node", "id": 378695564, "lat": 53.5547155, "lon": 9.9505641, "tags": {"addr:city": "Hamburg", "addr:country": "DE", "addr:housenumber": "3", "addr:postcode": "22767", "addr:street": "Govertsweg", "alt_name": "JUCA Altstadt", "amenity": "community_centre", "community_centre:for": "juvenile", "name": "Jugendcafé Altona Altstadt", "opening_hours": "Mo 14:00-15:00; Tu 16:00-18:30,18:30-20:00; We 14:00-15:30; Th 16:00-20:00; Fr 16:00-18:30", "operator": "movego Jugendhilfe", "phone": "+49 40 388697", "social_facility": "outreach", "social_facility:for": "juvenile", "website": "https://movegojugendhilfe.de/juca-altona-altstadt/"}}, {"type": "node", "id": 387796915, "lat": 53.6733637, "lon": 9.9929994, "tags": {"addr:city": "Hamburg", "addr:housenumber": "83", "addr:postcode": "22419", "addr:street": "Essener Straße", "alt_name": "Jugendclub Container", "amenity": "community_centre", "community_centre:for": "juvenile", "name": "Jugendclub Essener Straße", "opening_hours": "Mo,We,Fr 13:00-19:00; Tu,Th 13:00-20:00", "operator": "Bezirksamt Hamburg-Nord", "website": "https://www.jc-container.de/", "wheelchair": "yes"}}, {"type": "node", "id": 399616633, "lat": 53.6589801, "lon": 9.9951444, "tags": {"addr:city": "Hamburg", "addr:country": "DE", "addr:housenumber": "48", "addr:postcode": "22419", "addr:street": "Suckweg", "amenity": "community_centre", "community_centre:for": "juvenile", "name": "Kinder- und Jugendclub Suckweg", "operator": "Hamburger Kinder- und Jugendhilfe e.V.", "social_facility": "outreach", "social_facility:for": "child;juvenile", "website": "https://www.hakiju.de/jugendhilfezentrum/bezirk-nord/einrichtung/jugendclub-suckweg.html"}}, {"type": "node", "id": 507001931, "lat": 53.5403518, "lon": 10.2092531, "tags": {"addr:city": "Glinde", "addr:housenumber": "53", "addr:postcode": "21509", "addr:street": "Möllner Landstraße", "amenity": "community_centre", "name": "Gemeinschaftszentrum Sönke Nissen Park Stiftung", "website": "https://www.gutshaus-glinde.de/", "wheelchair": "no"}}, {"type": "node", "id": 642261832, "lat": 53.6197381, "lon": 9.9466206, "tags": {"amenity": "community_centre", "community_centre:for": "family", "description:de": "Familienförderung, Familienbildung", "email": "elternschule-niendorf@eimsbuettel.hamburg.de", "name": "Elternschule Niendorf", "opening_hours": "\"Termine nach Vereinbarung\"", "phone": "+49 40 42801-4666", "website": "https://elternschulen-eimsbuettel.de/elternschule-niendorf/"}}, {"type": "node", "id": 674650210, "lat": 53.5548557, "lon": 10.0190267, "tags": {"addr:city": "Hamburg", "addr:country": "DE", "addr:housenumber": "16", "addr:postcode": "20099", "addr:street": "Alexanderstraße", "amenity": "community_centre", "check_date": "2024-04-06", "email": "info@kulturladen.com", "internet_access": "wlan", "name": "Kulturladen St. Georg", "opening_hours": "Mo-Th 10:00-21:30; Fr 16:00-22:00; Su 17:00-20:00", "website": "https://kulturladen.com/"}}, {"type": "node", "id": 959506685, "lat": 53.5677891, "lon": 9.9621654, "tags": {"addr:housenumber": "23", "addr:street": "Fettstraße", "amenity": "community_centre", "check_date": "2024-06-03", "community_centre": "cultural_centre", "email": "kontakt@libertaereszentrum.de", "level": "-1", "name": "Libertäres Kultur- und Aktionszentrum \"Schwarze Katze\"", "opening_hours:signed": "no", "phone": "+49 40 78800783", "website": "https://www.libertaereszentrum.de/", "wheelchair": "no"}}, {"type": "node", "id": 984999462, "lat": 53.5167854, "lon": 9.9890895, "tags": {"amenity": "community_centre", "community_centre": "club_home", "name": "Arkadas Kulturverein e.V."}}, {"type": "node", "id": 1695191558, "lat": 53.6637918, "lon": 9.7996946, "tags": {"addr:city": "Pinneberg", "addr:postcode": "25421", "addr:street": "Clara-Bartram-Weg", "amenity": "community_centre", "religion": "jewish"}}, {"type": "node", "id": 1706759591, "lat": 53.3971674, "lon": 10.0417215, "tags": {"addr:city": "Seevetal", "addr:housenumber": "55", "addr:postcode": "21220", "addr:street": "Schulstraße", "amenity": "community_centre", "name": "Gemeindehaus Maschen", "wheelchair": "yes"}}, {"type": "node", "id": 1895972517, "lat": 53.4537097, "lon": 9.9820391, "tags": {"addr:city": "Hamburg", "addr:country": "DE", "addr:housenumber": "50", "addr:postcode": "21073", "addr:street": "Maretstraße", "alt_name": "Bürgerzentrum Phoenix", "amenity": "community_centre", "email": "centermanagement@feuervogel-harburg.de", "name": "Feuervogel Harburg", "opening_hours": "Mo-Fr 07:00-20:00", "operator": "Gebäudemanagement Hamburg GmbH", "phone": "+49 40 42812 9525", "ref:vatin": "DE812393892", "website": "http://www.feuervogel-harburg.de/", "wheelchair": "yes"}}, {"type": "node", "id": 1910399753, "lat": 53.4896003, "lon": 10.0929549, "tags": {"amenity": "community_centre", "community_centre": "club_home", "community_centre:for": "athlete", "contact:phone": "+49 40 737 46 63", "contact:website": "http://www.baltische-sv.de/", "name": "Baltische Seglervereinigung Hamburg", "opening_hours": "closed || \"please call us\"", "operator": "Baltische Seglervereinigung Hamburg e.V.", "sport": "sailing", "wheelchair": "yes"}}, {"type": "node", "id": 1912933010, "lat": 53.5935266, "lon": 9.8522059, "tags": {"addr:housenumber": "99", "addr:postcode": "22549", "addr:street": "Bornheide", "amenity": "community_centre", "brand": "Deutsches Rotes Kreuz", "brand:wikidata": "Q694104", "community_centre:for": "child", "leisure": "playground", "name": "DRK-Spielhafen", "website": "https://www.drk-altona-mitte.de/angebote/standard-titel/jugendarbeit-spielhafen.html"}}, {"type": "node", "id": 1956395038, "lat": 53.5517962, "lon": 9.9450475, "tags": {"amenity": "community_centre", "community_centre": "cultural_centre", "contact:phone": "+49 40 39902931", "name": "treffpunkt.altona", "opening_hours": "Mo-Th 09:00-16:00; Fr 09:00-15:00", "toilets:wheelchair": "yes", "website": "https://www.alsterdorf-assistenz-west.de/assistenz_west__03D10F8B70E248C287CD051A36DA56AB.htm", "wheelchair": "yes"}}, {"type": "node", "id": 2092719371, "lat": 53.5584827, "lon": 9.9407627, "tags": {"amenity": "community_centre", "check_date:opening_hours": "2024-03-18", "name": "Nachbarschaftstreff Schnellstraße", "opening_hours:signed": "no", "wheelchair": "no"}}, {"type": "node", "id": 2535021960, "lat": 53.6034204, "lon": 10.1806764, "tags": {"amenity": "community_centre", "community_centre:for": "family", "name": "Kinder- und Familienhilfezentrum Großlohe", "opening_hours": "Tu[1,3] 10:00-12:30; SH off", "operator": "Internationaler Bund", "short_name": "KiFaZ Großlohe", "social_facility": "outreach", "social_facility:for": "family", "website": "https://www.hamburg.de/behoerdenfinder/info/11271246/"}}, {"type": "node", "id": 2635652638, "lat": 53.5840974, "lon": 10.0651056, "tags": {"amenity": "community_centre", "check_date:opening_hours": "2023-07-26", "denomination": "unitarian", "description": "Gemeindezentrum", "email": "hamburg@unitarier.de", "name": "Hamburger Unitarier", "opening_hours": "Mo 11:00-14:00; We,Fr 13:00-16:00", "opening_hours:signed": "no", "phone": "+49 40 2542248", "religion": "christian", "website": "https://www.unitarier.de/hamburg"}}, {"type": "node", "id": 2736737343, "lat": 53.5718455, "lon": 9.9560864, "tags": {"addr:city": "Hamburg", "addr:country": "DE", "addr:housenumber": "12", "addr:postcode": "20259", "addr:street": "Doormannsweg", "alt_name": "Mädchentreff", "amenity": "community_centre", "community_centre:for": "girl", "contact:phone": "+4940 428013773", "description:de": "Offene Freizeit- und Beratungsangebote für Mädchen (Offene Kinder- und Jugendarbeit)", "name": "Mädchenzentrum Eimsbüttel", "opening_hours": "Tu-Fr 14:00-18:00", "operator": "Bezirksamt Eimsbüttel", "social_facility": "outreach", "social_facility:for": "girl", "website": "https://www.maedchenzentrum-eimsbuettel.de/", "wheelchair": "no"}}, {"type": "node", "id": 2737928311, "lat": 53.5657474, "lon": 9.9503402, "tags": {"addr:city": "Hamburg", "addr:country": "DE", "addr:housenumber": "33", "addr:postcode": "22769", "addr:street": "Alsenstraße", "amenity": "community_centre", "building": "civic", "check_date": "2023-05-25", "community_centre": "youth_centre", "community_centre:for": "child", "description:de": "Offene Freizeiteinrichtung für Kinder/ Offene Kinder- und Jugendarbeit", "name": "Spielhaus Alsenpark", "opening_hours": "Mo-Th 09:00-12:30,14:00-19:00; Fr 13:00-16:00", "operator": "Bezirksamt Altona", "social_facility": "outreach", "social_facility:for": "child", "website": "https://hamburger-spielhaeuser.de/spielhaeuser/alsenpark/index.php"}}, {"type": "node", "id": 2757328679, "lat": 53.6750563, "lon": 10.0259898, "tags": {"addr:city": "Hamburg", "addr:housenumber": "288", "addr:postcode": "22417", "addr:street": "Holitzberg", "amenity": "community_centre", "community_centre:for": "juvenile", "name": "Jugendkeller Holitzberg", "opening_hours": "Tu 16:00-20:00; Fr 16:00-21:00", "operator": "Initiative Spielplätze und Freizeit in Langenhorn-Heidberg e.V.", "website": "https://www.isuf.org/projekte/jugendkeller/", "wheelchair": "no"}}, {"type": "node", "id": 2757566265, "lat": 53.5889234, "lon": 9.8554573, "tags": {"addr:city": "Hamburg", "addr:housenumber": "76", "addr:postcode": "22549", "addr:street": "Bornheide", "alt_name": "Spielhaus Bornheide", "amenity": "community_centre", "community_centre": "youth_centre", "community_centre:for": "child;family", "description": "Offene Kinder- und Jugendarbeit", "name": "Spielhaus Osdorfer Born", "note": "Das Spielhaus befindet sich im grünen Pavillon auf dem Bürgerhausgelände", "old_name": "Spielplatzhaus Bornheide", "opening_hours": "Mo-Fr 14:00-19:00; Sa 13:00-18:00", "operator": "Spielhaus Bornheide e.V.", "phone": "+49 4 41911973", "website": "https://hamburger-spielhaeuser.de/spielhaeuser/osdorferborn/index.php"}}, {"type": "node", "id": 2772354030, "lat": 53.5618849, "lon": 9.9646175, "tags": {"addr:city": "Hamburg", "addr:country": "DE", "addr:housenumber": "29", "addr:postcode": "20357", "addr:street": "Bartelsstraße", "alt_name": "Mädchentreff", "amenity": "community_centre", "check_date:opening_hours": "2023-06-13", "community_centre:for": "girl", "name": "Mädchentreff Schanzenviertel", "opening_hours": "Mo 13:00-19:00; Tu 13:00-20:00; We 13:00-19:00; Th 13:00-20:00", "operator": "mädCHENtreff schanzenviertel e.V.", "social_facility": "outreach", "social_facility:for": "girl", "toilets:wheelchair": "no", "website": "https://www.maedchentreff-schanze.de/", "wheelchair": "no"}}, {"type": "node", "id": 2782619272, "lat": 53.5845227, "lon": 10.150005, "tags": {"addr:city": "Hamburg", "addr:country": "DE", "addr:housenumber": "4a", "addr:postcode": "22149", "addr:street": "Potsdamer Straße", "alt_name": "Mädchentreff", "amenity": "community_centre", "community_centre:for": "girl", "name": "Mädchencafé Hohenhorst", "opening_hours": "We 16:00-19:00 \"ab 12 Jahre\"; Th 15:00-18:00 \"bis 12 Jahre\"", "operator": "Streetlife e.V. - Straßensozialarbeit in Rahlstedt", "social_facility": "outreach", "social_facility:for": "girl"}}, {"type": "node", "id": 2782619278, "lat": 53.5845688, "lon": 10.1501332, "tags": {"addr:city": "Hamburg", "addr:country": "DE", "addr:housenumber": "4a", "addr:postcode": "22149", "addr:street": "Potsdamer Straße", "amenity": "community_centre", "community_centre:for": "boy", "name": "Jungscafé Hohenhorst", "opening_hours": "Mo 18:00-21:00 \"ab 14 Jahre\"; Tu 16:00-19:00 \"bis 13 Jahre\"", "operator": "Streetlife e.V. -Straßensozialarbeit in Rahlstedt", "social_facility": "outreach", "social_facility:for": "boy"}}, {"type": "node", "id": 2807929516, "lat": 53.566283, "lon": 9.9670395, "tags": {"amenity": "community_centre", "community_centre": "cultural_centre", "contact:mastodon": "@schwarzmarkt@mastodon.bida.im", "description:de": "Funktion eines Kommunikations- und Informationstreffpunktes Platz für Konflikte und Diskussionen", "email": "infoladen-hamburg@nadir.org", "name": "Infoladen Schwarzmarkt", "opening_hours": "Th,Mo[2,4] 16:00-19:00, We 15:00-18:00, Fr 17:00-20:00", "website": "https://schwarzmarkt.noblogs.org/"}}, {"type": "node", "id": 2865834656, "lat": 53.6291147, "lon": 10.169678, "tags": {"addr:city": "Hamburg", "addr:housenumber": "12a", "addr:postcode": "22145", "addr:street": "Finnmarkring", "amenity": "community_centre", "community_centre": "youth_centre", "community_centre:for": "juvenile", "name": "Jugendclub Mittendrin", "operator": "Ev.-Luth. Kirchengemeinde Meiendorf", "website": "https://www.meiendorf-oldenfelde.de/angebote/kinder-und-jugendliche/jugendclub-mittendrin.html"}}, {"type": "node", "id": 2865888930, "lat": 53.5707906, "lon": 10.1240669, "tags": {"addr:city": "Hamburg", "addr:country": "DE", "addr:housenumber": "246", "addr:postcode": "22043", "addr:street": "Rodigallee", "amenity": "community_centre", "check_date:opening_hours": "2020-12-01", "community_centre:for": "juvenile", "email": "jugendclub.jenfeld@diakonieundbildung.de", "fax": "+49 40 87885754", "name": "Jugendclub Jenfeld", "opening_hours": "Mo 12:00-14:00; Tu,Th 16:00-21:00; We 16:00-21:00; Fr 14:00-16:00", "operator": "Kirchenkreis Hamburg-Ost", "phone": "+49 40 87885752", "social_facility": "outreach", "social_facility:for": "juvenile", "website": "https://www.crossover-jenfeld.de/"}}, {"type": "node", "id": 2866076870, "lat": 53.5761752, "lon": 10.133093, "tags": {"addr:city": "Hamburg", "addr:housenumber": "252", "addr:postcode": "22045", "addr:street": "Jenfelder Straße", "amenity": "community_centre", "community_centre:for": "girl", "name": "Mädchentreff", "operator": "Ev.­‐Luth. Kirchenkreis Hamburg‐Ost", "website": "https://www.crossover-jenfeld.de/index.php/#jugendbuero"}}, {"type": "node", "id": 2874349881, "lat": 53.6170754, "lon": 10.1429967, "tags": {"addr:city": "Hamburg", "addr:country": "DE", "addr:housenumber": "71", "addr:postcode": "22147", "addr:street": "Greifenberger Straße", "amenity": "community_centre", "community_centre": "youth_centre", "community_centre:for": "juvenile", "name": "Jugendtreff Oldenfelde", "opening_hours": "Mo-Fr 14:30-20:30", "operator": "DRK KiJu gGmbH", "phone": "+49 40 6476638", "website": "https://www.drk-kiju.de/einrichtungen/kinder-und-jugendtreff-oldenfelde/"}}, {"type": "node", "id": 2875622317, "lat": 53.6024836, "lon": 10.1815616, "tags": {"addr:city": "Hamburg", "addr:country": "DE", "addr:housenumber": "49", "addr:postcode": "22143", "addr:street": "Großlohering", "amenity": "community_centre", "community_centre:for": "juvenile", "name": "Teekeller Großlohe", "operator": "Ev.-Luth. Kirchengemeinde Alt-Rahlstedt"}}, {"type": "node", "id": 2877347912, "lat": 53.6078781, "lon": 10.0484262, "tags": {"addr:city": "Hamburg", "addr:housenumber": "10", "addr:postcode": "22309", "addr:street": "Steilshooper Allee", "alt_name": "Mobiles Kinderprojekt Streilshoop", "amenity": "community_centre", "community_centre:for": "child", "name": "MoKiP"}}, {"type": "node", "id": 2879055001, "lat": 53.584793, "lon": 10.028916, "tags": {"addr:city": "Hamburg", "addr:country": "DE", "addr:housenumber": "23", "addr:postcode": "22303", "addr:street": "Kaemmererufer", "amenity": "community_centre", "community_centre:for": "juvenile", "name": "Jugendtreff Jarrestadt", "opening_hours:signed": "no", "operator": "Jarrestadt Leben e.V.", "website": "https://jarrestadt-leben.de/einrichtungen/jugendtreff-jarrestadt/"}}, {"type": "node", "id": 2939858012, "lat": 53.5667908, "lon": 9.8746873, "tags": {"amenity": "community_centre", "name": "Gemeindehaus", "opening_hours": "Tu-Fr 09:00-12:00, Tu 15:00-18:00", "website": "https://www.kirche-in-flottbek.de/ueber-uns/einrichtungen", "wheelchair": "yes"}}, {"type": "node", "id": 3029802240, "lat": 53.6723445, "lon": 9.999161, "tags": {"addr:city": "Hamburg", "addr:housenumber": "16h", "addr:postcode": "22419", "addr:street": "Käkenflur", "amenity": "community_centre", "check_date": "2022-12-14", "description": "Förderung von Initiativen und Projekten im Stadtteil (im Anschluss an Quartiersentwicklung durch die Lawaetz-Stiftung )", "email": "leila@leila-ev.de", "name": "Stadtteilbüro Essener Straße", "opening_hours": "We-Th 14:00-18:00", "operator": "LEILA e.V.", "operator:type": "public", "phone": "+49 40 30330164", "website": "https://www.leila-ev.de/", "wheelchair": "yes"}}, {"type": "node", "id": 3057452738, "lat": 53.5518315, "lon": 9.945037, "tags": {"amenity": "community_centre", "community_centre": "cultural_centre", "contact:phone": "+49 40 24436417", "contact:website": "http://www.altonavi.de", "name": "altonavi", "operator": "HausDrei, Stadtteilzentrum in Altona e.V.", "toilets:wheelchair": "yes", "wheelchair": "yes", "wheelchair:description": "Tür mit Taster zum automatischen Öffnen"}}, {"type": "node", "id": 3136936090, "lat": 53.4192766, "lon": 10.2717729, "tags": {"amenity": "community_centre", "name": "Gemeindesaal"}}, {"type": "node", "id": 3273690272, "lat": 53.5563053, "lon": 9.9327475, "tags": {"addr:city": "Hamburg", "addr:housenumber": "32-34", "addr:postcode": "22765", "addr:street": "Nernstweg", "amenity": "community_centre", "check_date:opening_hours": "2024-05-05", "community_centre": "cultural_centre", "contact:email": "info@w3-hamburg.de", "contact:fax": "+49 40 39805369", "contact:phone": "+49 40 39805360", "contact:website": "https://w3-hamburg.de/", "email": "info@w3-hamburg.de", "name": "W3 – Werkstatt für internationale Kultur und Politik", "opening_hours:signed": "no", "operator": "W3 – Werkstatt für internationale Kultur und Politik e.V.", "phone": "+49 40 398053 60", "ref:vatin": "DE118715649", "website": "https://w3-hamburg.de/", "wheelchair": "yes"}}, {"type": "node", "id": 3361320431, "lat": 53.5157092, "lon": 9.9868039, "tags": {"addr:city": "Hamburg", "addr:country": "DE", "addr:housenumber": "48", "addr:postcode": "21107", "addr:street": "Fährstraße", "amenity": "community_centre", "name": "Infoladen Wilhelmsburg", "opening_hours": "Tu,Th 15:00-18:00; Sa 13:00-16:00", "toilets:wheelchair": "no", "url": "http://infoladen-wilhelmsburg.nadir.org", "wheelchair": "no"}}, {"type": "node", "id": 3421445982, "lat": 53.5308385, "lon": 10.1478618, "tags": {"addr:city": "Hamburg", "addr:housenumber": "6", "addr:postcode": "22115", "addr:street": "Kirchnerweg", "amenity": "community_centre", "community_centre:for": "family", "description:de": "Die Elternschulen sind Treffpunkt sowie Anlauf- und Beratungsstelle für werdende Eltern, (Allein-) Erziehende und Familien. Hier begegnen sich Familien aus unterschiedlichen Lebenssituationen und Kulturen. Sie haben Gelegenheit in offenen Treffs, festen G", "name": "Elternschule Mümmelmannsberg", "operator": "Bezirksamt Hamburg-Mitte", "social_facility": "outreach", "social_facility:for": "family", "wheelchair": "limited"}}, {"type": "node", "id": 3655927117, "lat": 53.56927, "lon": 10.0614, "tags": {"amenity": "community_centre", "community_centre": "meeting_room", "counselling_type:immigrant": "yes", "name": "Café Exil", "opening_hours": "Mo,Tu,Th 08:00-14:00; Fr 08:00-13:00", "phone": "+49 40 2368216", "website": "http://cafe-exil.antira.info/", "wheelchair": "yes"}}, {"type": "node", "id": 3923472926, "lat": 53.4112801, "lon": 10.1536852, "tags": {"addr:city": "Hamburg", "addr:housenumber": "276", "addr:postcode": "21037", "addr:street": "Kirchwerder Elbdeich", "alt_name": "JUZ Vierlande", "amenity": "community_centre", "community_centre:for": "juvenile", "name": "Jugendzentrum Vierlande", "opening_hours": "Mo-Th 15:00-20:00; Fr 15:00-21:00; Sa 15:00-21:00; Su off", "website": "http://www.juzvierlande.de"}}, {"type": "node", "id": 3927224999, "lat": 53.4960883, "lon": 10.2091016, "tags": {"addr:city": "Hamburg", "addr:housenumber": "2", "addr:postcode": "21031", "addr:street": "Jakob-Kaiser-Straße", "alt_name": "Mädchentreff", "amenity": "community_centre", "community_centre": "youth_centre", "community_centre:for": "girl", "name": "Mädchentreff Lohbrügge", "operator": "Dolle Deerns e.V. Verein zur Förderung feministischer Mädchenarbeit", "phone": "+49 40 7245214", "website": "https://www.dolledeerns.de/einrichtungen/m%C3%A4dchentreff-lohbr%C3%BCgge/"}}, {"type": "node", "id": 3927225000, "lat": 53.4636664, "lon": 9.9802001, "tags": {"addr:city": "Hamburg", "addr:housenumber": "59", "addr:postcode": "21073", "addr:street": "Neue Straße", "alt_name": "Mädchentreff", "amenity": "community_centre", "check_date:opening_hours": "2022-06-05", "community_centre:for": "girl", "name": "Mädchentreff Harburg", "opening_hours": "Mo,Fr 14:00-19:00; Tu 16:00-19:00; We,Th 14:00-18:00", "opening_hours:signed": "no", "operator": "Dolle Deerns e.V. - Verein zur Förderung feministischer Mädchenarbeit", "website": "https://www.dolledeerns.de/harburg.html", "wheelchair": "no"}}, {"type": "node", "id": 3928014457, "lat": 53.5799233, "lon": 10.0218332, "tags": {"addr:city": "Hamburg", "addr:housenumber": "98", "addr:postcode": "22083", "addr:street": "Bachstraße", "alt_name": "Mädchentreff", "amenity": "community_centre", "check_date:opening_hours": "2023-10-02", "community_centre:for": "girl", "name": "Mädchentreff Bachstraße", "opening_hours": "We 14:00-19:00; Fr 14:00-19:00; Tu 14:00-19:00", "operator": "Jarrestadt Leben e.V.", "phone": "+49 40 220 90 73", "url": "https://hamburg-aktiv.info/a9591", "website": "https://jarrestadt-leben.de/einrichtungen/maedchentreff-bachstrasse/"}}, {"type": "node", "id": 3928014458, "lat": 53.4861134, "lon": 10.0197626, "tags": {"addr:city": "Hamburg", "addr:housenumber": "9", "addr:postcode": "21109", "addr:street": "Erlerring", "alt_name": "Mädchentreff", "amenity": "community_centre", "community_centre:for": "girl", "name": "Mädchentreff Kirchdorf-Süd", "operator": "Dolle Deerns e.V. - Verein zur Förderung feministischer Mädchenarbeit", "social_facility": "outreach", "social_facility:for": "girl", "website": "https://www.dolledeerns.de/kisued.html"}}, {"type": "node", "id": 3928014459, "lat": 53.5236625, "lon": 10.152267, "tags": {"addr:city": "Hamburg", "addr:housenumber": "20a", "addr:postcode": "22115", "addr:street": "Heideblöck", "alt_name": "Lass 1000 Steine rollen! Mümmelmannsberg", "amenity": "community_centre", "community_centre:for": "girl", "name": "Mädchentreff Mümmelmannsberg", "operator": "Trockendock e.V.", "phone": "+49 40 7161005", "toilets:wheelchair": "no", "website": "https://www.1000-steine.de/maedchentreff", "wheelchair": "limited"}}, {"type": "node", "id": 3928014460, "lat": 53.5891236, "lon": 9.8550156, "tags": {"addr:city": "Hamburg", "addr:housenumber": "76c", "addr:postcode": "22549", "addr:street": "Bornheide", "alt_name": "Mädchentreff", "amenity": "community_centre", "community_centre:for": "girl", "name": "Mädchentreff Osdorf", "opening_hours": "Mo 14:00-19:00; Tu 14:00-18:00; We 14:00-18:30; Th 14:00-20:00; Fr 13:00-16:00", "operator": "Arbeiter-Samariter-Bund (ASB)", "website": "https://www.asb-hamburg.de/unsere-angebote/kinder-und-jugend/jugendeinrichtungen/maedchentreff-osdorf/"}}, {"type": "node", "id": 3928014461, "lat": 53.5397362, "lon": 10.1073546, "tags": {"addr:city": "Hamburg", "addr:housenumber": "10a", "addr:postcode": "22111", "addr:street": "Öjendorfer Weg", "alt_name": "Mädchentreff", "amenity": "community_centre", "community_centre:for": "girl", "contact:email": "billeinsel@invia-hamburg.de", "contact:phone": "+49 40 7324984", "name": "Mädchentreff Billeinsel", "opening_hours": "Tu 13:00-18:00; Th 13:00-19:00", "operator": "IN VIA Hamburg e.V.", "website": "https://www.invia-hamburg.de/kinder-und-jugendhilfe/maedchentreff-billeinsel.html"}}, {"type": "node", "id": 3928055462, "lat": 53.7041422, "lon": 10.1064612, "tags": {"addr:city": "Hamburg", "addr:country": "DE", "addr:housenumber": "8", "addr:postcode": "22397", "addr:street": "Duvenstedter Markt", "amenity": "community_centre", "community_centre": "youth_centre", "community_centre:for": "child;juvenile", "name": "Jugendtreff Duvenstedt", "operator": "Vereinigung Pestalozzi gemeinnützige GmbH", "url": "https://vereinigung-pestalozzi.de/jugendtreff-duvenstedt/", "website": "https://www.vereinigung-duvenstedt.de/kinder-jugend/jugendtreff.html"}}, {"type": "node", "id": 3928055463, "lat": 53.6052222, "lon": 9.8666592, "tags": {"addr:city": "Hamburg", "addr:housenumber": "24", "addr:postcode": "22547", "addr:street": "Netzestraße", "alt_name": "Mädchentreff", "amenity": "community_centre", "community_centre:for": "girl", "name": "Mädchentreff Lurup", "operator": "Deutscher Kinderschutzbund, Landesverband Hamburg e.V.", "phone": "+49 40 83018711", "url": "https://hamburg-aktiv.info/a9126", "website": "https://kinderschutzbund-hamburg.de/projects-archive/madchentreff-lurup/"}}, {"type": "node", "id": 3928055464, "lat": 53.5530825, "lon": 9.9223086, "tags": {"addr:city": "Hamburg", "addr:housenumber": "95", "addr:postcode": "22763", "addr:street": "Fischers Allee", "alt_name": "Mädchentreff", "amenity": "community_centre", "community_centre:for": "girl", "name": "Mädchentreff Ottensen", "opening_hours": "Mo 14:00-19:00; Tu 16:30-18:30; We 14:00-19:00; Th 16:30-18:30; Fr 14:00-19:00", "operator": "Deutscher Kinderschutzbund, Landesverband Hamburg e.V.", "phone": "+49 40 390 99 44", "url": "https://hamburg-aktiv.info/a9125", "website": "https://kinderschutzbund-hamburg.de/projects-archive/madchentreff-ottensen/", "wheelchair": "no"}}, {"type": "node", "id": 3928429139, "lat": 53.5574873, "lon": 9.9723484, "tags": {"addr:city": "Hamburg", "addr:housenumber": "2", "addr:postcode": "20357", "addr:street": "Glashüttenstraße", "alt_name": "JungLesbenZentrum", "amenity": "community_centre", "check_date:opening_hours": "2023-07-17", "community_centre:for": "girl", "name": "JLZ", "opening_hours:signed": "no", "operator": "Intervention e.V.", "website": "http://www.intervention-hamburg.de/epages/61304227.sf/de_DE/?ObjectPath=/Shops/61304227/Categories/JungLesbenZentrum"}}, {"type": "node", "id": 3928429141, "lat": 53.4786203, "lon": 9.8666537, "tags": {"addr:city": "Hamburg", "addr:housenumber": "3", "addr:postcode": "21147", "addr:street": "Neumoorstück", "alt_name": "HdJ Neuwiedenthal", "amenity": "community_centre", "community_centre": "youth_centre", "community_centre:for": "child;juvenile", "description:de": "offene Kinder. und Jugendarbeit", "name": "Haus der Jugend Neuwiedenthal", "operator": "Bezirksamt Harburg"}}, {"type": "node", "id": 3928429142, "lat": 53.4792449, "lon": 9.8775129, "tags": {"addr:city": "Hamburg", "addr:housenumber": "15", "addr:postcode": "21147", "addr:street": "Stubbenhof", "amenity": "community_centre", "community_centre:for": "child;juvenile;family", "name": "Neuwiedenthal Aktiv", "opening_hours": "Mo 16:00-18:00; Th 17:00-19:00", "operator": "Neuwiedenthal Aktiv e.V.", "website": "https://neuwiedenthal-aktiv.de/"}}, {"type": "node", "id": 3931761196, "lat": 53.5575286, "lon": 9.9629204, "tags": {"addr:city": "Hamburg", "addr:country": "DE", "addr:housenumber": "10a (LAB)", "addr:postcode": "20359", "addr:street": "Beim Grünen Jäger", "amenity": "community_centre", "club": "culture", "community_centre:for": "senior", "name": "LAB Hamburg, Treffpunkt St. Pauli", "opening_hours": "\"weekly changing\"", "operator": "Lange Aktiv Bleiben (LAB) Landesverband Hamburg e.V.", "social_facility:for": "senior", "website": "http://www.labhamburg.de/index.php?treffpunkt=12", "website:mobile": "https://www.hamburg.de/branchenbuch/hamburg/eintrag/10160491/", "wheelchair": "yes"}}, {"type": "node", "id": 3937063083, "lat": 53.4614929, "lon": 9.9448332, "tags": {"addr:city": "Hamburg", "addr:country": "DE", "addr:housenumber": "2c", "addr:postcode": "21075", "addr:street": "Hans-Dewitz-Ring", "amenity": "community_centre", "community_centre:for": "child;juvenile", "name": "Jugendarbeit Heimfeld", "operator": "Deutsches Rotes Kreuz - Kreisverband Harburg e.V.", "website": "https://hamburg-aktiv.info/a6844"}}, {"type": "node", "id": 3937063084, "lat": 53.4750192, "lon": 9.854562, "tags": {"addr:city": "Hamburg", "addr:housenumber": "2", "addr:postcode": "21147", "addr:street": "Am Johannisland", "alt_name": "Jugendtreff", "amenity": "community_centre", "community_centre:for": "child;juvenile", "name": "Jugendfreizeitlounge Neugraben", "opening_hours": "Mo off; Tu-Th 14:00-20:00; Fr-Sa 14:00-21:00; Su off", "operator": "Pestalozzi-Stiftung Hamburg", "website": "https://www.jugendfreizeitloungeneugraben.de/"}}, {"type": "node", "id": 3946859655, "lat": 53.5867889, "lon": 10.0694178, "tags": {"addr:city": "Hamburg", "addr:housenumber": "200", "addr:postcode": "22049", "addr:street": "Alter Teichweg", "alt_name": "HdJ Alter Teichweg", "amenity": "community_centre", "community_centre:for": "juvenile", "name": "Haus der Jugend Dulsberg", "operator": "Bezirksamt Hamburg-Nord", "website": "https://www.dulsberg.de/kinder-jugendliche/haus-der-jugend"}}, {"type": "node", "id": 3947004366, "lat": 53.5335529, "lon": 10.1314972, "tags": {"addr:city": "Hamburg", "addr:housenumber": "13", "addr:postcode": "22115", "addr:street": "Sonnenland", "amenity": "community_centre", "community_centre:for": "child;juvenile;migrant;neighbourhood", "name": "Stadtteilprojekt Sonnenland", "operator": "Stadtteilprojekt Sonnenland e.V.", "social_facility": "outreach", "social_facility:for": "underprivileged", "website": "https://sonnenland-hamburg.de/"}}, {"type": "node", "id": 3957653227, "lat": 53.6133282, "lon": 10.0226475, "tags": {"addr:city": "Hamburg", "addr:housenumber": "13c", "addr:postcode": "22297", "addr:street": "Alsterdorfer Markt", "amenity": "community_centre", "community_centre:for": "juvenile", "name": "Jugendhaus Alsterdorf", "opening_hours": "Mo 16:00-19:00; Th 16:00-20:00; Fr 15:00-21:00", "operator": "Alsterdorf-Assistenz West gGmbH", "website": "https://www.alsterdorf-assistenz-west.de/regionen/alsterdorf-ohlsdorf-winterhude-eppendorf/alsterdorf/jugendhaus-alsterdorf/", "wheelchair": "yes"}}, {"type": "node", "id": 3964396865, "lat": 53.614292, "lon": 10.057525, "tags": {"addr:city": "Hamburg", "addr:country": "DE", "addr:housenumber": "43a", "addr:postcode": "22309", "addr:street": "Gropiusring", "alt_name": "Arbeitsgemeinschaft Deutsch Ausländische Zusammenarbeit", "amenity": "community_centre", "email": "info@agdaz.de", "fixme": "Lokalisierung im Gebäude", "name": "Stadtteiltreff AGDAZ", "opening_hours": "Mo,Fr 16:00-18:00; Th 10:30-13:30", "operator": "Stadtteiltreff ADDAZ e.V.", "phone": "+49 40 6301028", "website": "https://www.agdaz.de/"}}, {"type": "node", "id": 3966165251, "lat": 53.5822354, "lon": 10.1546557, "tags": {"alt_name": "Mädchentreff", "amenity": "community_centre", "community_centre:for": "girl;female", "contact:phone": "+49 40 6728453", "name": "Frauen- und Mädchentreff Hohenhorst", "operator": "Jugendarbeit in Rahlstedt e.V.", "social_facility": "outreach", "social_facility:for": "female;girl"}}, {"type": "node", "id": 3966165252, "lat": 53.5874896, "lon": 10.1478251, "tags": {"addr:city": "Hamburg", "addr:country": "DE", "addr:housenumber": "6", "addr:postcode": "22149", "addr:street": "Halenseering", "alt_name": "Jugendkeller", "amenity": "community_centre", "community_centre": "youth_centre", "community_centre:for": "juvenile", "name": "JO - Jugendoase an der Trinitatiskirche", "operator": "Markus-Kirchengemeinde", "website": "https://www.markuskirchengemeinde.de/gemeindeleben/markus-macht/jo-die-jugend-oase.html"}}, {"type": "node", "id": 4010965292, "lat": 53.5565022, "lon": 10.0428085, "tags": {"addr:city": "Hamburg", "addr:country": "DE", "addr:housenumber": "3", "addr:postcode": "20535", "addr:street": "Sievekingdamm", "amenity": "community_centre", "name": "Kulturladen Hamm", "website": "https://www.hh-hamm.de/", "wheelchair": "yes"}}, {"type": "node", "id": 4032289148, "lat": 53.4869827, "lon": 10.0210755, "tags": {"addr:city": "Hamburg", "addr:housenumber": "9", "addr:postcode": "21109", "addr:street": "Karl-Arnold-Ring", "amenity": "community_centre", "community_centre:for": "family", "description:de": "Familienförderung, Erwachsenenbildung, Offener Treffpunkt für Eltern mit Säuglingen und Kleinkindern", "name": "Elternschule Kirchdorf Süd", "operator": "Bezirksamt Hamburg-Mitte", "operator:type": "public", "social_facility": "outreach", "social_facility:for": "parents", "website": "https://www.hamburg.de/mitte/eltern/4063426/elternschule-kirchdorf-sued/"}}, {"type": "node", "id": 4142368946, "lat": 53.5755018, "lon": 10.1343334, "tags": {"amenity": "community_centre", "email": "info@jenfeld-haus.de", "name": "Jenfeld-Haus", "operator": "Selbsthilfe e.V. Jenfeld", "phone": "+49 406 544060", "url": "http://jenfeld-haus.de"}}, {"type": "node", "id": 4243026506, "lat": 53.5479249, "lon": 9.9572737, "tags": {"amenity": "community_centre", "internet_access": "wlan", "name": "Kölibri/GWA St. Pauli", "website": "https://gwa-stpauli.de/"}}, {"type": "node", "id": 4353269780, "lat": 53.6486663, "lon": 10.0158635, "tags": {"amenity": "community_centre", "name": "Bürgerhaus Langenhorn", "opening_hours": "Mo-Fr 09:00-21:30", "website": "https://www.buergerhaus-langenhorn.hamburg/"}}, {"type": "node", "id": 4356061590, "lat": 53.463034, "lon": 9.9684819, "tags": {"amenity": "community_centre", "email": "oeffentliches@asta.tu-harburg.de", "fax": "+49 40 42731-0932", "internet_access": "wlan", "name": "Allgemeiner Studierenden Ausschuss TUHH", "official_name": "Allgemeine Studierendenausschuss der Technischen Universität Hamburg", "opening_hours": "Mo,Tu,Th,Fr 09:00-11:00", "phone": "+49 40 42878-3764", "short_name": "AStA TUHH", "toilets:wheelchair": "yes", "website": "https://asta-tuhh.de/", "wheelchair": "yes"}}, {"type": "node", "id": 4543789469, "lat": 53.5595017, "lon": 10.0500214, "tags": {"amenity": "community_centre", "check_date": "2023-06-09", "name": "Nachbar-Treff der Wohnungsgenossenschaft von 1904 e.G.", "opening_hours": "\"Je nach Veranstaltung (siehe Aushang oder Internet)\"", "wheelchair": "yes"}}, {"type": "node", "id": 4692807630, "lat": 53.5192289, "lon": 10.0209834, "tags": {"amenity": "community_centre", "name": "Kulturdeich Veddel"}}, {"type": "node", "id": 4817437357, "lat": 53.6314934, "lon": 9.8390217, "tags": {"addr:city": "Halstenbek", "addr:housenumber": "22", "addr:postcode": "25469", "addr:street": "Bahnhofstraße", "amenity": "community_centre", "check_date": "2022-11-18", "community_centre": "youth_centre", "email": "info@juba23.de", "name": "Jugendbahnhof JubA23", "opening_hours": "Mo-Fr 15:00-20:00; We off", "operator": "Gemeinde Halstenbek", "phone": "+49 4101 491240", "website": "https://www.juba23.de/"}}, {"type": "node", "id": 4871590495, "lat": 53.5206259, "lon": 10.0199799, "tags": {"amenity": "community_centre", "name": "die mügge", "operator": "GET THE KICK E.V."}}, {"type": "node", "id": 5064249648, "lat": 53.5539284, "lon": 10.0150733, "tags": {"addr:city": "Hamburg", "addr:housenumber": "7", "addr:postcode": "20099", "addr:street": "Kleiner Pulverteich", "amenity": "community_centre", "name": "Pakistan Islamic Center"}}, {"type": "node", "id": 5092538606, "lat": 53.5562952, "lon": 10.0577904, "tags": {"addr:city": "Hamburg", "addr:country": "DE", "addr:housenumber": "17", "addr:postcode": "20535", "addr:street": "Horner Weg", "amenity": "community_centre", "check_date": "2023-09-10", "community_centre": "parish_hall", "internet_access": "wlan", "name": "Ev.-luth. Kirchengemeinde zu Hamburg-Hamm", "opening_hours": "Mo-Th 10:00-12:00", "website": "https://www.kirche-hamburg.de/gemeinden/ev-luth-kirchengemeinde-zu-hamburg-hamm.html", "wheelchair": "yes"}}, {"type": "node", "id": 5101606953, "lat": 53.5930182, "lon": 9.9367931, "tags": {"amenity": "community_centre", "community_centre": "parish_hall", "name": "Gemeindehaus"}}, {"type": "node", "id": 5152414541, "lat": 53.5967965, "lon": 9.9964857, "tags": {"alt_name": "AWO-Aktivtreff Winterhude", "amenity": "community_centre", "amenity_1": "social_centre", "check_date": "2023-10-18", "community_centre:for": "senior", "name": "Altentagesstätte Winterhude Nord", "operator": "AWO", "url": "https://hamburg-aktiv.info/a9814", "website": "https://www.awo-hamburg.de/wer-wir-sind/awo-hamburg-kreise/kreis-hamburg-nord/"}}, {"type": "node", "id": 5200173621, "lat": 53.5518087, "lon": 9.9644823, "tags": {"amenity": "community_centre", "contact:phone": "+49 40 60089102", "name": "Interkulturelle Begegnungsstätte e.V.", "opening_hours": "Mo 10:00-14:00; Tu 10:00-13:00,14:00-16:00; We,Sa,Su off; Th 10:00-13:00,14:00-16:00; Fr 10:00-12:00", "website": "http://www.ikb-frauen.de/"}}, {"type": "node", "id": 5207383887, "lat": 53.5543571, "lon": 9.9688482, "tags": {"addr:city": "Hamburg", "addr:country": "DE", "addr:housenumber": "1a", "addr:postcode": "20359", "addr:street": "Heiligengeistfeld", "amenity": "community_centre", "check_date": "2024-02-23", "community_centre": "cultural_centre", "community_centre:for": "multigeneration", "contact:email": "info@fanraeume.de", "contact:facebook": "https://www.facebook.com/Fanr%C3%A4ume-im-Millerntorstadion-135554146474339/", "contact:phone": "+49-40-88231742", "name": "Fanräume", "operator": "Fanräume e.V.", "toilets:wheelchair": "yes", "wheelchair": "yes"}}, {"type": "node", "id": 5207383888, "lat": 53.5542424, "lon": 9.9687543, "tags": {"addr:city": "Hamburg", "addr:country": "DE", "addr:housenumber": "1a", "addr:postcode": "20359", "addr:street": "Heiligengeistfeld", "amenity": "community_centre", "community_centre:for": "multigeneration", "contact:email": "info@stpauli-fanladen.de", "contact:fax": "+49-40-4305119", "contact:instagram": "https://www.instagram.com/fanladenstpauli/", "contact:phone": "+49-40-4396961", "contact:website": "http://www.stpauli-fanladen.de/", "facebook": "https://www.facebook.com/Fanladen", "name": "Fanladen St. Pauli", "opening_hours": "We-Fr 15:00-19:00 || \"Bei Heimspielen der Profis zusätzlich 2 Stunden vor- und nach den Spielen, nicht jedoch währenddessen\"", "opening_hours:url": "https://www.stpauli-fanladen.de/kontakt/#oeffnungszeiten", "operator": "Jugend und Sport e.V.", "payment:cash": "yes", "payment:credit_cards": "yes", "toilets:wheelchair": "yes", "twitter": "https://twitter.com/fanladenstpauli", "website": "https://www.stpauli-fanladen.de/", "wheelchair": "yes"}}, {"type": "node", "id": 5245811666, "lat": 53.5041452, "lon": 10.2100973, "tags": {"amenity": "community_centre", "community_centre": "club_home", "community_centre:for": "athlete", "name": "VfL Lohbrügge"}}, {"type": "node", "id": 5269698159, "lat": 53.5769837, "lon": 10.0430188, "tags": {"amenity": "community_centre", "contact:email": "info@barmbek-basch.info", "contact:phone": "+49 40 519008055", "contact:website": "http://www.barmbek-basch.info/", "name": "Barmbek°Basch", "opening_hours:bowling": "Tu 10:00-12:00; Th 14:00-16:00; Fr 10:00-12:00", "toilets:wheelchair": "yes", "wheelchair": "yes"}}, {"type": "node", "id": 5812858548, "lat": 53.6753101, "lon": 10.0262372, "tags": {"addr:city": "Hamburg", "addr:housenumber": "139a", "addr:postcode": "22417", "addr:street": "Holitzberg", "amenity": "community_centre", "description": "Familienförderung, Elternkurse, offener Treffpunkt für Eltern und Kinder", "email": "elternschule-langenhorn@hamburg-nord.hamburg.de", "fax": "+49 40 53779297", "name": "Elternschule Langenhorn", "note": "\"Opening Hours\" beziehen sich auf die Bürozeiten, nicht auf die Kurse", "opening_hours": "Th 10:00-12:00", "operator": "Bezirksamt Hamburg-Nord", "operator:type": "public", "phone": "+49 40 5270240", "website": "https://www.hamburg.de/hamburg-nord/familie-senioren/2956088/elternschulen-in-hamburg-nord/", "wheelchair": "limited"}}, {"type": "node", "id": 5870877285, "lat": 53.4888192, "lon": 10.1921759, "tags": {"addr:city": "Hamburg", "addr:housenumber": "73A", "addr:postcode": "21033", "addr:street": "Kurt-A.-Körber-Chaussee", "amenity": "community_centre", "community_centre": "cultural_centre", "description": "Kunst- und Kulturzentrum, Jazzclub, Veranstaltungsraum", "name": "White Cube Bergedorf e.V"}}, {"type": "node", "id": 5900036535, "lat": 53.5793, "lon": 10.0428117, "tags": {"amenity": "community_centre", "check_date:opening_hours": "2023-03-28", "name": "Quartierstreff", "opening_hours:signed": "no", "operator": "Schiffszimmerer-Genossenschaft"}}, {"type": "node", "id": 5912253504, "lat": 53.6719578, "lon": 9.9972513, "tags": {"addr:city": "Hamburg", "addr:housenumber": "30", "addr:postcode": "22419", "addr:street": "Käkenflur", "amenity": "community_centre", "email": "ella-kulturhaus@mookwat.de", "name": "ella Kulturhaus Langenhorn", "operator": "Mook wat e.V.", "phone": "+49 40 53327150", "website": "https://mookwat.de/ella-kulturhaus/"}}, {"type": "node", "id": 6224910104, "lat": 53.584893, "lon": 10.0675133, "tags": {"amenity": "community_centre", "community_centre": "community_hall", "community_centre:for": "senior", "name": "Seniorentreff Dulsberg", "opening_hours": "Mo-Th 09:00-13:00", "website": "https://www.dulsberg.de/seniorentreff"}}, {"type": "node", "id": 6323023445, "lat": 53.5662704, "lon": 9.9669774, "tags": {"amenity": "community_centre", "check_date:opening_hours": "2024-05-06", "community_centre": "events_venue", "description:de": "Selbstverwaltete Bar, Kneipe am Schanzenpark in Eimsbüttel. Hier finden Konzerte, Parties und Infoveranstaltungen statt.", "name": "LiLa Schanze", "opening_hours": "Mo,Th 16:00-19:00; Fr 17:00-19:00", "phone": "+49 40 446095"}}, {"type": "node", "id": 6430851965, "lat": 53.5530601, "lon": 9.9613404, "tags": {"amenity": "community_centre", "community_centre": "cultural_centre", "contact:website": "http://wohloderuebel.net/", "fee": "no", "name": "WOHL oder ÜBEL"}}, {"type": "node", "id": 6440334209, "lat": 53.4947473, "lon": 10.1319115, "tags": {"addr:city": "Hamburg", "addr:housenumber": "23", "addr:postcode": "21033", "addr:street": "Am Gleisdreieck", "alt_name": "Nachbarschaftstreff Haus 23", "amenity": "community_centre", "community_centre": "community_hall", "description": "Begegnung – Beratung – Bildung Das Haus 23 ist offen für alle Menschen jeder kulturellen und sozialen Herkunft. Hier können Sie sich kennenlernen aber auch Beratung und Hilfe erhalten.", "email": "info@haus23.org", "name": "Haus 23", "opening_hours": "\"Termine nach Vereinbarung\"", "operator": "Sprungbrett e.V.", "phone": "+49 40 41493210", "website": "http://www.haus23.org/"}}, {"type": "node", "id": 6480010223, "lat": 53.4064684, "lon": 9.9305758, "tags": {"amenity": "community_centre", "club": "sport", "community_centre": "club_home", "name": "Tennisclub Rosengarten", "short_name": "TCR", "sport": "tennis"}}, {"type": "node", "id": 6563097214, "lat": 53.562519, "lon": 9.9410457, "tags": {"access": "permissive", "addr:city": "Hamburg", "addr:country": "DE", "addr:housenumber": "109", "addr:postcode": "22765", "addr:street": "Harkortstraße", "amenity": "community_centre", "description": "Der Quartiersraum Mitte Altona befindet sich neben der Mobilstation. Er ist direkt von der Harkortstraße 109 zugänglich. Der Raum wird als Besprechungs- und Ausstellungsraum für Planungen in der Umgebung genutzt (Holsten-Areal, Diebsteich-Bahnhof). Bewoh", "email": "mittealtona@proquartier.hamburg", "name": "Quartiersraum - Mitte Altona", "opening_hours": "Mo,We 17:00-19:00; Th,Sa 10:00-12:00", "phone": "+49 40 426669799", "website": "https://mitte-altona.info/nachbarschaft/", "wheelchair": "yes"}}, {"type": "node", "id": 6660741232, "lat": 53.4640088, "lon": 9.9573566, "tags": {"addr:city": "Hamburg", "addr:country": "DE", "addr:housenumber": "41", "addr:postcode": "21075", "addr:street": "Heimfelder Straße", "amenity": "community_centre", "check_date:opening_hours": "2023-12-01", "community_centre": "community_hall", "community_centre:for": "senior", "entrance": "yes", "name": "AWO Senioren-Treff", "opening_hours": "Mo-Fr 13:00-17:00", "operator": "Arbeiterwohlfahrt Landesverband Hamburg e.V."}}, {"type": "node", "id": 6788771055, "lat": 53.6078545, "lon": 9.9767428, "tags": {"amenity": "community_centre", "name": "Gemeindebüro St. Peter"}}, {"type": "node", "id": 6793520871, "lat": 53.4702031, "lon": 9.9593202, "tags": {"access": "private", "amenity": "community_centre", "check_date": "2023-07-28", "community_centre": "club_home", "entrance": "yes", "name": "DEDA", "wheelchair": "no"}}, {"type": "node", "id": 6797111790, "lat": 53.5238279, "lon": 10.0190309, "tags": {"addr:city": "Hamburg", "addr:housenumber": "8a", "addr:postcode": "20539", "addr:street": "Katenweide", "alt_name": "Spielhaus Veddel", "amenity": "community_centre", "check_date": "2023-06-07", "community_centre:for": "child;juvenile", "description": "Offene Kinder- und Jugendarbeit", "name": "Spielhaus Katenweide", "operator": "Bezirksamt Hamburg-Mitte", "website": "https://hamburger-spielhaeuser.de/spielhaeuser/katenweide/"}}, {"type": "node", "id": 6797111791, "lat": 53.5237562, "lon": 10.0187788, "tags": {"addr:city": "Hamburg", "addr:housenumber": "8", "addr:postcode": "20539", "addr:street": "Katenweide", "amenity": "community_centre", "check_date": "2023-06-07", "community_centre:for": "senior", "description": "Der Treffpunkt orientiert sich an den Interessen seiner Bewohner/innen und Institutionen. Das Haus ist offen für Menschen unterschiedlicher nationaler und sozialer Herkunft und berücksichtigt deren unterschiedliche Lebenslagen und Bedürfnisse...", "name": "AWO Treffpunkt für Senioren und Nachbarschaft Veddel", "operator": "rbeiterwohlfahrt Landesverband Hamburg e.V.", "phone": "+49 40 785400", "website": "http://www.awo-hamburg-mitte.org/"}}, {"type": "node", "id": 6872910980, "lat": 53.5099886, "lon": 10.1865407, "tags": {"amenity": "community_centre", "community_centre": "family_centre", "community_centre:for": "multigeneration", "email": "kifaz.lo@sprungbrett-bergedorf.de", "fax": "+49 40 72543562", "level": "0", "name": "kinder- & familienhilfezentrum lohbrügge", "operator": "Sprungbrett e.V.", "phone": "+49 40 72543460", "short_name": "KiFaZ Lohbrügge", "website": "https://www.sprungbrett-bergedorf.de/", "wheelchair": "yes"}}, {"type": "node", "id": 6916509142, "lat": 53.7338674, "lon": 10.0882226, "tags": {"alt_name": "Tang Town City Center", "amenity": "community_centre", "community_centre": "youth_centre", "community_centre:for": "juvenile", "name": "Jugendzentrum Tangstedt", "operator": "Gemeinde Tangstedt - Kreis Stormarn", "operator:type": "public", "short_name": "TTCC", "website": "http://www.jugendzentrum-tangstedt.de"}}, {"type": "node", "id": 6932874045, "lat": 53.4960163, "lon": 10.1899508, "tags": {"amenity": "community_centre", "community_centre": "club_home", "name": "Jugendheim Fußball"}}, {"type": "node", "id": 6968727599, "lat": 53.4090481, "lon": 9.9934097, "tags": {"amenity": "community_centre", "name": "Fleester Hoff", "wheelchair": "yes"}}, {"type": "node", "id": 6972713386, "lat": 53.5086332, "lon": 10.209141, "tags": {"addr:city": "Hamburg", "addr:housenumber": "9", "addr:postcode": "21031", "addr:street": "Kurt-Adams-Platz", "alt_name": "Jugendfreizeit- und Beratungszentrum KAP der Ev. Auferstehungskirchengemeinde Lohbrügge", "amenity": "community_centre", "community_centre": "youth_centre", "description": "offene Kinder- und Jugendarbeit\nIm Winter Sonderöffnungszeiten: Su 15:00-18:00 kommt dazu", "name": "JUZ KAP", "opening_hours": "Mo 16:00-20:00; Tu 15:00-20:00; We 16:00-21:00; Th 15:00-20:00; Fr 14:00-19:00", "operator": "Ev. Auferstehungskirchengemeinde Lohbrügge", "website": "http://www.juz-kap.de/"}}, {"type": "node", "id": 6981613280, "lat": 53.4868356, "lon": 10.2052657, "tags": {"addr:city": "Hamburg", "addr:housenumber": "10", "addr:postcode": "21029", "addr:street": "Stuhlrohrstraße", "amenity": "community_centre", "check_date:opening_hours": "2023-02-23", "community_centre": "youth_centre", "community_centre:for": "child;juvenile", "description": "offene Kinder- und Jugendarbeit, Übergangsquartier des ehemaligen HdJ Lichtwarkhaus", "name": "Jugendclub im Quartier", "old_name": "Haus der Jugend Lichtwarkhaus", "opening_hours": "Tu-Fr 12:00-21:30", "operator": "Bezirksamt Bergedorf", "website": "http://www.lichtwarkhaus.de"}}, {"type": "node", "id": 6981748312, "lat": 53.4952296, "lon": 10.1292489, "tags": {"addr:city": "Hamburg", "addr:housenumber": "1", "addr:postcode": "21033", "addr:street": "Am Gleisdreieck", "amenity": "community_centre", "community_centre": "youth_centre", "community_centre:for": "juvenile", "description": "Offene Kinder- und Jugendarbeit", "name": "Jugendclub \"Gleis 1\"", "operator": "TSG Bergedorf von 1860 e.V.", "short_name": "Gleis 1", "website": "https://www.tsg-bergedorf.de/sportarten/kinder-jugendliche/gleis-1/"}}, {"type": "node", "id": 6983536389, "lat": 53.4919254, "lon": 10.1835088, "tags": {"addr:city": "Hamburg", "addr:housenumber": "648a", "addr:postcode": "21033", "addr:street": "Billwerder Billdeich", "amenity": "community_centre", "community_centre": "family_centre", "community_centre:for": "family", "description": "Familienförderung.  Es gibt ein halbjährlich wechselndes Kursprogramm, das auf der Website heruntergeladen werden kann.", "name": "Elternschule Bergedorf", "operator": "Bezirksamt Bergedorf", "operator:type": "public", "website": "https://www.hamburg.de/bergedorf/elternschule/"}}, {"type": "node", "id": 6983536391, "lat": 53.4948679, "lon": 10.2099205, "tags": {"addr:city": "Hamburg", "addr:housenumber": "8", "addr:postcode": "21031", "addr:street": "Walter-Freitag-Straße", "alt_name": "Jungentreff Madyou", "amenity": "community_centre", "check_date:opening_hours": "2024-05-16", "community_centre:for": "boy", "description": "offene Kinder- und Jugendarbeit, Jungentreff", "name": "Jungentreff im Billebogen", "opening_hours:signed": "no", "operator": "AWO Landesverband Hamburg e.V.", "url": "https://www.awo-jungentreff.de/"}}, {"type": "node", "id": 6983536392, "lat": 53.4908487, "lon": 10.2094088, "tags": {"addr:city": "Hamburg", "addr:country": "DE", "addr:housenumber": "11", "addr:postcode": "21029", "addr:street": "Reetwerder", "amenity": "community_centre", "community_centre:for": "family", "description": "Familienförderung", "name": "Mütterzentrum Bergedorf", "opening_hours": "\"Unterschiedliche Angebote mit individuellen Zeiten zwischen 10 und 19 Uhr\"", "operator": "Leben mit Kindern - Mütterzentrum Bergedorf e.V.", "short_name": "MüZe", "url": "http://www.muetterzentrumbergedorf.de/", "wheelchair": "no"}}, {"type": "node", "id": 6984029244, "lat": 53.4536982, "lon": 9.9817008, "tags": {"addr:city": "Hamburg", "addr:housenumber": "50", "addr:postcode": "21073", "addr:street": "Maretstraße", "amenity": "community_centre", "community_centre:for": "family", "description:de": "Familienförderung, Familienbildung", "name": "Elternschule Harburg", "operator": "Bezirksamt Harburg", "url": "http://www.feuervogel-harburg.de/der-feuervogel/hauptnutzer/", "website": "https://www.hamburg.de/harburg-elternschulen/", "wheelchair": "yes"}}, {"type": "node", "id": 6984152910, "lat": 53.4807275, "lon": 9.8749691, "tags": {"addr:city": "Hamburg", "addr:housenumber": "60", "addr:postcode": "21147", "addr:street": "Rehrstieg", "amenity": "community_centre", "community_centre:for": "family", "description": "Familienförderung, Familienbildung", "name": "Elternschule Süderelbe", "operator": "Bezirksamt Harburg", "url": "https://www.hamburg.de/harburg-elternschulen/"}}, {"type": "node", "id": 7063865135, "lat": 53.5826352, "lon": 9.9744277, "tags": {"addr:city": "Hamburg", "addr:housenumber": "232", "addr:postcode": "20251", "addr:street": "Eppendorfer Weg", "amenity": "community_centre", "name": "LAB - Lange Aktiv Bleiben e.V.", "operator": "LAB Landesverband Hamburg e.V.", "website": "http://www.labhamburg.de/index.php?treffpunkt=2"}}, {"type": "node", "id": 7123231939, "lat": 53.5830896, "lon": 9.7816008, "tags": {"addr:city": "Hamburg", "addr:housenumber": "111", "addr:postcode": "22559", "addr:street": "Suurheid", "alt_name": "Kleines KiFaZ Suurheid", "amenity": "community_centre", "community_centre:for": "family", "name": "Kleines Kifaz – Kinder- und Familienzentrum Rissen", "operator": "Deutscher Kinderschutzbund - Landesverband Hamburg e.V.", "url": "https://hamburg-aktiv.info/a873222", "website": "https://kinderschutzbund-hamburg.de/projects-archive/kinder-und-familienzentrum-rissen/"}}, {"type": "node", "id": 7123387539, "lat": 53.5891141, "lon": 9.8553432, "tags": {"addr:city": "Hamburg", "addr:housenumber": "76c", "addr:postcode": "22549", "addr:street": "Bornheide", "amenity": "community_centre", "community_centre:for": "family", "description:de": "Familienförderung", "name": "Elternschule Osdorf", "operator": "Ev.-Luth. Kirchenkreis Hamburg-West/Südholstein", "website": "https://www.fbs-hamburg.de/elternschule-osdorf"}}, {"type": "node", "id": 7125112522, "lat": 53.6041032, "lon": 9.8675771, "tags": {"addr:city": "Hamburg", "addr:housenumber": "33", "addr:postcode": "22547", "addr:street": "Netzestraße", "amenity": "community_centre", "community_centre:for": "juvenile", "name": "Jugendtreff Netzestraße", "opening_hours": "Tu 16:00-20:00; We 16:00-20:00,18:00-20:00; Fr 15:00-17:00,17:00-19:00", "operator": "Vereinigung Pestalozzi gemeinnützige GmbH", "phone": "+49 40 84 05 70 50", "url": "https://hamburg-aktiv.info/a8965", "website": "https://vereinigung-pestalozzi.de/jugendtreff-netzestrase/"}}, {"type": "node", "id": 7129634120, "lat": 53.5924774, "lon": 9.8498146, "tags": {"addr:city": "Hamburg", "addr:housenumber": "117", "addr:postcode": "22549", "addr:street": "Kroonhorst", "amenity": "community_centre", "community_centre": "youth_centre", "community_centre:for": "child;juvenile", "contact:phone": "+49 40 890 006 76", "description:de": "offener Kinder- und Jugendtreff über der Kita Kroonhorst", "name": "Jugendcafé Osdorf", "old_name": "Jugendtreff Get Out", "opening_hours": "Mo-Th 16:00-21:00; Fr 14:00-21:00", "operator": "movego Jugendhilfe gemeinnützige GmbH", "short_name": "JUCA Osdorf", "website": "https://movegojugendhilfe.de/juca-osdorf/"}}, {"type": "node", "id": 7137679182, "lat": 53.6192999, "lon": 9.9002241, "tags": {"addr:city": "Hamburg", "addr:housenumber": "59a", "addr:postcode": "22523", "addr:street": "Hörgensweg", "amenity": "community_centre", "community_centre": "youth_centre", "community_centre:for": "juvenile", "name": "Jugendclub Hörgensweg", "opening_hours": "Mo-Fr 14:30-19:00", "operator": "Verband Kinder- und Jugendarbeit Hamburg e.V.", "website": "http://www.jch-hamburg.de/"}}, {"type": "node", "id": 7137814118, "lat": 53.5489751, "lon": 10.0921112, "tags": {"addr:city": "Hamburg", "addr:country": "DE", "addr:housenumber": "65b", "addr:postcode": "22111", "addr:street": "Washingtonallee", "amenity": "community_centre", "community_centre:for": "juvenile", "name": "Timo-Jugendclub", "note": "Adressangabe laut Website", "opening_hours": "Mo,Tu,Th 16:00-20:00; Fr 15:00-18:00", "operator": "Ev.-Luth. Timotheusgemeinde zu Hamburg-Horn", "website": "https://www.timo-jugendclub.de/"}}, {"type": "node", "id": 7174524573, "lat": 53.6145162, "lon": 10.0575429, "tags": {"addr:housenumber": "43a", "addr:street": "Gropiusring", "amenity": "community_centre", "community_centre:for": "family", "description": "Familienförderung", "fixme": "Lokalisierung im Gebäude", "name": "Elternschule Steilshoop", "opening_hours": "Tu 10:00-12:00; Th 16:00-18:00", "operator": "Bezirksamt Wandsbek", "website": "http://www.elternschule-steilshoop.de", "wheelchair": "yes"}}, {"type": "node", "id": 7178341528, "lat": 53.6512537, "lon": 10.0677203, "tags": {"addr:city": "Hamburg", "addr:housenumber": "97", "addr:postcode": "22399", "addr:street": "Poppenbütteler Weg", "alt_name": "Familienbildungsstätte", "amenity": "community_centre", "community_centre:for": "family", "description": "Familienförderung, Elternkurse, Eltern-Kind-Treff", "fixme": "genauere Lokalisierung im Gemeindehaus", "name": "Evangelische Familienbildung Poppenbüttel", "website": "https://www.fbs-hamburg.de/poppenbuettel/"}}, {"type": "node", "id": 7207599474, "lat": 53.5883382, "lon": 9.9921041, "tags": {"addr:city": "Hamburg", "addr:housenumber": "14-16", "addr:postcode": "20249", "addr:street": "Loogeplatz", "alt_name": "Evangeliche Familienbildung Eppendorf", "amenity": "community_centre", "community_centre": "family_centre", "community_centre:for": "family", "description": "Familienförderung, Elternbildung, Kurse, Beratung, Treffpunkt für Familien mit kleinen Kindern", "name": "Evangelische Familienbildungsstätte Eppendorf", "old_name": "Haus der Frau", "opening_hours": "Mo,Tu,Th 09:00-12:00,14:30-16:30; We,Fr 09:00-12:00; PH,Sa,Su off", "operator": "Ev.-Luth. Kirchenkreis Hamburg-Ost", "website": "https://www.fbs-hamburg.de/eppendorf/"}}, {"type": "node", "id": 7214155673, "lat": 53.4938116, "lon": 10.254563, "tags": {"amenity": "community_centre", "community_centre": "youth_centre", "community_centre:for": "juvenile", "name": "Jugendtreff Prisma", "operator": "Gemeinde Wentorf bei Hamburg", "website": "https://www.wentorf.de/Bildung-Kinder-und-Jugend/Jugendtreff"}}, {"type": "node", "id": 7216219210, "lat": 53.5008443, "lon": 10.2534937, "tags": {"addr:city": "Wentorf bei Hamburg", "addr:housenumber": "1", "addr:postcode": "21465", "addr:street": "Waldweg", "amenity": "community_centre", "name": "Gemeindehaus", "operator": "Kirchengemeinde Wentorf", "operator:type": "religious", "website": "https://www.kirche-wentorf.de/"}}, {"type": "node", "id": 7216369570, "lat": 53.4954822, "lon": 10.2500721, "tags": {"addr:city": "Wentorf bei Hamburg", "addr:housenumber": "4a", "addr:postcode": "21465", "addr:street": "Am Burgberg", "amenity": "community_centre", "community_centre": "youth_centre", "community_centre:for": "child;juvenile", "name": "Jugendhaus MaBu", "operator": "Evangelisch-Lutherische Kirchengemeinde Wentorf", "operator:type": "religious", "website": "https://www.kirche-wentorf.de/jugendhaus-mabu.html"}}, {"type": "node", "id": 7222347654, "lat": 53.4939896, "lon": 10.131886, "tags": {"addr:housenumber": "4b", "addr:street": "Am Gleisdreieck", "amenity": "community_centre", "community_centre:for": "family", "name": "Eltern-Kind-Zentrum Froschfamilie", "opening_hours": "Mo-Tu 09:00-13:00; We 12:30-16:30", "operator": "PMP Projektmanagement GmbH", "short_name": "EKiZ", "website": "http://www.ekiz-billwerder.de"}}, {"type": "node", "id": 7237674885, "lat": 53.5899847, "lon": 10.0533678, "tags": {"addr:housenumber": "121", "addr:postcode": "22305", "addr:street": "Bramfelder Straße", "amenity": "community_centre", "name": "Jobcenter Team.arbeit.hamburg Bramfeld"}}, {"type": "node", "id": 7296982506, "lat": 53.4658523, "lon": 9.9624222, "tags": {"amenity": "community_centre", "check_date:opening_hours": "2023-03-20", "community_centre": "meeting_room", "name": "begegungsstätte.heimfeld", "opening_hours": "Mo 10:00-16:00, Tu,We 12:00-18:00, Th 11:00-19:00, Fr 13:00-18:00", "wheelchair": "no"}}, {"type": "node", "id": 7623149472, "lat": 53.4641891, "lon": 9.9786175, "tags": {"amenity": "community_centre", "community_centre": "youth_centre", "contact:website": "http://hakiju.de", "name": "Jugendhilfezentrum Harburg", "operator": "Hamburger Kinder- und Jugendhilfe e.V."}}, {"type": "node", "id": 7644356291, "lat": 53.5257727, "lon": 10.0206808, "tags": {"addr:city": "Hamburg", "addr:housenumber": "122", "addr:postcode": "20539", "addr:street": "Veddeler Brückenstraße", "amenity": "community_centre", "community_centre": "cultural_centre", "contact:facebook": "Luttjeluud", "description": "Klassenpolitischer Info- und Kulturladen", "internet_access": "no", "name": "Lüttje Lüüd", "opening_hours": "Fr, Sa 19:00-00:00", "website": "https://junges-hamburg.de/luttje-luud/"}}, {"type": "node", "id": 7711112415, "lat": 53.5983111, "lon": 10.0752622, "tags": {"amenity": "community_centre", "name": "Taha e.V."}}, {"type": "node", "id": 7711434955, "lat": 53.620838, "lon": 10.1282528, "tags": {"addr:city": "Hamburg", "addr:housenumber": "18-20", "addr:postcode": "22159", "addr:street": "Birckholtzweg", "amenity": "community_centre", "community_centre:for": "neighbourhood", "name": "Nachbarschaftstreff fabelhaft", "operator": "Pestalozzi-Stiftung Hamburg", "website": "https://pestalozzi-hamburg.de/fabelhaft/"}}, {"type": "node", "id": 7728046241, "lat": 53.4617986, "lon": 9.9789045, "tags": {"amenity": "community_centre", "club": "yes", "community_centre": "club_home", "contact:email": "info@kami-ev.de", "contact:mobile": "+49 1736870448", "contact:website": "https://www.kami-ev.de/", "name": "KAMI e.V.", "operator": "KAMI e.V."}}, {"type": "node", "id": 7735014363, "lat": 53.556514, "lon": 9.9479221, "tags": {"addr:city": "Hamburg", "addr:country": "DE", "addr:housenumber": "109", "addr:postcode": "22767", "addr:street": "Hospitalstraße", "amenity": "community_centre", "community_centre:for": "immigrant", "name": "verikom Altona", "website": "https://www.verikom.de/wir-uber-uns/standorte/altona-hospitalstrasse/"}}, {"type": "node", "id": 7834973138, "lat": 53.5477882, "lon": 9.9597479, "tags": {"addr:city": "Hamburg", "addr:country": "DE", "addr:housenumber": "22", "addr:postcode": "20359", "addr:street": "Balduinstraße", "amenity": "community_centre", "currency:EUR": "yes", "currency:others": "no", "image": "https://pbs.twimg.com/media/Ef4j6E5XsAEFkVI?format=jpg", "indoor": "yes", "internet_access": "wlan", "internet_access:fee": "no", "internet_access:operator": "Q2363543", "internet_access:start_date": "2020-08", "language:de": "main", "level": "0", "name": "Incito", "name:etymology:wikidata": "Q6132400", "opening_hours": "Mo,Tu,Th,Fr 15:00-19:00", "operator:type": "community", "payment:cash": "yes", "start_date": "2020-08"}}, {"type": "node", "id": 7837548991, "lat": 53.6319898, "lon": 9.9556545, "tags": {"amenity": "community_centre", "brand": "Deutsches Rotes Kreuz", "brand:wikidata": "Q694104", "check_date:opening_hours": "2023-04-15", "club": "social", "community_centre": "club_home", "level": "1", "name": "DRK Bereitsschaft Kreisverband Eimsbüttell", "opening_hours:signed": "no", "operator": "DRK Kreisverband Eimsbüttel e.V."}}, {"type": "node", "id": 7850012327, "lat": 53.4530013, "lon": 9.798713, "tags": {"amenity": "community_centre", "brand": "Deutsches Rotes Kreuz", "brand:wikidata": "Q694104", "community_centre": "club_home", "name": "DRK Ortsverein Neu Wulmstorf", "operator": "Deutsches Rotes Kreuz Ortsverein Neu Wulmstorf e.V.", "short_name": "DRK OV Neu Wulmstorf"}}, {"type": "node", "id": 7884522135, "lat": 53.4619063, "lon": 9.9790299, "tags": {"amenity": "community_centre", "entrance": "yes", "name": "Treska", "opening_hours:signed": "no", "operator": "Treska Albanische Vereinsclub e.V.", "wheelchair": "limited"}}, {"type": "node", "id": 7890764156, "lat": 53.5549781, "lon": 10.0114026, "tags": {"amenity": "community_centre", "name": "Hier & Leute"}}, {"type": "node", "id": 8032343138, "lat": 53.5718145, "lon": 9.9560703, "tags": {"amenity": "community_centre", "check_date": "2023-05-15", "community_centre:for": "family", "description:de": "Familienförderung, Familienbildung", "name": "Elternschule Eimsbüttel", "opening_hours": "Mo,We 10:00-12:00", "operator": "Bezirksamt Eimsbüttel", "url": "https://elternschulen-eimsbuettel.de/elternschule-eimsbuettel/", "website": "https://elternschule-eimsbuettel.de/"}}, {"type": "node", "id": 8032343139, "lat": 53.5768763, "lon": 9.9806216, "tags": {"addr:city": "Hamburg", "addr:housenumber": "18 b+c", "addr:postcode": "20144", "addr:street": "Oberstraße", "amenity": "community_centre", "description:de": "Familienförderung, Familienbildung", "email": "elternschule-amgrindel@eimsbuettel.hamburg.de", "name": "Elternschule am Grindel", "opening_hours": "Mo,Th 10:00-12:00", "operator": "Bezirksamt Eimsbüttel", "operator:type": "public", "phone": "+49 40 428013311", "website": "https://elternschulen-eimsbuettel.de/elternschule-am-grindel/"}}, {"type": "node", "id": 8032343140, "lat": 53.6075463, "lon": 9.9030485, "tags": {"addr:city": "Hamburg", "addr:housename": "steeedt", "addr:housenumber": "12", "addr:postcode": "22523", "addr:street": "Alte Elbgaustraße", "amenity": "community_centre", "community_centre:for": "family", "description:de": "Familienförderung, Familienbildung", "name": "Elternschule Eidelstedt", "note:de": "offizielle Adresse: Elternschule Eidelstedt im steeedt , Alte Elbgaustr. 12, 22523 Hamburg", "operator": "Bezirksamt Eimsbüttel", "operator:type": "public", "website": "https://elternschulen-eimsbuettel.de/elternschule-eidelstedt/"}}, {"type": "node", "id": 8034859527, "lat": 53.5792341, "lon": 9.7975718, "tags": {"addr:city": "Hamburg", "addr:housenumber": "189", "addr:postcode": "22589", "addr:street": "Sülldorfer Kirchenweg", "amenity": "community_centre", "community_centre": "youth_club", "community_centre:for": "juvenile", "name": "Jugendcafé Basement", "opening_hours": "Mo 18:00-20:30; Fr 19:00-22:30", "operator": "Ev.-Luth. Kirchengemeinde Sülldorf-Iserbrook", "website": "https://kgmsi.de/basement"}}, {"type": "node", "id": 8038397105, "lat": 53.508918, "lon": 9.9938576, "tags": {"addr:city": "Hamburg", "addr:housenumber": "75", "addr:postcode": "21107", "addr:street": "Zeidlerstraße", "amenity": "community_centre", "community_centre:for": "family", "description:de": "Familienbildung. Familienförderung", "name": "Elternschule Wilhelmsburg", "operator": "Bezirksamt Hamburg-Mitte", "operator:type": "public", "website": "https://tzw.hamburg.de/elternschule-wilhelmsburgveddel"}}, {"type": "node", "id": 8038397106, "lat": 53.5002898, "lon": 10.0120686, "tags": {"addr:housenumber": "2d", "addr:street": "Krieterstraße", "amenity": "community_centre", "community_centre:for": "family", "contact:phone": "+49 40 4287 64110", "contact:website": "https://tzw.hamburg.de/elternschule-wilhelmsburgveddel", "description:de": "Elternbildung, Familienförderung", "name": "Elternschule Wilhelmsburg", "opening_hours": "\"please call us\"", "operator": "Bezirksamt Hamburg-Mitte", "operator:type": "public"}}, {"type": "node", "id": 8039053244, "lat": 53.5355308, "lon": 10.0411903, "tags": {"addr:housenumber": "75", "addr:street": "Marckmannstraße", "amenity": "community_centre", "community_centre:for": "family", "description:de": "Familienbildung, Familienförderung", "name": "Elternschule Rothenburgsort", "opening_hours": "Tu 15:00-17:00; Th 10:00-12:00", "operator": "Bezirksamt Hamburg-Mitte", "operator:type": "public", "website": "https://elternschule-rothenburgsort.de"}}, {"type": "node", "id": 8039731891, "lat": 53.6090403, "lon": 10.0724676, "tags": {"addr:housenumber": "189", "addr:street": "Bramfelder Chaussee", "amenity": "community_centre", "community_centre:for": "family", "name": "FamilienTreff Bramfeld", "opening_hours": "Tu 16:15-19:00", "operator": "alsterdorf assistenz ost", "website": "https://familientreff-bramfeld.de/", "wheelchair": "yes"}}, {"type": "node", "id": 8079007990, "lat": 53.6353725, "lon": 9.8419881, "tags": {"addr:city": "Halstenbek", "addr:country": "DE", "addr:housenumber": "10", "addr:postcode": "25469", "addr:street": "Schulstraße", "amenity": "community_centre", "community_centre": "community_hall", "community_centre:for": "senior", "name": "DRK-Begegnungsstätte", "operator": "Deutsches Rotes Kreuz"}}, {"type": "node", "id": 8086066802, "lat": 53.6469835, "lon": 9.9094196, "tags": {"addr:city": "Hamburg", "addr:housenumber": "20", "addr:postcode": "22457", "addr:street": "Walter-Jungleib-Straße", "alt_name": "Kinder- und Familienzentrum", "amenity": "community_centre", "community_centre:for": "family", "name": "KiFaZ Burgwedel", "opening_hours": "Mo 10:00-13:00,15:00-18:00; Tu 09:00-12:00; Th 15:00-18:00 || \"Daneben können Termine für Beratung verabredet werden\"", "operator": "Verband Kinder- und Jugendarbeit Hamburg e.V.", "phone": "+49 40 55009135", "website": "https://www.kifaz-schnelsen.de/standorte/burgwedel"}}, {"type": "node", "id": 8086209487, "lat": 53.6056007, "lon": 9.8668429, "tags": {"addr:city": "Hamburg", "addr:housenumber": "14a", "addr:postcode": "22547", "addr:street": "Netzestraße", "alt_name": "Kinder- und Familienhilfezentrum", "amenity": "community_centre", "community_centre": "family_centre", "community_centre:for": "family;child;juvenile", "description:de": "Familienförderung, Beratung, Beistand und Hilfe in Krisensituationen für Kinder, Jugendliche und Familien in Lurup", "name": "KiFaZ Lurup", "social_facility": "outreach", "social_facility:for": "family;child,juvenile", "website": "https://kinderschutzbund-hamburg.de/projects-archive/kinder-und-familienzentrum-lurup-fuer-eltern/"}}, {"type": "node", "id": 8089012527, "lat": 53.4357392, "lon": 9.9034532, "tags": {"amenity": "community_centre", "name": "Gemeindehaus Erlöserkirche zu Vahrendorf", "operator": "Erlöserkirche zu Vahrendorf"}}, {"type": "node", "id": 8429773523, "lat": 53.7301166, "lon": 10.2574967, "tags": {"addr:city": "Bargteheide", "addr:housenumber": "39", "addr:postcode": "22941", "addr:street": "Alte Landstraße", "amenity": "community_centre", "name": "VitaminC - Gemeindezentrum (VC)", "operator": "Landeskirchliche Gemeinschaft (LKG) Stormarn", "operator:type": "religious", "website": "https://lkg-stormarn.de", "wheelchair": "yes"}}, {"type": "node", "id": 8499241724, "lat": 53.5188165, "lon": 9.9828446, "tags": {"amenity": "community_centre", "check_date:opening_hours": "2023-05-04", "community_centre": "meeting_room", "contact:email": "westend@hoffnungsorte-hamburg.de", "contact:phone": "+49 40 75666401", "contact:website": "https://hoffnungsorte-hamburg.de/die-hoffnungsorte/westend-open-med/", "name": "Westend Nachbarschaftstreff und open.med", "opening_hours": "Tu 09:00-12:00"}}, {"type": "node", "id": 8661880254, "lat": 53.4870343, "lon": 10.0210965, "tags": {"addr:city": "Hamburg", "addr:housenumber": "9", "addr:postcode": "21109", "addr:street": "Karl-Arnold-Ring", "amenity": "community_centre", "community_centre": "youth_centre", "community_centre:for": "juvenile", "name": "Jugendzentrum Kirchdorf-Süd", "operator": "Jugendzentrum Kirchdorf-Süd e.V."}}, {"type": "node", "id": 8662273863, "lat": 53.6152819, "lon": 10.050162, "tags": {"addr:city": "Hamburg", "addr:housenumber": "57", "addr:postcode": "22309", "addr:street": "Edwin-Scharff-Ring", "alt_name": "Mobiles Kinderprojekt", "amenity": "community_centre", "community_centre:for": "child", "description:de": "Kindertreff, Offene Kinder- und Jugendarbeit, Spiel- und Freizeitprogramm für Kinder von 8-14 Jahren", "name": "MOKIP", "operator": "1. FC Hellbrook e.V.", "website": "http://www.fc-hellbrook-ev.de/sozialarbeit.html"}}, {"type": "node", "id": 8833385302, "lat": 53.7319491, "lon": 9.9036218, "tags": {"addr:city": "Quickborn", "addr:housenumber": "25", "addr:postcode": "25451", "addr:street": "Am Freibad", "amenity": "community_centre", "description": "Kinder- und Jugendbüro", "email": "jugend@quickborn.de", "name": "Haus 25", "opening_hours": "Mo-Tu 11:00-14:00; We 12:00-14:00; Th 11:00-14:00", "phone": "+49 4106 611244", "website": "https://stadtjugendpflege-quickborn.de/haus-25/"}}, {"type": "node", "id": 8960909577, "lat": 53.7301987, "lon": 9.906365, "tags": {"amenity": "community_centre", "name": "AWO-Treff"}}, {"type": "node", "id": 9023376385, "lat": 53.6623892, "lon": 9.8987798, "tags": {"addr:city": "Bönningstedt", "addr:housenumber": "50", "addr:postcode": "25474", "addr:street": "Rugenbergener Straße", "alt_name": "Kinder und Jugendzentrum Bönningstedt", "amenity": "community_centre", "contact:instagram": "https://www.instagram.com/kijura.de/", "description": "Kann gemietet werden. Wird oft von Jugendlichen für private Feiern etc. genutzt", "internet_access": "no", "name": "KiJu Bönningstedt", "opening_hours": "Mo-Th 16:00-20:00; We 16:30-20:30; Th 14:30-20:00; Fr 15:00-18:00; Sa-Su closed", "operator": "Martina Niehusen", "phone": "+49 152 33626999", "toilets": "customers", "website": "https://www.kijura.de/kiju-boenningstedt/", "wheelchair": "no"}}, {"type": "node", "id": 9101530960, "lat": 53.5280768, "lon": 10.1488035, "tags": {"addr:city": "Hamburg", "addr:housenumber": "18", "addr:postcode": "22115", "addr:street": "Feiningerstraße", "alt_name": "100 Steine Mümmelmannsberg", "amenity": "community_centre", "community_centre": "youth_centre", "community_centre:for": "juvenile", "name": "Lass 1000 Steine rollen! Musikbereich", "opening_hours": "Tu-Fr 16:00-22:00; Sa 14:00-20:00; PH off", "operator": "Trockendock e.V.", "website": "https://www.1000-steine.de/musikbereich"}}, {"type": "node", "id": 9615054340, "lat": 53.5420565, "lon": 10.0102846, "tags": {"addr:city": "Hamburg", "addr:country": "DE", "addr:housename": "Halle 4K", "addr:housenumber": "41", "addr:postcode": "20457", "addr:street": "Stockmeyerstraße", "amenity": "community_centre", "club": "doityourself", "community_centre": "for=*", "description": "The Curious Community of Hamburg is located in the heart of Hamburg. Right in the center of the creative district of the Oberhafen, people that are interested in Bioeconomy and Life Sciences can participate and learn about biological processes.", "email": "office@curious.bio", "image": "https://curious.bio/wp-content/uploads/2021/08/D4S9515.jpg", "name": "Curious Community Lab", "operator": "Curious Community Labs e. V.", "operator:type": "ngo", "research": "biology", "start_date": "2020-12-18", "website": "https://curious.bio/", "wheelchair": "limited"}}, {"type": "node", "id": 9720760403, "lat": 53.5441036, "lon": 10.0359842, "tags": {"amenity": "community_centre", "name": "WERK - Haus neuer Arbeit"}}, {"type": "node", "id": 9755046980, "lat": 53.7302291, "lon": 9.9906975, "tags": {"amenity": "community_centre", "community_centre": "youth_centre", "community_centre:for": "juvenile", "name": "JUZ Glockenheide", "official_name": "Jugendhaus Glockenheide"}}, {"type": "node", "id": 9779608371, "lat": 53.5106867, "lon": 9.7303895, "tags": {"addr:city": "Jork", "addr:housenumber": "113", "addr:postcode": "21635", "addr:street": "Estebrügger Straße", "amenity": "community_centre", "name": "Die Brückenbäckerei", "operator": "Die Brückenbäckerei e.V.", "website": "http://diebrueckenbaeckerei.de/"}}, {"type": "node", "id": 9849530017, "lat": 53.6532356, "lon": 10.2820523, "tags": {"amenity": "community_centre", "operator:type": "community", "survey:date": "2022-06-27"}}, {"type": "node", "id": 10029940668, "lat": 53.5567549, "lon": 9.9462962, "tags": {"amenity": "community_centre", "community_centre:for": "family", "contact:phone": "+49 40 33457182", "contact:website": "https://www.fbs-hamburg.de/altona", "name": "Elternschule Altona", "operator": "Ev.-Luth. Kirchenkreis Hamburg-West/Südholstein"}}, {"type": "node", "id": 10045394347, "lat": 53.7067091, "lon": 9.9915062, "tags": {"amenity": "community_centre", "community_centre": "youth_centre", "community_centre:for": "juvenile", "name": "Jugendhaus Bunker"}}, {"type": "node", "id": 10196672617, "lat": 53.5552405, "lon": 9.9296327, "tags": {"addr:housenumber": "26", "addr:postcode": "22765", "addr:street": "Zeißstraße", "amenity": "community_centre", "check_date:opening_hours": "2024-05-11", "email": "inci-sv@gmx.de", "name": "INCI e.V.", "opening_hours": "Tu-Th 10:00-13:00", "opening_hours:signed": "no", "phone": "+49 40 3903091", "website": "https://www.inci-hamburg.de/"}}, {"type": "node", "id": 10654284033, "lat": 53.4593897, "lon": 9.9834394, "tags": {"addr:city": "Hamburg", "addr:housenumber": "4", "addr:postcode": "21073", "addr:street": "Lüneburger Tor", "amenity": "community_centre", "check_date:opening_hours": "2024-05-16", "community_centre": "community_hall", "contact:email": "info@treff-lueto.de", "contact:phone": "+49 40 46002681", "contact:website": "https://treff-lueto.de/", "name": "Treff Lüneburger Tor", "opening_hours": "Mo 10:00-13:00; Tu 10:00-13:00; We 11:00-14:00; Th 10:00-13:00; Fr 13:00-19:00", "operator": "Hanse Betreuung GmbH & vitaCurare GmbH", "operator:type": "ngo", "short_name": "Treff Lü To", "website": "https://treff-lueto.de/gruppenangebote/"}}, {"type": "node", "id": 10766418875, "lat": 53.5113844, "lon": 9.967391, "tags": {"amenity": "community_centre", "community_centre": "club_home", "name": "Casa de Espana", "office": "association", "operator": "Casa de Espana e.V."}}, {"type": "node", "id": 10847104844, "lat": 53.5602946, "lon": 9.9750832, "tags": {"addr:city": "Hamburg", "addr:housenumber": "1", "addr:postcode": "20357", "addr:street": "Flora-Neumann-Straße", "amenity": "community_centre", "name": "Jüdisches Kulturhaus"}}, {"type": "node", "id": 10920439394, "lat": 53.5404059, "lon": 10.2235976, "tags": {"addr:city": "Glinde", "addr:housenumber": "24c", "addr:postcode": "21509", "addr:street": "Oher Weg", "alt_name": "Jugendzentrum Oher Weg", "amenity": "community_centre", "community_centre": "youth_centre", "community_centre:for": "juvenile", "name": "JUZ24", "website": "https://www.glinde.de/leben-in-glinde/angebote-fuer-kinder-jugendliche/treffpunkte"}}, {"type": "node", "id": 10924087507, "lat": 53.5175981, "lon": 10.1688847, "tags": {"addr:city": "Hamburg", "addr:housenumber": "1", "addr:postcode": "21031", "addr:street": "Bockhorster Weg", "amenity": "community_centre", "community_centre:for": "family", "name": "Eltern-Kind-Zentrum Boberg", "operator": "Ballin Stiftung e.V.", "short_name": "EKiZ", "website": "https://www.ballin.hamburg/angebote/ballin-kita-mit-eltern-kind-zentrum-bockhorster-weg/"}}, {"type": "node", "id": 10949209047, "lat": 53.5916981, "lon": 9.9829769, "tags": {"amenity": "community_centre", "check_date:opening_hours": "2023-09-09", "community_centre:for": "senior", "contact:website": "https://lebenimalter-hh.de/", "name": "Begegnungsstätte Martinistraße", "opening_hours:signed": "no", "operator": "\"Leben im Alter\", Ev. Luth. Kirchengemeinde St. Martinus Eppendorf", "operator:type": "religious"}}, {"type": "node", "id": 10957777439, "lat": 53.640642, "lon": 10.0239395, "tags": {"amenity": "community_centre", "community_centre:for": "child;juvenile", "opening_hours": "Mo-We 16:00-18:00; Th-Fr 15:00-20:00", "operator": "Interessengemeinschaft um den Lentersweg e.V.", "website": "https://igl-hamburg.de/angebote/angebote-fuer-kinder-jugendliche/"}}, {"type": "node", "id": 10957849056, "lat": 53.6289252, "lon": 10.1667392, "tags": {"alt_name": "EKiZ in der Kita Spitzbergenweg", "amenity": "community_centre", "community_centre:for": "family", "name": "Eltern-Kind-Zentrum", "operator": "Kita Spitzbergenweg", "website": "https://www.elbkinder-kitas.de/de/kita_finder/kita/429"}}, {"type": "node", "id": 10959333621, "lat": 53.5603118, "lon": 9.9728056, "tags": {"addr:city": "Hamburg", "addr:housenumber": "5", "addr:postcode": "20357", "addr:street": "Flora-Neumann-Straße", "amenity": "community_centre", "community_centre:for": "child;juvenile", "description": "stadtteilbezogene Kinder- und Jugendarbeit/Jugendsozialarbeit, Hausaufgaben- u. Lernhilfe, Nachmittagsbetreuung von Schulkindern", "name": "Kinder- und Jugendtreff der AGKV", "opening_hours": "\"Aushang mit Terminen\"", "operator": "Arbeitsgemeinschaft Karolinenviertel e.V.", "short_name": "AGKV", "social_facility:for": "child;juvenile", "website": "https://www.agkv-hh.de"}}, {"type": "node", "id": 11012804769, "lat": 53.620653, "lon": 10.1349663, "tags": {"addr:city": "Hamburg", "addr:country": "DE", "addr:housenumber": "126", "addr:postcode": "22147", "addr:street": "Bekassinenau", "amenity": "community_centre", "building": "public", "community_centre:for": "family", "description": "Familienförderung, Erwachsenenbildung, Offener Treffpunkt für Eltern mit Säuglingen und Kleinkindern", "name": "Elternschule Farmsen-Berne", "operator": "Bezirksamt Wandsbek", "website": "https://www.hamburg.de/elternschulen-wandsbek/"}}, {"type": "node", "id": 11014637425, "lat": 53.5577007, "lon": 10.0127862, "tags": {"amenity": "community_centre", "community_centre": "parish_hall", "name": "Gemeindesaal"}}, {"type": "node", "id": 11045954779, "lat": 53.5956006, "lon": 9.8905119, "tags": {"amenity": "community_centre", "check_date:opening_hours": "2023-09-10", "community_centre:for": "family", "name": "Eltern-Kind-Zentrum Lurup", "opening_hours:signed": "no", "operator": "Evangelische Stiftung Alsterdorf", "short_name": "EKiZ", "website": "https://kita-moorwisch.de/eltern-kind-zentrum-kita-moorwisch/", "wheelchair": "yes"}}, {"type": "node", "id": 11093280630, "lat": 53.5905723, "lon": 10.0384667, "tags": {"amenity": "community_centre", "name": "Mook wat Arbeitsladen", "operator": "Mook wat e.V."}}, {"type": "node", "id": 11176199939, "lat": 53.5920293, "lon": 9.935936, "tags": {"amenity": "community_centre", "name": "Bürgertreff Stellingen"}}, {"type": "node", "id": 11272697115, "lat": 53.5635201, "lon": 9.8867296, "tags": {"amenity": "community_centre", "email": "pfarrbuero@kathhw.de", "name": "Gemeindehaus St. Paulus Augustinus", "opening_hours": "Tu 09:30-12:30", "operator": "Pfarrei St. Maria", "wheelchair": "yes"}}, {"type": "node", "id": 11313863055, "lat": 53.5012151, "lon": 10.0019215, "tags": {"amenity": "community_centre", "club": "sport", "community_centre": "club_home", "name": "ESV Einigkeit Wilhelmsburg von 1908 e.V."}}, {"type": "node", "id": 11579049787, "lat": 53.5209286, "lon": 9.7817646, "tags": {"addr:city": "Hamburg", "addr:country": "DE", "addr:housenumber": "89", "addr:postcode": "21129", "addr:street": "Seehofring", "amenity": "community_centre", "community_centre:for": "child;juvenile", "description": "Offene Kinder- und Jugendarbeit sowie Beratung von Jungerwachsenen und jungen Familien in Neuenfelde", "name": "Jugendarbeit Heimfeld", "operator": "DRK gemeinnützige Gesellschaft für Pädagogik Hamburg-Harburg mbH", "website": "https://www.drk-harburg.hamburg/freizeitgestaltung-fuer-jugendliche"}}, {"type": "node", "id": 11708885425, "lat": 53.5147011, "lon": 9.9902705, "tags": {"amenity": "community_centre", "community_centre:for": "family", "name": "Eltern-Kind-Zentrum Reiherstieg", "opening_hours": "Mo,Tu,Th 09:00-13:00", "operator": "Evangelisch-Lutherischer Kirchenkreis Hamburg-Ost", "short_name": "EKiZ", "website": "https://ekiz-reiherstieg.de"}}, {"type": "node", "id": 11936675518, "lat": 53.5454504, "lon": 9.9435484, "tags": {"amenity": "community_centre", "community_centre": "youth_centre", "community_centre:for": "child;juvenile", "name": "Jugendclub Palmaille", "old_name": "Jugendclub Struenseestraße", "operator": "Bezirksamt Altona", "operator:type": "public", "phone": "+49 40 428112187", "website": "https://sozialraum-altona.de/einrichtung/jugendclub-palmaille/"}}]}